{
"type": "FeatureCollection",
"name": "seoul_flood_trace_2024",
"crs": { "type": "name", "properties": { "name": "urn:ogc:def:crs:OGC:1.3:CRS84" } },
"features": [
{ "type": "Feature", "properties": { "F_YR": 2024, "F_SHIM": 0.2, "F_AREA": 28.35102197, "F_AVR_HGT": 31.28738327, "ADM_CD": 1114013200.0, "F_ZONE_NM": "중구 충무로4가 127-16번지", "TYPE": null }, "geometry": { "type": "Polygon", "coordinates": [ [ [ 126.995635511712194, 37.562268633276204 ], [ 126.995663637625881, 37.562268634674247 ], [ 126.995673717669746, 37.562181851894735 ], [ 126.995634579006349, 37.562183291533522 ], [ 126.995635511712194, 37.562268633276204 ] ] ] } },
{ "type": "Feature", "properties": { "F_YR": 2024, "F_SHIM": 0.2, "F_AREA": 160.99022868, "F_AVR_HGT": 25.71949501, "ADM_CD": 1168010800.0, "F_ZONE_NM": "강남구 학동로20길 491층", "TYPE": null }, "geometry": { "type": "Polygon", "coordinates": [ [ [ 127.02749019832693, 37.510300007339438 ], [ 127.027342629309899, 37.510392932500203 ], [ 127.027410854618481, 37.510460582450158 ], [ 127.027559328612597, 37.510367927304841 ], [ 127.02749019832693, 37.510300007339438 ] ] ] } },
{ "type": "Feature", "properties": { "F_YR": 2024, "F_SHIM": 0.2, "F_AREA": 589.09685310999998, "F_AVR_HGT": 15.05330772, "ADM_CD": 1117012900.0, "F_ZONE_NM": "용산구 이촌로75길 22 (이촌동) 1층 우부장돈대리", "TYPE": null }, "geometry": { "type": "Polygon", "coordinates": [ [ [ 126.974786510907009, 37.520786246591904 ], [ 126.974703279575678, 37.520621444651546 ], [ 126.974386754889821, 37.520726599643957 ], [ 126.974468675095991, 37.520886833456785 ], [ 126.974786510907009, 37.520786246591904 ] ] ] } },
{ "type": "Feature", "properties": { "F_YR": 2024, "F_SHIM": 0.2, "F_AREA": 227.06924426, "F_AVR_HGT": 20.52170677, "ADM_CD": 1121510300.0, "F_ZONE_NM": "광진구 아차산로 401-5 지하3호구의1동", "TYPE": null }, "geometry": { "type": "Polygon", "coordinates": [ [ [ 127.086859263666923, 37.53776165753618 ], [ 127.087053013453826, 37.537810432263306 ], [ 127.087096462415019, 37.537702389779824 ], [ 127.086902892936351, 37.537652759049507 ], [ 127.086859263666923, 37.53776165753618 ] ] ] } },
{ "type": "Feature", "properties": { "F_YR": 2024, "F_SHIM": 0.2, "F_AREA": 209.68128902000001, "F_AVR_HGT": 29.38899345, "ADM_CD": 1159010200.0, "F_ZONE_NM": "동작구 성대로5길  40 B02호 (상도동, 우창빌라)", "TYPE": null }, "geometry": { "type": "Polygon", "coordinates": [ [ [ 126.934056660859667, 37.500829674691644 ], [ 126.934252113239282, 37.500818127216554 ], [ 126.934242857194363, 37.500710569759477 ], [ 126.934061632627632, 37.500708610367091 ], [ 126.934063152342446, 37.500741533718873 ], [ 126.934056660859667, 37.500829674691644 ] ] ] } },
{ "type": "Feature", "properties": { "F_YR": 2024, "F_SHIM": 0.2, "F_AREA": 301.94423023000002, "F_AVR_HGT": 14.07175846, "ADM_CD": 1126010200.0, "F_ZONE_NM": "중랑구 상봉2동 128-15번지", "TYPE": null }, "geometry": { "type": "Polygon", "coordinates": [ [ [ 127.079582723592694, 37.5935764219631 ], [ 127.079664881372651, 37.593574511573472 ], [ 127.079664220643451, 37.593559862008192 ], [ 127.079619904328084, 37.593485875487637 ], [ 127.079569712155333, 37.593401702703524 ], [ 127.079412150735521, 37.593454036835382 ], [ 127.079424583540003, 37.593562813461226 ], [ 127.079461708469893, 37.593570582466313 ], [ 127.079582723592694, 37.5935764219631 ] ] ] } },
{ "type": "Feature", "properties": { "F_YR": 2024, "F_SHIM": 0.2, "F_AREA": 83.52415385, "F_AVR_HGT": 29.46388931, "ADM_CD": 1129011400.0, "F_ZONE_NM": "성북구 삼선교로23길 1지하", "TYPE": null }, "geometry": { "type": "Polygon", "coordinates": [ [ [ 127.014631429252148, 37.58985716753714 ], [ 127.014701142784745, 37.589799767031906 ], [ 127.014577743924022, 37.589760380675173 ], [ 127.014541977196444, 37.589830246999433 ], [ 127.014631429252148, 37.58985716753714 ] ] ] } },
{ "type": "Feature", "properties": { "F_YR": 2024, "F_SHIM": 0.1, "F_AREA": 198.50726922000001, "F_AVR_HGT": 47.93081436, "ADM_CD": 1129011700.0, "F_ZONE_NM": "성북구 동선동2가 331", "TYPE": "주택" }, "geometry": { "type": "Polygon", "coordinates": [ [ [ 127.021962746925411, 37.59017552467683 ], [ 127.021983799533501, 37.590107721915942 ], [ 127.02198899220086, 37.590091818632168 ], [ 127.021979139926614, 37.590002839070998 ], [ 127.021876458401181, 37.590010127771762 ], [ 127.021831341882077, 37.590148157420529 ], [ 127.021830470774688, 37.59015082448569 ], [ 127.021962746925411, 37.59017552467683 ] ] ] } },
{ "type": "Feature", "properties": { "F_YR": 2024, "F_SHIM": 0.1, "F_AREA": 201.31684198, "F_AVR_HGT": 141.52756653, "ADM_CD": 1129013300.0, "F_ZONE_NM": "성북구 정릉동 840-29", "TYPE": "주택" }, "geometry": { "type": "Polygon", "coordinates": [ [ [ 126.997844939877098, 37.614347089684628 ], [ 126.997831794623735, 37.614257549764702 ], [ 126.997817591178688, 37.614266694278996 ], [ 126.997813749700569, 37.614305238133447 ], [ 126.997711644588279, 37.614301468781193 ], [ 126.997660450695136, 37.614295016092704 ], [ 126.997657074958383, 37.614305503403195 ], [ 126.997618872083805, 37.61430066387755 ], [ 126.997596498733714, 37.614380445018909 ], [ 126.997771157774423, 37.614416318756874 ], [ 126.997798616338201, 37.614337681989419 ], [ 126.997844939877098, 37.614347089684628 ] ] ] } },
{ "type": "Feature", "properties": { "F_YR": 2024, "F_SHIM": 0.1, "F_AREA": 354.34621779000003, "F_AVR_HGT": 29.67494354, "ADM_CD": 1129013800.0, "F_ZONE_NM": "성북구 장위동 238-207", "TYPE": "상가" }, "geometry": { "type": "Polygon", "coordinates": [ [ [ 127.050679227486881, 37.613524818162247 ], [ 127.050586234050698, 37.613497430992311 ], [ 127.050550006715554, 37.613573515893385 ], [ 127.0505107111223, 37.613651395008773 ], [ 127.050568500091117, 37.613708349057191 ], [ 127.050696649762585, 37.61376992284228 ], [ 127.050750334220012, 37.613665107337077 ], [ 127.050757492493574, 37.613648237982609 ], [ 127.050655175787938, 37.613618196862355 ], [ 127.050698553451426, 37.613530504311981 ], [ 127.050679227486881, 37.613524818162247 ] ] ] } },
{ "type": "Feature", "properties": { "F_YR": 2024, "F_SHIM": 0.1, "F_AREA": 143.3129041, "F_AVR_HGT": 64.75959167000001, "ADM_CD": 1129011100.0, "F_ZONE_NM": "성북구 삼선동1가 11-168", "TYPE": "주택" }, "geometry": { "type": "Polygon", "coordinates": [ [ [ 127.006786434982402, 37.58621714924405 ], [ 127.006845320972019, 37.586228201694063 ], [ 127.006972705433569, 37.586252126052955 ], [ 127.006993362129947, 37.586173180746897 ], [ 127.006873597613307, 37.586151841893056 ], [ 127.006821878606331, 37.58614320377648 ], [ 127.006786434982402, 37.58621714924405 ] ] ] } },
{ "type": "Feature", "properties": { "F_YR": 2024, "F_SHIM": 0.1, "F_AREA": 165.63389383000001, "F_AVR_HGT": 64.75959167000001, "ADM_CD": 1129011100.0, "F_ZONE_NM": "성북구 삼선동1가 11-187", "TYPE": "주택" }, "geometry": { "type": "Polygon", "coordinates": [ [ [ 127.006981164420793, 37.58580810197153 ], [ 127.007101811391209, 37.585827701773638 ], [ 127.007143725618121, 37.585687470389182 ], [ 127.007024913661581, 37.585676889409598 ], [ 127.006981164420793, 37.58580810197153 ] ] ] } },
{ "type": "Feature", "properties": { "F_YR": 2024, "F_SHIM": 0.1, "F_AREA": 104.85380329, "F_AVR_HGT": 43.50651703, "ADM_CD": 1129013300.0, "F_ZONE_NM": "성북구 정릉동 151-4", "TYPE": "주택" }, "geometry": { "type": "Polygon", "coordinates": [ [ [ 127.012716204503604, 37.60354867987872 ], [ 127.012807732502594, 37.603494774367277 ], [ 127.012737944007611, 37.603449380495292 ], [ 127.012745858258029, 37.603438847253273 ], [ 127.012721202648265, 37.603424487929054 ], [ 127.012710683124595, 37.603430786797084 ], [ 127.012649038465099, 37.60347081428403 ], [ 127.012626595667854, 37.603486889932043 ], [ 127.012692951706867, 37.603524977223763 ], [ 127.012716204503604, 37.60354867987872 ] ] ] } },
{ "type": "Feature", "properties": { "F_YR": 2024, "F_SHIM": 0.1, "F_AREA": 299.27639886999998, "F_AVR_HGT": 114.72648773, "ADM_CD": 1129013300.0, "F_ZONE_NM": "성북구 정릉동 833-20", "TYPE": "주택" }, "geometry": { "type": "Polygon", "coordinates": [ [ [ 126.998469268367685, 37.616098830853737 ], [ 126.998512558827429, 37.616077767031406 ], [ 126.998585630986085, 37.61594070264384 ], [ 126.998505123739662, 37.615919896964733 ], [ 126.998467974192792, 37.615894182013875 ], [ 126.998323948850214, 37.615867707380943 ], [ 126.998316484784894, 37.615867049462473 ], [ 126.998240482043016, 37.615927151812969 ], [ 126.99826872857443, 37.615962002536925 ], [ 126.998321544786236, 37.615934677228758 ], [ 126.998356349060387, 37.615976348534851 ], [ 126.998338813881759, 37.616020838501328 ], [ 126.998469268367685, 37.616098830853737 ] ], [ [ 126.998399607446345, 37.615908749087559 ], [ 126.998532280693425, 37.616013815907159 ], [ 126.998443264866665, 37.616050780866722 ], [ 126.998355342526494, 37.615940561545479 ], [ 126.998399607446345, 37.615908749087559 ] ] ] } },
{ "type": "Feature", "properties": { "F_YR": 2024, "F_SHIM": 0.1, "F_AREA": 168.94705241, "F_AVR_HGT": 48.99485931, "ADM_CD": 1129013300.0, "F_ZONE_NM": "성북구 정릉동 178-66", "TYPE": "주택" }, "geometry": { "type": "Polygon", "coordinates": [ [ [ 127.01671368078803, 37.603649647605778 ], [ 127.016746836126245, 37.60369089032627 ], [ 127.016885186167144, 37.603626316977738 ], [ 127.016811852590678, 37.603535840796326 ], [ 127.016674215940526, 37.60359963011323 ], [ 127.01671368078803, 37.603649647605778 ] ] ] } },
{ "type": "Feature", "properties": { "F_YR": 2024, "F_SHIM": 0.1, "F_AREA": 213.95624122000001, "F_AVR_HGT": 47.84856949, "ADM_CD": 1129013300.0, "F_ZONE_NM": "성북구 정릉동 24-7", "TYPE": "주택" }, "geometry": { "type": "Polygon", "coordinates": [ [ [ 127.021200080094857, 37.600816411282651 ], [ 127.021206823652292, 37.600967018516045 ], [ 127.021357349659226, 37.600945495853267 ], [ 127.021346644825115, 37.600804169420925 ], [ 127.021200080094857, 37.600816411282651 ] ] ] } },
{ "type": "Feature", "properties": { "F_YR": 2024, "F_SHIM": 0.1, "F_AREA": 220.707115, "F_AVR_HGT": 110.74494324, "ADM_CD": 1129013300.0, "F_ZONE_NM": "성북구 정릉동 951-2", "TYPE": "주택" }, "geometry": { "type": "Polygon", "coordinates": [ [ [ 126.993468046508013, 37.608879778981823 ], [ 126.993527215613099, 37.608827823370838 ], [ 126.99344673289616, 37.608768821589877 ], [ 126.993382753944402, 37.608685368239854 ], [ 126.993262285964349, 37.608691828923547 ], [ 126.993318449536929, 37.608782390544086 ], [ 126.993468046508013, 37.608879778981823 ] ] ] } },
{ "type": "Feature", "properties": { "F_YR": 2024, "F_SHIM": 0.1, "F_AREA": 263.01041192000002, "F_AVR_HGT": 21.83527145, "ADM_CD": 1129013800.0, "F_ZONE_NM": "성북구 장위동 238-73", "TYPE": "주택" }, "geometry": { "type": "Polygon", "coordinates": [ [ [ 127.051265262502341, 37.614906884866684 ], [ 127.051367644118727, 37.614980253600066 ], [ 127.05138321626977, 37.614978075657497 ], [ 127.051388739414946, 37.614971982692182 ], [ 127.051531957126116, 37.61484939767972 ], [ 127.051428349381496, 37.614771668857585 ], [ 127.051388265171809, 37.614804553590119 ], [ 127.051265262502341, 37.614906884866684 ] ] ] } },
{ "type": "Feature", "properties": { "F_YR": 2024, "F_SHIM": 0.1, "F_AREA": 84.33195906, "F_AVR_HGT": 30.49973259, "ADM_CD": 1129013600.0, "F_ZONE_NM": "성북구 하월곡동 60-69", "TYPE": "주택" }, "geometry": { "type": "Polygon", "coordinates": [ [ [ 127.037839960739205, 37.60536822067268 ], [ 127.037898776962606, 37.60533511848044 ], [ 127.037912384836204, 37.605325816145687 ], [ 127.037842292543502, 37.605249488477384 ], [ 127.03776897249773, 37.605289163260018 ], [ 127.037839960739205, 37.60536822067268 ] ] ] } },
{ "type": "Feature", "properties": { "F_YR": 2024, "F_SHIM": 0.1, "F_AREA": 171.90778157, "F_AVR_HGT": 20.85562668, "ADM_CD": 1129013800.0, "F_ZONE_NM": "성북구 장위동 76-264", "TYPE": "주택" }, "geometry": { "type": "Polygon", "coordinates": [ [ [ 127.052444915441654, 37.615856024654605 ], [ 127.052537045016436, 37.615774166791006 ], [ 127.052466262919751, 37.615719147436216 ], [ 127.052421955735397, 37.615688226871114 ], [ 127.052329045484768, 37.615771355365212 ], [ 127.052444915441654, 37.615856024654605 ] ] ] } },
{ "type": "Feature", "properties": { "F_YR": 2024, "F_SHIM": 0.1, "F_AREA": 66.15114854, "F_AVR_HGT": 21.83527145, "ADM_CD": 1129013800.0, "F_ZONE_NM": "성북구 장위동 75-330", "TYPE": "주택" }, "geometry": { "type": "Polygon", "coordinates": [ [ [ 127.051370712878267, 37.6153016502386 ], [ 127.051425979657651, 37.615344117142335 ], [ 127.051598676481277, 37.615232628682222 ], [ 127.05158491769248, 37.615236598835992 ], [ 127.051454940967574, 37.615276252016294 ], [ 127.051370712878267, 37.6153016502386 ] ] ] } },
{ "type": "Feature", "properties": { "F_YR": 2024, "F_SHIM": 0.1, "F_AREA": 117.41560169, "F_AVR_HGT": 17.54902039, "ADM_CD": 1129013900.0, "F_ZONE_NM": "성북구 석관동 132-29", "TYPE": "주택" }, "geometry": { "type": "Polygon", "coordinates": [ [ [ 127.065678727380586, 37.612929546659082 ], [ 127.06568432214155, 37.6129160649377 ], [ 127.065713253718201, 37.612842952594036 ], [ 127.0655854820331, 37.612812082325725 ], [ 127.065552868810471, 37.612897702256149 ], [ 127.065678727380586, 37.612929546659082 ] ] ] } },
{ "type": "Feature", "properties": { "F_YR": 2024, "F_SHIM": 0.1, "F_AREA": 120.90088693, "F_AVR_HGT": 18.68757019, "ADM_CD": 1129013800.0, "F_ZONE_NM": "성북구 장위동 54-4", "TYPE": "주택" }, "geometry": { "type": "Polygon", "coordinates": [ [ [ 127.058670669360751, 37.612924553026794 ], [ 127.058680623367451, 37.612922593076725 ], [ 127.058693904371978, 37.612931731603638 ], [ 127.058762668133369, 37.612862980427607 ], [ 127.058657671467245, 37.612796926308796 ], [ 127.058585296370055, 37.612867868555263 ], [ 127.058670669360751, 37.612924553026794 ] ] ] } },
{ "type": "Feature", "properties": { "F_YR": 2024, "F_SHIM": 0.1, "F_AREA": 227.13776623000001, "F_AVR_HGT": 19.88700638, "ADM_CD": 1129013800.0, "F_ZONE_NM": "성북구 장위동 89-19", "TYPE": "주택" }, "geometry": { "type": "Polygon", "coordinates": [ [ [ 127.054363125206152, 37.615720655887465 ], [ 127.054370486319954, 37.61570320059154 ], [ 127.054401383045047, 37.615716926709645 ], [ 127.054429333127572, 37.615712129973772 ], [ 127.054457574550455, 37.615654968091619 ], [ 127.054470144072184, 37.615635131863307 ], [ 127.054380055081538, 37.615588339262068 ], [ 127.054314850369678, 37.615541814766274 ], [ 127.054296263726329, 37.615557680343564 ], [ 127.054230482568741, 37.615609020604538 ], [ 127.054238395497464, 37.615619126075707 ], [ 127.054276024610004, 37.615655382751321 ], [ 127.054287980448663, 37.615664621470088 ], [ 127.05430661907819, 37.615674190561677 ], [ 127.054299991726964, 37.615688194768758 ], [ 127.054363125206152, 37.615720655887465 ] ] ] } },
{ "type": "Feature", "properties": { "F_YR": 2024, "F_SHIM": 0.2, "F_AREA": 527.21970216, "F_AVR_HGT": 26.53545494, "ADM_CD": 1174010500.0, "F_ZONE_NM": "강동구 명일로 275", "TYPE": null }, "geometry": { "type": "Polygon", "coordinates": [ [ [ 127.147391088614796, 37.543431629630852 ], [ 127.147474947076759, 37.543437382459715 ], [ 127.147556399795249, 37.543428001549238 ], [ 127.147676955546331, 37.543393885029509 ], [ 127.147721807206835, 37.543375151958934 ], [ 127.147734277920947, 37.543369937798879 ], [ 127.147692508372998, 37.543234390305685 ], [ 127.147350868370694, 37.543301125655709 ], [ 127.147363565197224, 37.543342276271893 ], [ 127.147391088614796, 37.543431629630852 ] ] ] } },
{ "type": "Feature", "properties": { "F_YR": 2024, "F_SHIM": 0.1, "F_AREA": 1299.2135628599999, "F_AVR_HGT": 54.57564316, "ADM_CD": 1129011100.0, "F_ZONE_NM": "성북구 삼선동1가 11-2", "TYPE": "주택" }, "geometry": { "type": "Polygon", "coordinates": [ [ [ 127.005713033285602, 37.587719026782523 ], [ 127.005776074570321, 37.587713384358274 ], [ 127.005859724190273, 37.587743492240023 ], [ 127.00588822074964, 37.587722191896994 ], [ 127.005898532151534, 37.587670015457533 ], [ 127.005987886800824, 37.587678003848353 ], [ 127.006137986679391, 37.587718731615347 ], [ 127.006155885019155, 37.587687394645819 ], [ 127.006176353953663, 37.587663905153818 ], [ 127.006227244994676, 37.587633981413859 ], [ 127.006314944368427, 37.587607074462944 ], [ 127.006364375202182, 37.587583917122494 ], [ 127.006381142427557, 37.587571383727663 ], [ 127.006396120179531, 37.587550029758283 ], [ 127.00640530092663, 37.587527423657448 ], [ 127.006200471520742, 37.587506312862175 ], [ 127.006186388138147, 37.58752719825916 ], [ 127.006105773802275, 37.587510983683309 ], [ 127.005987274950328, 37.587480949377692 ], [ 127.005987682337732, 37.587477471558984 ], [ 127.005801080148473, 37.587428437844189 ], [ 127.005805738682952, 37.587518392048601 ], [ 127.005795187711939, 37.587539781822329 ], [ 127.005772567186909, 37.587557910463758 ], [ 127.005570594066427, 37.587592542433008 ], [ 127.00555839006924, 37.587615409857868 ], [ 127.005565059923924, 37.587636303478277 ], [ 127.005713033285602, 37.587719026782523 ] ] ] } },
{ "type": "Feature", "properties": { "F_YR": 2024, "F_SHIM": 0.1, "F_AREA": 135.6076942, "F_AVR_HGT": 40.23146973, "ADM_CD": 1129011900.0, "F_ZONE_NM": "성북구 동선동4가 203-1", "TYPE": "주택" }, "geometry": { "type": "Polygon", "coordinates": [ [ [ 127.01731112831466, 37.595070422534775 ], [ 127.017411370212116, 37.595004213776555 ], [ 127.017448912752471, 37.594979377592985 ], [ 127.017378334622464, 37.594923877462655 ], [ 127.017242815309956, 37.59501712042254 ], [ 127.01731112831466, 37.595070422534775 ] ] ] } },
{ "type": "Feature", "properties": { "F_YR": 2024, "F_SHIM": 0.1, "F_AREA": 96.68426984, "F_AVR_HGT": 30.49973259, "ADM_CD": 1129013600.0, "F_ZONE_NM": "성북구 하월곡동 60-25", "TYPE": "주택" }, "geometry": { "type": "Polygon", "coordinates": [ [ [ 127.037755737855719, 37.605414223698169 ], [ 127.037839960739205, 37.60536822067268 ], [ 127.03776897249773, 37.605289163260018 ], [ 127.03768671893944, 37.605332615851459 ], [ 127.03768956375734, 37.605337354147792 ], [ 127.037755737855719, 37.605414223698169 ] ] ] } },
{ "type": "Feature", "properties": { "F_YR": 2024, "F_SHIM": 0.1, "F_AREA": 64.33579035, "F_AVR_HGT": 29.5147625, "ADM_CD": 1129012100.0, "F_ZONE_NM": "성북구 안암동1가 47-4", "TYPE": "주택" }, "geometry": { "type": "Polygon", "coordinates": [ [ [ 127.020230386126627, 37.589197486473005 ], [ 127.020348532674831, 37.589188800210586 ], [ 127.020347067185341, 37.589169321147772 ], [ 127.020345490640182, 37.589158446509728 ], [ 127.020356732479925, 37.58915348929856 ], [ 127.020324599191255, 37.589106598150231 ], [ 127.020253484063517, 37.589153667906963 ], [ 127.020230386126627, 37.589197486473005 ] ] ] } },
{ "type": "Feature", "properties": { "F_YR": 2024, "F_SHIM": 0.1, "F_AREA": 149.15267154, "F_AVR_HGT": 44.74785385, "ADM_CD": 1129013300.0, "F_ZONE_NM": "성북구 정릉동 141-9", "TYPE": "주택" }, "geometry": { "type": "Polygon", "coordinates": [ [ [ 127.012750845696047, 37.60279181491714 ], [ 127.01281994588301, 37.602857625126028 ], [ 127.012822901329272, 37.60285612020153 ], [ 127.012910454065718, 37.602805701788789 ], [ 127.012957524196196, 37.602770063361021 ], [ 127.012966025109165, 37.602745799065879 ], [ 127.012925140806928, 37.602724819130472 ], [ 127.012871076550752, 37.602714517097283 ], [ 127.012867962297122, 37.602714229082196 ], [ 127.012866595275511, 37.602735501421378 ], [ 127.012750845696047, 37.60279181491714 ] ] ] } },
{ "type": "Feature", "properties": { "F_YR": 2024, "F_SHIM": 0.1, "F_AREA": 100.7242925, "F_AVR_HGT": 28.0545002, "ADM_CD": 1129013600.0, "F_ZONE_NM": "성북구 하월곡동 84-31", "TYPE": "주택" }, "geometry": { "type": "Polygon", "coordinates": [ [ [ 127.033391762668955, 37.608002446337665 ], [ 127.03340647514402, 37.607978350101646 ], [ 127.033428564041458, 37.60793647549221 ], [ 127.033306854337226, 37.607888233711499 ], [ 127.033281934410439, 37.607930865885429 ], [ 127.03326874184306, 37.607960520757011 ], [ 127.033391762668955, 37.608002446337665 ] ] ] } },
{ "type": "Feature", "properties": { "F_YR": 2024, "F_SHIM": 0.1, "F_AREA": 238.10029818000001, "F_AVR_HGT": 23.35099945, "ADM_CD": 1129013800.0, "F_ZONE_NM": "성북구 장위동 68-99", "TYPE": "상가" }, "geometry": { "type": "Polygon", "coordinates": [ [ [ 127.051117947508644, 37.611094930991065 ], [ 127.051165573815538, 37.611080702486724 ], [ 127.051186686239504, 37.611014651651892 ], [ 127.051075168941864, 37.610990227868342 ], [ 127.051050556511711, 37.61098753525529 ], [ 127.05092942316989, 37.61096212428933 ], [ 127.050922264426063, 37.610960712744976 ], [ 127.05089579834285, 37.611049335362445 ], [ 127.051025482833609, 37.611074959011489 ], [ 127.051117947508644, 37.611094930991065 ] ] ] } },
{ "type": "Feature", "properties": { "F_YR": 2024, "F_SHIM": 0.1, "F_AREA": 209.59330509, "F_AVR_HGT": 31.62308083, "ADM_CD": 1129013800.0, "F_ZONE_NM": "성북구 장위동 238-36", "TYPE": "주택" }, "geometry": { "type": "Polygon", "coordinates": [ [ [ 127.049613152144659, 37.614332743763995 ], [ 127.049732887795116, 37.614395925763802 ], [ 127.049745514364972, 37.614392659053287 ], [ 127.049749362864247, 37.614388945438506 ], [ 127.049853495683379, 37.614301480640584 ], [ 127.049851625532924, 37.614299418159739 ], [ 127.049747203769897, 37.614220066421041 ], [ 127.049636549960312, 37.61431201166134 ], [ 127.049613152144659, 37.614332743763995 ] ] ] } },
{ "type": "Feature", "properties": { "F_YR": 2024, "F_SHIM": 0.1, "F_AREA": 200.74345898000001, "F_AVR_HGT": 63.87607346, "ADM_CD": 1129013800.0, "F_ZONE_NM": "성북구 장위동 230-248", "TYPE": "주택" }, "geometry": { "type": "Polygon", "coordinates": [ [ [ 127.040660162286969, 37.614743620400546 ], [ 127.040745344787069, 37.614869152839866 ], [ 127.040837805799825, 37.614835434390812 ], [ 127.040859046770407, 37.614800550335588 ], [ 127.04079122321312, 37.614688896320274 ], [ 127.040660162286969, 37.614743620400546 ] ] ] } },
{ "type": "Feature", "properties": { "F_YR": 2024, "F_SHIM": 0.1, "F_AREA": 1275.87782726, "F_AVR_HGT": 101.36759338, "ADM_CD": 1129013300.0, "F_ZONE_NM": "성북구 정릉동 산87-299", "TYPE": "주택" }, "geometry": { "type": "Polygon", "coordinates": [ [ [ 126.993127833636976, 37.610188719821956 ], [ 126.993130674757879, 37.610202856428572 ], [ 126.993150002636654, 37.610245771564323 ], [ 126.993159153249337, 37.610249565346308 ], [ 126.993309232492734, 37.610311761646571 ], [ 126.993310095796772, 37.610391489584906 ], [ 126.993290415951307, 37.61045812482633 ], [ 126.993452774558875, 37.610397833325862 ], [ 126.993477136004742, 37.610396375398096 ], [ 126.993553268304709, 37.610378955574205 ], [ 126.993611278122074, 37.610376202471578 ], [ 126.993739073952241, 37.610284770324398 ], [ 126.993902954338694, 37.610287529009604 ], [ 126.993963681607383, 37.610290668329981 ], [ 126.994018645345179, 37.610282175577957 ], [ 126.994149683586883, 37.610265299435135 ], [ 126.994210195688126, 37.610268177330553 ], [ 126.994217489450691, 37.610267033535187 ], [ 126.994260438047533, 37.610245097277975 ], [ 126.994276871991303, 37.610239079729254 ], [ 126.994340898323529, 37.610207315022826 ], [ 126.994397811752251, 37.610179910604437 ], [ 126.994500049143255, 37.610160545620914 ], [ 126.99452451306999, 37.610152158932777 ], [ 126.994201145344178, 37.610165185539202 ], [ 126.993897325580008, 37.610176176304876 ], [ 126.993701360659855, 37.610169126817169 ], [ 126.993588203434385, 37.61031211408848 ], [ 126.993127833636976, 37.610188719821956 ] ] ] } },
{ "type": "Feature", "properties": { "F_YR": 2024, "F_SHIM": 0.2, "F_AREA": 153.56001345000001, "F_AVR_HGT": 35.50966568, "ADM_CD": 1130510100.0, "F_ZONE_NM": "강북구 도봉로23나길 15(미아동)", "TYPE": null }, "geometry": { "type": "Polygon", "coordinates": [ [ [ 127.025352803918452, 37.619173871420301 ], [ 127.025453622318551, 37.619202051704093 ], [ 127.025581287616177, 37.619236623391835 ], [ 127.025613090982176, 37.619158411803276 ], [ 127.025449744550656, 37.619118982095586 ], [ 127.025447370495158, 37.619133308165729 ], [ 127.02542562910017, 37.619152773748979 ], [ 127.025381115050862, 37.619154764914583 ], [ 127.025352803918452, 37.619173871420301 ] ] ] } },
{ "type": "Feature", "properties": { "F_YR": 2024, "F_SHIM": 0.2, "F_AREA": 135.37630562000001, "F_AVR_HGT": 39.93763657, "ADM_CD": 1130510100.0, "F_ZONE_NM": "강북구 오패산로38길 14 .", "TYPE": null }, "geometry": { "type": "Polygon", "coordinates": [ [ [ 127.034378736239859, 37.615221948206134 ], [ 127.034390878027168, 37.615324872894824 ], [ 127.034525090019841, 37.615314023664872 ], [ 127.034512121787188, 37.61521236059432 ], [ 127.034378736239859, 37.615221948206134 ] ] ] } },
{ "type": "Feature", "properties": { "F_YR": 2024, "F_SHIM": 0.2, "F_AREA": 271.62441131999998, "F_AVR_HGT": 58.14414139, "ADM_CD": 1130510300.0, "F_ZONE_NM": "강북구 화계사길 33가동 B03호", "TYPE": null }, "geometry": { "type": "Polygon", "coordinates": [ [ [ 127.011693980496275, 37.633444522943876 ], [ 127.011697409750582, 37.633419214169471 ], [ 127.011601609544513, 37.633406635726772 ], [ 127.011515735705188, 37.633409616260138 ], [ 127.011380351206128, 37.633392328867892 ], [ 127.011337528251289, 37.633398909579469 ], [ 127.011330398005654, 37.633452608475515 ], [ 127.011393954794812, 37.633458279337539 ], [ 127.011393729655779, 37.633469181193014 ], [ 127.011685684644476, 37.6335058262177 ], [ 127.011693980496275, 37.633444522943876 ] ] ] } },
{ "type": "Feature", "properties": { "F_YR": 2024, "F_SHIM": 0.3, "F_AREA": 433.10252743000001, "F_AVR_HGT": 51.87505798, "ADM_CD": 1132010500.0, "F_ZONE_NM": "도봉구 쌍문동 316-1", "TYPE": "상가" }, "geometry": { "type": "Polygon", "coordinates": [ [ [ 127.028199387129703, 37.649972926407266 ], [ 127.028232470764294, 37.64996021516459 ], [ 127.028222711617133, 37.64992111502918 ], [ 127.028192979751026, 37.649800391011645 ], [ 127.028188662747311, 37.649769578618425 ], [ 127.028186501766555, 37.649747234909285 ], [ 127.02818536445794, 37.649735612579676 ], [ 127.028182402929033, 37.649692726804915 ], [ 127.028181265364282, 37.649680383694594 ], [ 127.028174895079317, 37.649611460490945 ], [ 127.028132747211814, 37.649626516299996 ], [ 127.027959060919514, 37.649699534382343 ], [ 127.028079337777498, 37.6498380774322 ], [ 127.028130350000367, 37.649894827406541 ], [ 127.028199387129703, 37.649972926407266 ] ] ] } },
{ "type": "Feature", "properties": { "F_YR": 2024, "F_SHIM": 0.1, "F_AREA": 196.27407982, "F_AVR_HGT": 27.98888741, "ADM_CD": 1129013800.0, "F_ZONE_NM": "성북구 장위동 238-500", "TYPE": "상가" }, "geometry": { "type": "Polygon", "coordinates": [ [ [ 127.048233967839153, 37.61594780160766 ], [ 127.048239079394833, 37.615953151410579 ], [ 127.048384053621888, 37.615892998506574 ], [ 127.0483776029902, 37.615883576807988 ], [ 127.048370072187112, 37.615867515308821 ], [ 127.048336416781993, 37.615787764827019 ], [ 127.048158650179914, 37.615861823762451 ], [ 127.048233967839153, 37.61594780160766 ] ] ] } },
{ "type": "Feature", "properties": { "F_YR": 2024, "F_SHIM": 0.3, "F_AREA": 248.76675181, "F_AVR_HGT": 26.63672905, "ADM_CD": 1132010600.0, "F_ZONE_NM": "도봉구 방학동 645-25", "TYPE": "상가" }, "geometry": { "type": "Polygon", "coordinates": [ [ [ 127.04054310899005, 37.669923723549978 ], [ 127.040567014992135, 37.669904615020627 ], [ 127.040566256613218, 37.669755143918387 ], [ 127.040414486458502, 37.669754833667859 ], [ 127.040415141389602, 37.669923855910206 ], [ 127.04054310899005, 37.669923723549978 ] ] ] } },
{ "type": "Feature", "properties": { "F_YR": 2024, "F_SHIM": 0.2, "F_AREA": 194.1756649, "F_AVR_HGT": 23.57044525, "ADM_CD": 1174010300.0, "F_ZONE_NM": "서울특별시 강동구 상일동 284-7 지하1층 2080 노래방", "TYPE": null }, "geometry": { "type": "Polygon", "coordinates": [ [ [ 127.172859764766827, 37.54904066119218 ], [ 127.172992088231567, 37.549056533775087 ], [ 127.173019976315899, 37.548910451769927 ], [ 127.17288749424371, 37.548894390239859 ], [ 127.172859764766827, 37.54904066119218 ] ] ] } },
{ "type": "Feature", "properties": { "F_YR": 2024, "F_SHIM": 0.2, "F_AREA": 185.74984396, "F_AVR_HGT": 23.2212841, "ADM_CD": 1174010200.0, "F_ZONE_NM": "강동구 상일로25길 7-10", "TYPE": null }, "geometry": { "type": "Polygon", "coordinates": [ [ [ 127.169982356820455, 37.561127644653851 ], [ 127.170002349347484, 37.561034264719162 ], [ 127.169805566197738, 37.560995892948853 ], [ 127.169799305879366, 37.56102545429134 ], [ 127.169786191855152, 37.561087460983437 ], [ 127.169982356820455, 37.561127644653851 ] ] ] } },
{ "type": "Feature", "properties": { "F_YR": 2024, "F_SHIM": 0.2, "F_AREA": 225.67257591000001, "F_AVR_HGT": 28.29278488, "ADM_CD": 1174010200.0, "F_ZONE_NM": "서울특별시 강동구 고덕동 527-5 지하1층(입큰노래연습장)", "TYPE": null }, "geometry": { "type": "Polygon", "coordinates": [ [ [ 127.155747157192252, 37.561569561352002 ], [ 127.155911619783637, 37.561563309792049 ], [ 127.155911535908956, 37.561561057430509 ], [ 127.155906626898926, 37.561430898041309 ], [ 127.155827271113608, 37.561423316344964 ], [ 127.155783910319229, 37.561417336381595 ], [ 127.155742436011337, 37.561448024170538 ], [ 127.155747157192252, 37.561569561352002 ] ] ] } },
{ "type": "Feature", "properties": { "F_YR": 2024, "F_SHIM": 0.01, "F_AREA": 180.53678284, "F_AVR_HGT": 22.19813896, "ADM_CD": 1174010200.0, "F_ZONE_NM": "강동구 고덕동 167-2", "TYPE": "주택" }, "geometry": { "type": "Polygon", "coordinates": [ [ [ 127.169171050676624, 37.561793179212806 ], [ 127.169266216768435, 37.561784304461263 ], [ 127.169305592831478, 37.56177929307708 ], [ 127.169260909156932, 37.56163817169719 ], [ 127.169259997242847, 37.561635289830072 ], [ 127.16915011453753, 37.561642743889799 ], [ 127.169171050676624, 37.561793179212806 ] ] ] } },
{ "type": "Feature", "properties": { "F_YR": 2024, "F_SHIM": 0.2, "F_AREA": 122.51145217, "F_AVR_HGT": 47.99426956, "ADM_CD": 1130510300.0, "F_ZONE_NM": "강북구 수유동555-10 , 지층", "TYPE": null }, "geometry": { "type": "Polygon", "coordinates": [ [ [ 127.011727477277717, 37.644271060957351 ], [ 127.01186486667045, 37.644304204930229 ], [ 127.011895901307696, 37.644221456517073 ], [ 127.011756710367223, 37.644187537896293 ], [ 127.011750911326175, 37.644204116368329 ], [ 127.011732766649843, 37.644255960132327 ], [ 127.011727477277717, 37.644271060957351 ] ] ] } },
{ "type": "Feature", "properties": { "F_YR": 2024, "F_SHIM": 0.01, "F_AREA": 190.62004909000001, "F_AVR_HGT": 28.57059074, "ADM_CD": 1174010200.0, "F_ZONE_NM": "강동구 고덕동 151-1", "TYPE": "주택" }, "geometry": { "type": "Polygon", "coordinates": [ [ [ 127.16612216369883, 37.561950907286047 ], [ 127.166099956277989, 37.561847504783628 ], [ 127.166093712351255, 37.561818321464862 ], [ 127.165951355762033, 37.561840594015678 ], [ 127.165980326492573, 37.561972719643386 ], [ 127.16612216369883, 37.561950907286047 ] ] ] } },
{ "type": "Feature", "properties": { "F_YR": 2024, "F_SHIM": 0.3, "F_AREA": 112.54521035, "F_AVR_HGT": 43.93809967, "ADM_CD": 1141011800.0, "F_ZONE_NM": "서대문구 홍은동 11-804", "TYPE": "주택" }, "geometry": { "type": "Polygon", "coordinates": [ [ [ 126.947037233059021, 37.599132567902927 ], [ 126.947084132602271, 37.599106785377224 ], [ 126.94714488053134, 37.599081892176891 ], [ 126.947058011815614, 37.599024522552405 ], [ 126.946956880505738, 37.599083958770784 ], [ 126.947003882250556, 37.599150905535708 ], [ 126.947037233059021, 37.599132567902927 ] ] ] } },
{ "type": "Feature", "properties": { "F_YR": 2024, "F_SHIM": 0.01, "F_AREA": 176.79641694, "F_AVR_HGT": 31.42788292, "ADM_CD": 1174010200.0, "F_ZONE_NM": "강동구 고덕동 259-4", "TYPE": "주택" }, "geometry": { "type": "Polygon", "coordinates": [ [ [ 127.161366482627884, 37.561106457755123 ], [ 127.161393981845663, 37.561104708645416 ], [ 127.161421366726344, 37.5611024190911 ], [ 127.161448637269302, 37.561099589092208 ], [ 127.161471154227399, 37.561096765526685 ], [ 127.161436308806657, 37.56093928389496 ], [ 127.161337994492953, 37.560963149047119 ], [ 127.161336377677202, 37.561107003060783 ], [ 127.161366482627884, 37.561106457755123 ] ] ] } },
{ "type": "Feature", "properties": { "F_YR": 2024, "F_SHIM": 0.2, "F_AREA": 625.48654525999996, "F_AVR_HGT": 39.14671249, "ADM_CD": 1138010200.0, "F_ZONE_NM": "은평구 은평로21길 19A동지하02호(녹번동)", "TYPE": null }, "geometry": { "type": "Polygon", "coordinates": [ [ [ 126.932141475848439, 37.601787211498205 ], [ 126.932070451023421, 37.601810595284242 ], [ 126.931994706041806, 37.60167351118826 ], [ 126.931921672542956, 37.601665089004399 ], [ 126.931976033972873, 37.602024613228068 ], [ 126.932008625704484, 37.602048508473082 ], [ 126.932233034253372, 37.601968452943368 ], [ 126.932141475848439, 37.601787211498205 ] ] ] } },
{ "type": "Feature", "properties": { "F_YR": 2024, "F_SHIM": 0.1, "F_AREA": 361.82406422999998, "F_AVR_HGT": 39.79824219, "ADM_CD": 1138010300.0, "F_ZONE_NM": "은평구 불광동 230-13", "TYPE": "주택" }, "geometry": { "type": "Polygon", "coordinates": [ [ [ 126.931399345262577, 37.617525932260442 ], [ 126.931398671840697, 37.617519354702665 ], [ 126.93134025590038, 37.617367414664834 ], [ 126.931327685392986, 37.617365244835511 ], [ 126.931107200277381, 37.617438543400191 ], [ 126.931184873728469, 37.617587701990807 ], [ 126.93134646079173, 37.617514278177389 ], [ 126.931399345262577, 37.617525932260442 ] ] ] } },
{ "type": "Feature", "properties": { "F_YR": 2024, "F_SHIM": 0.2, "F_AREA": 140.13881985, "F_AVR_HGT": 53.15615005, "ADM_CD": 1138010300.0, "F_ZONE_NM": "은평구 통일로78가길19-1지하우측(불광동)", "TYPE": null }, "geometry": { "type": "Polygon", "coordinates": [ [ [ 126.926807667128685, 37.618288767812167 ], [ 126.92680958771831, 37.618293724419978 ], [ 126.926949283191689, 37.618257142874512 ], [ 126.926907020191734, 37.618158008321068 ], [ 126.92677478853463, 37.61820657758367 ], [ 126.926807667128685, 37.618288767812167 ] ] ] } },
{ "type": "Feature", "properties": { "F_YR": 2024, "F_SHIM": 0.2, "F_AREA": 160.55388361000001, "F_AVR_HGT": 27.4808342, "ADM_CD": 1138010500.0, "F_ZONE_NM": "은평구 갈현로 170-3 102호 예원피아노 (구산동, 에원빌라)", "TYPE": null }, "geometry": { "type": "Polygon", "coordinates": [ [ [ 126.912027091131179, 37.613143255388415 ], [ 126.912159433292956, 37.613097495733356 ], [ 126.912115243812323, 37.613018085833609 ], [ 126.912062709653895, 37.613002819444375 ], [ 126.911966398281635, 37.613036803485912 ], [ 126.912027091131179, 37.613143255388415 ] ] ] } },
{ "type": "Feature", "properties": { "F_YR": 2024, "F_SHIM": 0.2, "F_AREA": 175.18023045000001, "F_AVR_HGT": 30.66522713, "ADM_CD": 1138010500.0, "F_ZONE_NM": "은평구 갈현로 133？숲빌딩(구산동)", "TYPE": null }, "geometry": { "type": "Polygon", "coordinates": [ [ [ 126.91099466687406, 37.609923442011173 ], [ 126.91099118873592, 37.609896409896919 ], [ 126.910977164701094, 37.609786839781691 ], [ 126.910848380908888, 37.609797732887188 ], [ 126.910859926493885, 37.609896309138698 ], [ 126.910864410536433, 37.609934334004279 ], [ 126.91099466687406, 37.609923442011173 ] ] ] } },
{ "type": "Feature", "properties": { "F_YR": 2024, "F_SHIM": 0.2, "F_AREA": 187.21161448000001, "F_AVR_HGT": 24.74320145, "ADM_CD": 1138010700.0, "F_ZONE_NM": "은평구 응암로32길 3B01호(응암동, 고은명가)", "TYPE": null }, "geometry": { "type": "Polygon", "coordinates": [ [ [ 126.920952273895494, 37.597627202343681 ], [ 126.920864984714484, 37.597507492120464 ], [ 126.920744781726967, 37.597562550113935 ], [ 126.920832411363733, 37.597681449772473 ], [ 126.920952273895494, 37.597627202343681 ] ] ] } },
{ "type": "Feature", "properties": { "F_YR": 2024, "F_SHIM": 0.01, "F_AREA": 180.27970602, "F_AVR_HGT": 20.39358688, "ADM_CD": 1174010800.0, "F_ZONE_NM": "강동구 성내동 165-7", "TYPE": "주택" }, "geometry": { "type": "Polygon", "coordinates": [ [ [ 127.131441064989502, 37.535689829351675 ], [ 127.131467589202231, 37.535672347940739 ], [ 127.13151831297607, 37.535640910541233 ], [ 127.131519866303748, 37.535558062551011 ], [ 127.131507077816835, 37.535497430806821 ], [ 127.131367658330078, 37.535539849746421 ], [ 127.131378683464675, 37.53556235343229 ], [ 127.131441064989502, 37.535689829351675 ] ] ] } },
{ "type": "Feature", "properties": { "F_YR": 2024, "F_SHIM": 0.2, "F_AREA": 88.31532925, "F_AVR_HGT": 44.99816055, "ADM_CD": 1138010400.0, "F_ZONE_NM": "은평구 서오릉로22길 18단독주택", "TYPE": null }, "geometry": { "type": "Polygon", "coordinates": [ [ [ 126.908052662099806, 37.617692379535129 ], [ 126.908078738027413, 37.61758221028942 ], [ 126.907924388694397, 37.61755595954638 ], [ 126.907919948493827, 37.617574155827789 ], [ 126.907928330092489, 37.617574252573256 ], [ 126.907988985119076, 37.617618809089869 ], [ 126.908052662099806, 37.617692379535129 ] ] ] } },
{ "type": "Feature", "properties": { "F_YR": 2024, "F_SHIM": 0.2, "F_AREA": 153.98790054, "F_AVR_HGT": 13.7498333, "ADM_CD": 1138011000.0, "F_ZONE_NM": "은평구 증산로7길12(구산동)", "TYPE": null }, "geometry": { "type": "Polygon", "coordinates": [ [ [ 126.908117181287423, 37.584118744009984 ], [ 126.908243977195625, 37.584032619951984 ], [ 126.908180876714482, 37.583973465427547 ], [ 126.908152918462051, 37.583968668095217 ], [ 126.908040853649794, 37.584044352290348 ], [ 126.908117181287423, 37.584118744009984 ] ] ] } },
{ "type": "Feature", "properties": { "F_YR": 2024, "F_SHIM": 0.2, "F_AREA": 243.45049944, "F_AVR_HGT": 25.55866737, "ADM_CD": 1138010900.0, "F_ZONE_NM": "은평구 가좌로 312-9지층좌측(신사동)", "TYPE": null }, "geometry": { "type": "Polygon", "coordinates": [ [ [ 126.910575763746394, 37.596039788846134 ], [ 126.91074628313531, 37.596048659645163 ], [ 126.910748350015439, 37.596025055462292 ], [ 126.910759595298074, 37.595902890721241 ], [ 126.910591341239282, 37.595893751391394 ], [ 126.910575763746394, 37.596039788846134 ] ] ] } },
{ "type": "Feature", "properties": { "F_YR": 2024, "F_SHIM": 0.2, "F_AREA": 172.9942992, "F_AVR_HGT": 62.69998474, "ADM_CD": 1141011800.0, "F_ZONE_NM": "서대문구 홍은동 325-31101호(홍은동)", "TYPE": null }, "geometry": { "type": "Polygon", "coordinates": [ [ [ 126.926210694263986, 37.584950714120239 ], [ 126.926228244540937, 37.584937850232564 ], [ 126.92625925574184, 37.584959295442047 ], [ 126.926322444299061, 37.584900915811424 ], [ 126.926178273143506, 37.584800454102513 ], [ 126.926098034943976, 37.584869211127867 ], [ 126.926210694263986, 37.584950714120239 ] ] ] } },
{ "type": "Feature", "properties": { "F_YR": 2024, "F_SHIM": 0.2, "F_AREA": 116.85013979, "F_AVR_HGT": 70.3798172, "ADM_CD": 1141011800.0, "F_ZONE_NM": "서대문구 연희로39길 47-7나동 B1층 그린파크 (홍은동, B)", "TYPE": null }, "geometry": { "type": "Polygon", "coordinates": [ [ [ 126.932984644202222, 37.586885742918561 ], [ 126.933123272939199, 37.586870984094915 ], [ 126.93310425057993, 37.586785920066482 ], [ 126.93296725126325, 37.586801878124732 ], [ 126.932984644202222, 37.586885742918561 ] ] ] } },
{ "type": "Feature", "properties": { "F_YR": 2024, "F_SHIM": 0.1, "F_AREA": 99.65985899, "F_AVR_HGT": 14.89534435, "ADM_CD": 1144012400.0, "F_ZONE_NM": "마포구 연남동 384-11", "TYPE": "상가" }, "geometry": { "type": "Polygon", "coordinates": [ [ [ 126.925975842469981, 37.562149325284309 ], [ 126.926124241666543, 37.562132571642188 ], [ 126.926113219067716, 37.562063819143262 ], [ 126.925968327566778, 37.562081656203034 ], [ 126.925975842469981, 37.562149325284309 ] ] ] } },
{ "type": "Feature", "properties": { "F_YR": 2024, "F_SHIM": 0.1, "F_AREA": 85.09589855, "F_AVR_HGT": 18.14371262, "ADM_CD": 1144012400.0, "F_ZONE_NM": "마포구 연남동 224-18", "TYPE": "상가" }, "geometry": { "type": "Polygon", "coordinates": [ [ [ 126.926731887239228, 37.564202169032811 ], [ 126.926650686352204, 37.564135804805247 ], [ 126.926579213973241, 37.564188016806774 ], [ 126.926632703846806, 37.564234902155427 ], [ 126.926687936810907, 37.564236558953347 ], [ 126.926731887239228, 37.564202169032811 ] ] ] } },
{ "type": "Feature", "properties": { "F_YR": 2024, "F_SHIM": 0.01, "F_AREA": 138.03431636, "F_AVR_HGT": 16.7187841, "ADM_CD": 1174010700.0, "F_ZONE_NM": "강동구 암사동 513-10", "TYPE": "주택" }, "geometry": { "type": "Polygon", "coordinates": [ [ [ 127.126231535451325, 37.548627019730041 ], [ 127.126341351082829, 37.548601775069216 ], [ 127.126315847821729, 37.548529182168231 ], [ 127.126136781678071, 37.548570726750278 ], [ 127.126160949424673, 37.548643294069414 ], [ 127.126231535451325, 37.548627019730041 ] ] ] } },
{ "type": "Feature", "properties": { "F_YR": 2024, "F_SHIM": 0.2, "F_AREA": 100.5168671, "F_AVR_HGT": 26.05436821, "ADM_CD": 1171011100.0, "F_ZONE_NM": "송파구 오금로31가길 1？(방이동)(방이동)", "TYPE": null }, "geometry": { "type": "Polygon", "coordinates": [ [ [ 127.121870969547913, 37.506740458292391 ], [ 127.121969148562641, 37.506746214708635 ], [ 127.121977962619383, 37.506671062551348 ], [ 127.121953134701826, 37.506634146978712 ], [ 127.121869496655563, 37.506668380013586 ], [ 127.121852261274881, 37.506711194940671 ], [ 127.121870969547913, 37.506740458292391 ] ] ] } },
{ "type": "Feature", "properties": { "F_YR": 2024, "F_SHIM": 0.2, "F_AREA": 1230.6484502799999, "F_AVR_HGT": 18.57068367, "ADM_CD": 1147010300.0, "F_ZONE_NM": "양천구 남부순환로79길 53-1B02(신월동)", "TYPE": null }, "geometry": { "type": "Polygon", "coordinates": [ [ [ 126.826650110669007, 37.53921291689575 ], [ 126.826912047079688, 37.538824977063477 ], [ 126.8265856434667, 37.538813862329491 ], [ 126.826374117731547, 37.539127093905876 ], [ 126.826430056115527, 37.539205292823183 ], [ 126.826650110669007, 37.53921291689575 ] ] ] } },
{ "type": "Feature", "properties": { "F_YR": 2024, "F_SHIM": 0.1, "F_AREA": 83.01953304, "F_AVR_HGT": 25.76730309, "ADM_CD": 1129013600.0, "F_ZONE_NM": "성북구 하월곡동 29-116", "TYPE": "주택" }, "geometry": { "type": "Polygon", "coordinates": [ [ [ 127.039355456573006, 37.603779798721696 ], [ 127.039489933967673, 37.603754050498296 ], [ 127.039469325585898, 37.603691718128452 ], [ 127.039337025688184, 37.603723547264657 ], [ 127.039355456573006, 37.603779798721696 ] ] ] } },
{ "type": "Feature", "properties": { "F_YR": 2024, "F_SHIM": 0.01, "F_AREA": 123.61418098, "F_AVR_HGT": 17.60833717, "ADM_CD": 1174010800.0, "F_ZONE_NM": "강동구 성내동 174-45", "TYPE": "주택" }, "geometry": { "type": "Polygon", "coordinates": [ [ [ 127.131598383578222, 37.534083825675808 ], [ 127.131610054243836, 37.534080722415148 ], [ 127.131586872901778, 37.534022696971356 ], [ 127.131566735703814, 37.533978074945743 ], [ 127.131465055724888, 37.534029588515047 ], [ 127.131452711661936, 37.534035827957737 ], [ 127.1314848433788, 37.534114043840596 ], [ 127.131598383578222, 37.534083825675808 ] ] ] } },
{ "type": "Feature", "properties": { "F_YR": 2024, "F_SHIM": 0.01, "F_AREA": 145.22129675, "F_AVR_HGT": 17.60833717, "ADM_CD": 1174010800.0, "F_ZONE_NM": "강동구 성내동 174-42", "TYPE": "주택" }, "geometry": { "type": "Polygon", "coordinates": [ [ [ 127.131552442390102, 37.534301754378426 ], [ 127.13153381827432, 37.534255436816721 ], [ 127.13152254609011, 37.534227401315583 ], [ 127.131530530010224, 37.534225221133852 ], [ 127.131523462826891, 37.53420801994853 ], [ 127.131365667925294, 37.534261280044255 ], [ 127.131381316549692, 37.534288139457274 ], [ 127.131411918534837, 37.534345417963415 ], [ 127.131552442390102, 37.534301754378426 ] ] ] } },
{ "type": "Feature", "properties": { "F_YR": 2024, "F_SHIM": 0.01, "F_AREA": 127.55928073, "F_AVR_HGT": 18.05887772, "ADM_CD": 1174010800.0, "F_ZONE_NM": "강동구 성내동 175-11", "TYPE": "주택" }, "geometry": { "type": "Polygon", "coordinates": [ [ [ 127.131488257482246, 37.534731859924243 ], [ 127.131587168370672, 37.534694485968068 ], [ 127.131523417411032, 37.534599014878118 ], [ 127.131451705253852, 37.534610049869357 ], [ 127.131415564501893, 37.534627568886755 ], [ 127.131488257482246, 37.534731859924243 ] ] ] } },
{ "type": "Feature", "properties": { "F_YR": 2024, "F_SHIM": 0.01, "F_AREA": 114.609254, "F_AVR_HGT": 18.05887772, "ADM_CD": 1174010800.0, "F_ZONE_NM": "강동구 성내동 175-29", "TYPE": "주택" }, "geometry": { "type": "Polygon", "coordinates": [ [ [ 127.131811369243991, 37.534785923869158 ], [ 127.131814148704549, 37.534790236558443 ], [ 127.131868689013373, 37.534767840761809 ], [ 127.131927864738742, 37.534743529716692 ], [ 127.131867678912911, 37.534662020266332 ], [ 127.131759880745648, 37.534709017852386 ], [ 127.131788921283132, 37.534752963284177 ], [ 127.13178989363638, 37.534752583794663 ], [ 127.131811369243991, 37.534785923869158 ] ] ] } },
{ "type": "Feature", "properties": { "F_YR": 2024, "F_SHIM": 0.2, "F_AREA": 431.80494125000001, "F_AVR_HGT": 7.30583353, "ADM_CD": 1147010200.0, "F_ZONE_NM": "양천구 오목로54길 14-9B02(목동, 신목빌라 3동)", "TYPE": null }, "geometry": { "type": "Polygon", "coordinates": [ [ [ 126.872726916195631, 37.523305471428529 ], [ 126.872749922423807, 37.523412624763083 ], [ 126.872934585209407, 37.523386697093812 ], [ 126.872909861303626, 37.523291525151947 ], [ 126.872877828059771, 37.523170937196049 ], [ 126.87274134206784, 37.523192069962022 ], [ 126.872646643689379, 37.523206733979521 ], [ 126.872663167488284, 37.523274587887315 ], [ 126.872718044481971, 37.523267619983379 ], [ 126.872726916195631, 37.523305471428529 ] ] ] } },
{ "type": "Feature", "properties": { "F_YR": 2024, "F_SHIM": 0.2, "F_AREA": 131.35343854000001, "F_AVR_HGT": 19.19148941, "ADM_CD": 1150010300.0, "F_ZONE_NM": "강서구 강서로45다길 39 39 지하 01호 뒷공간 연습실 녹음실", "TYPE": null }, "geometry": { "type": "Polygon", "coordinates": [ [ [ 126.834944298661043, 37.546229842838429 ], [ 126.835063793525535, 37.546230011333222 ], [ 126.835060323343029, 37.546111255876539 ], [ 126.834983375613518, 37.546111327585564 ], [ 126.83494347268865, 37.54614334657311 ], [ 126.834944298661043, 37.546229842838429 ] ] ] } },
{ "type": "Feature", "properties": { "F_YR": 2024, "F_SHIM": 0.5, "F_AREA": 155.25349575000001, "F_AVR_HGT": 13.85300636, "ADM_CD": 1138010100.0, "F_ZONE_NM": "은평구 수색동 76-31", "TYPE": "상가" }, "geometry": { "type": "Polygon", "coordinates": [ [ [ 126.898721872088856, 37.580484559084603 ], [ 126.898760960292378, 37.580462248662521 ], [ 126.898818053204479, 37.580436800441106 ], [ 126.898898620233112, 37.580382459959011 ], [ 126.898910628787149, 37.580376424781029 ], [ 126.898912220650445, 37.580371380642987 ], [ 126.898928373231811, 37.580315443449983 ], [ 126.898898689491475, 37.580331995793081 ], [ 126.898855862252844, 37.580356645573382 ], [ 126.898871966635809, 37.580335846800473 ], [ 126.898858394435422, 37.58032637464563 ], [ 126.898862248643425, 37.580322683954563 ], [ 126.898852745445595, 37.580317990563152 ], [ 126.898711118133392, 37.580401478811574 ], [ 126.898719933401978, 37.580412478517282 ], [ 126.898746043803513, 37.580442413985921 ], [ 126.898709892626798, 37.580469412088078 ], [ 126.898721872088856, 37.580484559084603 ] ] ] } },
{ "type": "Feature", "properties": { "F_YR": 2024, "F_SHIM": 0.2, "F_AREA": 122.45109333000001, "F_AVR_HGT": 34.43625565, "ADM_CD": 1153010600.0, "F_ZONE_NM": "구로구 경인로35다길 32-5101호", "TYPE": null }, "geometry": { "type": "Polygon", "coordinates": [ [ [ 126.853838099970901, 37.502854273426451 ], [ 126.853893664182579, 37.502778749180855 ], [ 126.853776257634081, 37.502729588148057 ], [ 126.853764731614802, 37.502724798446415 ], [ 126.853712111449383, 37.502798434220622 ], [ 126.853838099970901, 37.502854273426451 ] ] ] } },
{ "type": "Feature", "properties": { "F_YR": 2024, "F_SHIM": 0.2, "F_AREA": 326.07955577000001, "F_AVR_HGT": 13.69282074, "ADM_CD": 1153010600.0, "F_ZONE_NM": "구로구 경인로47길 49 (고척동)", "TYPE": null }, "geometry": { "type": "Polygon", "coordinates": [ [ [ 126.86540047846438, 37.501242581107817 ], [ 126.865403860705229, 37.501248351391034 ], [ 126.865418235432969, 37.501241610467808 ], [ 126.865430201252764, 37.501253607523687 ], [ 126.865444205644408, 37.50126398513018 ], [ 126.865444980109572, 37.501273446499859 ], [ 126.865573157912763, 37.501185566571984 ], [ 126.865585616940194, 37.501175039232763 ], [ 126.865547240295029, 37.501134179866192 ], [ 126.86552770920494, 37.501115686929047 ], [ 126.865510982334115, 37.501109901287258 ], [ 126.865426079236755, 37.501032317694623 ], [ 126.865346133685009, 37.501089529040755 ], [ 126.865312321404829, 37.501088589065134 ], [ 126.865365418636017, 37.501181272852364 ], [ 126.86540047846438, 37.501242581107817 ] ] ] } },
{ "type": "Feature", "properties": { "F_YR": 2024, "F_SHIM": 0.2, "F_AREA": 105.5279453, "F_AVR_HGT": 13.93425674, "ADM_CD": 1153010700.0, "F_ZONE_NM": "구로구 경인로35길 22 102호 (개봉동,주식회사조은미래)", "TYPE": null }, "geometry": { "type": "Polygon", "coordinates": [ [ [ 126.85507056678702, 37.498289550467319 ], [ 126.855063571481821, 37.498281342712183 ], [ 126.855073996130059, 37.498270723855441 ], [ 126.854983419683478, 37.498210064466825 ], [ 126.854907974490942, 37.498276554636092 ], [ 126.854979677243591, 37.498331244085399 ], [ 126.85507056678702, 37.498289550467319 ] ] ] } },
{ "type": "Feature", "properties": { "F_YR": 2024, "F_SHIM": 0.2, "F_AREA": 89.79307616, "F_AVR_HGT": 24.70982857, "ADM_CD": 1154510200.0, "F_ZONE_NM": "금천구 시흥대로 148길 38-61층", "TYPE": null }, "geometry": { "type": "Polygon", "coordinates": [ [ [ 126.900824874021893, 37.474837062489939 ], [ 126.900823888129096, 37.47482196085236 ], [ 126.900819379728944, 37.474752814098302 ], [ 126.900714313209747, 37.474759211736163 ], [ 126.900721201590343, 37.47484913763568 ], [ 126.900824874021893, 37.474837062489939 ] ] ] } },
{ "type": "Feature", "properties": { "F_YR": 2024, "F_SHIM": 0.2, "F_AREA": 1249.39835472, "F_AVR_HGT": 37.85206909, "ADM_CD": 1154510300.0, "F_ZONE_NM": "금천구 시흥대로2길  57-18  (시흥동,더유웰아파트)", "TYPE": null }, "geometry": { "type": "Polygon", "coordinates": [ [ [ 126.906220609633337, 37.435617659273298 ], [ 126.906145564351888, 37.435605741483954 ], [ 126.905875877561058, 37.43579080694667 ], [ 126.905682265919879, 37.435923647976466 ], [ 126.905724126032595, 37.436050516834591 ], [ 126.905728526818521, 37.436064026513996 ], [ 126.905753389689878, 37.436140280963471 ], [ 126.906056514705909, 37.435900047033428 ], [ 126.906313786046255, 37.435704159064571 ], [ 126.906220609633337, 37.435617659273298 ] ] ] } },
{ "type": "Feature", "properties": { "F_YR": 2024, "F_SHIM": 0.2, "F_AREA": 60.20044808, "F_AVR_HGT": 8.99761219, "ADM_CD": 1156012200.0, "F_ZONE_NM": "영등포구 경인로77길  54-1 현대 (문래동4가,CNC)", "TYPE": null }, "geometry": { "type": "Polygon", "coordinates": [ [ [ 126.88868815915707, 37.514886543273462 ], [ 126.888700079206444, 37.514902808626104 ], [ 126.888748559077911, 37.514879960609754 ], [ 126.888680178224334, 37.51478574122801 ], [ 126.888676397814621, 37.514787404459355 ], [ 126.888631448423027, 37.514809336804561 ], [ 126.888652297999968, 37.514837242553703 ], [ 126.888647972809579, 37.514840130618168 ], [ 126.88865527778681, 37.514848967358674 ], [ 126.888663539615806, 37.514845830776117 ], [ 126.888671463218998, 37.51485698366632 ], [ 126.888664308125882, 37.5148612835916 ], [ 126.888673914777485, 37.514873969782734 ], [ 126.888681860711699, 37.514870292299534 ], [ 126.888691827599885, 37.514884123098192 ], [ 126.88868815915707, 37.514886543273462 ] ] ] } },
{ "type": "Feature", "properties": { "F_YR": 2024, "F_SHIM": 0.2, "F_AREA": 162.45689777000001, "F_AVR_HGT": 64.64766235, "ADM_CD": 1159010200.0, "F_ZONE_NM": "동작구 양녕로22가길  20 건물전체 (상도동)", "TYPE": null }, "geometry": { "type": "Polygon", "coordinates": [ [ [ 126.943760571085534, 37.495261562249496 ], [ 126.943899268359189, 37.495213804924347 ], [ 126.943881199542147, 37.495182288163434 ], [ 126.943868178744722, 37.495159531576689 ], [ 126.943843156505395, 37.495111937587737 ], [ 126.943706879068429, 37.495160029401717 ], [ 126.943760571085534, 37.495261562249496 ] ] ] } },
{ "type": "Feature", "properties": { "F_YR": 2024, "F_SHIM": 0.2, "F_AREA": 142.07210584000001, "F_AVR_HGT": 28.83345718, "ADM_CD": 1159010800.0, "F_ZONE_NM": "동작구 대방동길 57 1층 모코커피 (대방동)", "TYPE": null }, "geometry": { "type": "Polygon", "coordinates": [ [ [ 126.925213959608257, 37.503093089062098 ], [ 126.925215137900793, 37.503102117823673 ], [ 126.92521985826059, 37.503186742609095 ], [ 126.925324664905801, 37.503183872996424 ], [ 126.925385069436871, 37.503138033117899 ], [ 126.925383085435328, 37.503087134459186 ], [ 126.925213959608257, 37.503093089062098 ] ] ] } },
{ "type": "Feature", "properties": { "F_YR": 2024, "F_SHIM": 0.2, "F_AREA": 479.40660984, "F_AVR_HGT": 16.36647339, "ADM_CD": 1159010800.0, "F_ZONE_NM": "동작구 대방동 37-2번지 건물(동)명 이름없음 지상 6층", "TYPE": null }, "geometry": { "type": "Polygon", "coordinates": [ [ [ 126.931853971098192, 37.511727214797162 ], [ 126.931769656516124, 37.511647598019771 ], [ 126.931766274506984, 37.511647740182319 ], [ 126.931601556554668, 37.511637029065085 ], [ 126.931595379796207, 37.511650396201347 ], [ 126.931580333482614, 37.511665929488672 ], [ 126.93159308173189, 37.511701048879672 ], [ 126.931595934332961, 37.511734937056559 ], [ 126.931626455967134, 37.511777527215628 ], [ 126.931660614658824, 37.511813353031741 ], [ 126.931750646502252, 37.511875115506093 ], [ 126.931798357647935, 37.511896443237617 ], [ 126.931833570029156, 37.511942649107333 ], [ 126.931853971098192, 37.511727214797162 ] ] ] } },
{ "type": "Feature", "properties": { "F_YR": 2024, "F_SHIM": 0.2, "F_AREA": 738.46246660999998, "F_AVR_HGT": 17.46510811, "ADM_CD": 1159010900.0, "F_ZONE_NM": "동작구 신대방1동 607-28번지", "TYPE": null }, "geometry": { "type": "Polygon", "coordinates": [ [ [ 126.907197189539033, 37.489439377259089 ], [ 126.907260040711577, 37.489516120538397 ], [ 126.907300752116385, 37.489548012369937 ], [ 126.907310650189132, 37.489580690523134 ], [ 126.90744812375371, 37.489743430555585 ], [ 126.907449760884433, 37.489745369008986 ], [ 126.907542032743251, 37.489696941604997 ], [ 126.907540101463326, 37.489695129058916 ], [ 126.907511448541285, 37.489668211415228 ], [ 126.907642203452866, 37.489580089453284 ], [ 126.9076124520289, 37.489554531470809 ], [ 126.90762410867633, 37.489546431734333 ], [ 126.907621184782315, 37.489542681250661 ], [ 126.907592096747621, 37.489556254221355 ], [ 126.907580929061083, 37.489562155903322 ], [ 126.90751802185639, 37.489502766011192 ], [ 126.90742708825077, 37.489412954028388 ], [ 126.907401269200847, 37.489389543503663 ], [ 126.907379528930505, 37.489368650013141 ], [ 126.90730273536515, 37.48940939509594 ], [ 126.907288521323451, 37.489392030500056 ], [ 126.907197189539033, 37.489439377259089 ] ] ] } },
{ "type": "Feature", "properties": { "F_YR": 2024, "F_SHIM": 0.2, "F_AREA": 126.60055876, "F_AVR_HGT": 31.45624084, "ADM_CD": 1162010100.0, "F_ZONE_NM": "관악구 봉천로 447지하1층", "TYPE": null }, "geometry": { "type": "Polygon", "coordinates": [ [ [ 126.94974212082893, 37.482744376545966 ], [ 126.949734311412982, 37.482657795907976 ], [ 126.949581983615985, 37.482672145075682 ], [ 126.949597064008969, 37.482756962956003 ], [ 126.94974212082893, 37.482744376545966 ] ] ] } },
{ "type": "Feature", "properties": { "F_YR": 2024, "F_SHIM": 0.1, "F_AREA": 116.91813021, "F_AVR_HGT": 27.85123596, "ADM_CD": 1129013800.0, "F_ZONE_NM": "성북구 장위동 68-976", "TYPE": "주택" }, "geometry": { "type": "Polygon", "coordinates": [ [ [ 127.049062888848312, 37.609539628121517 ], [ 127.049081197481726, 37.609479056744696 ], [ 127.049063719586698, 37.609474712044339 ], [ 127.049062532619644, 37.609478172292839 ], [ 127.049052759161285, 37.609460976485757 ], [ 127.049051835948546, 37.609451777832781 ], [ 127.048943506370136, 37.609430891602607 ], [ 127.048917446742649, 37.609502530128772 ], [ 127.048916421834647, 37.609511522339268 ], [ 127.049043860044165, 37.609536365221238 ], [ 127.049062888848312, 37.609539628121517 ] ] ] } },
{ "type": "Feature", "properties": { "F_YR": 2024, "F_SHIM": 0.2, "F_AREA": 212.80001528, "F_AVR_HGT": 28.05446739, "ADM_CD": 1168010100.0, "F_ZONE_NM": "강남구 봉은사로2길 13 (역삼동,화성빌딩) 지하1층", "TYPE": null }, "geometry": { "type": "Polygon", "coordinates": [ [ [ 127.025779195136181, 37.503776517360677 ], [ 127.025946251050456, 37.503824055635931 ], [ 127.025999368378706, 37.503710518870648 ], [ 127.025833103700506, 37.503660998310728 ], [ 127.025779195136181, 37.503776517360677 ] ] ] } },
{ "type": "Feature", "properties": { "F_YR": 2024, "F_SHIM": 0.1, "F_AREA": 86.31204052, "F_AVR_HGT": 53.03741226, "ADM_CD": 1129011800.0, "F_ZONE_NM": "성북구 동선동3가 65", "TYPE": "주택" }, "geometry": { "type": "Polygon", "coordinates": [ [ [ 127.021076996527285, 37.595011943389125 ], [ 127.021107546193136, 37.595010361601226 ], [ 127.021167014831178, 37.595006648672801 ], [ 127.021157172520347, 37.594911245098977 ], [ 127.021063010377119, 37.594917855930902 ], [ 127.021076996527285, 37.595011943389125 ] ] ] } },
{ "type": "Feature", "properties": { "F_YR": 2024, "F_SHIM": 0.2, "F_AREA": 248.07228855, "F_AVR_HGT": 14.25352592, "ADM_CD": 1171010500.0, "F_ZONE_NM": "송파구 석촌호수로18길 7-12지하1호 (석촌동 , 시티빌리지)", "TYPE": null }, "geometry": { "type": "Polygon", "coordinates": [ [ [ 127.101658975637108, 37.506442503505909 ], [ 127.101755309774774, 37.506304866523521 ], [ 127.101713892410601, 37.506287332209233 ], [ 127.101613653361426, 37.506244854066033 ], [ 127.101517307766528, 37.506382517974068 ], [ 127.101658975637108, 37.506442503505909 ] ] ] } },
{ "type": "Feature", "properties": { "F_YR": 2024, "F_SHIM": 0.2, "F_AREA": 358.22134408, "F_AVR_HGT": 42.8911087, "ADM_CD": 1165010100.0, "F_ZONE_NM": "서초구 방배3동 537-3번지 건물(동)명 이름없음 지하 1층", "TYPE": null }, "geometry": { "type": "Polygon", "coordinates": [ [ [ 126.988631979820624, 37.478116200351998 ], [ 126.988854567634732, 37.478228218973413 ], [ 126.988942999374501, 37.478096682107719 ], [ 126.988927285147696, 37.478093617027483 ], [ 126.988926086846618, 37.478093085308579 ], [ 126.988790498082579, 37.478032784732676 ], [ 126.988781442938148, 37.478029197768713 ], [ 126.988711929749371, 37.478001691671992 ], [ 126.988631979820624, 37.478116200351998 ] ] ] } },
{ "type": "Feature", "properties": { "F_YR": 2024, "F_SHIM": 0.1, "F_AREA": 129.23914379000001, "F_AVR_HGT": 27.70871887, "ADM_CD": 1129013800.0, "F_ZONE_NM": "성북구 장위동 238-475", "TYPE": "주택" }, "geometry": { "type": "Polygon", "coordinates": [ [ [ 127.049318623984632, 37.615160252333403 ], [ 127.04941646954579, 37.615156788936126 ], [ 127.04942179244091, 37.615138415773465 ], [ 127.049438824577578, 37.61508142181146 ], [ 127.049451756641474, 37.615042169827667 ], [ 127.049315833267741, 37.615047117280625 ], [ 127.049318623984632, 37.615160252333403 ] ] ] } },
{ "type": "Feature", "properties": { "F_YR": 2024, "F_SHIM": 0.2, "F_AREA": 208.54913879, "F_AVR_HGT": 19.56574554, "ADM_CD": 1165010200.0, "F_ZONE_NM": "서초구 양재천로7길  27, 101호(양재동, 공원빌라)", "TYPE": null }, "geometry": { "type": "Polygon", "coordinates": [ [ [ 127.035179878836857, 37.475164838692628 ], [ 127.035047248295996, 37.475066324743331 ], [ 127.034946897076338, 37.475152038519681 ], [ 127.035079640648206, 37.475250462447789 ], [ 127.035179878836857, 37.475164838692628 ] ] ] } },
{ "type": "Feature", "properties": { "F_YR": 2024, "F_SHIM": 0.1, "F_AREA": 216.70212676, "F_AVR_HGT": 19.39444695, "ADM_CD": 1129013900.0, "F_ZONE_NM": "성북구 석관동 261-98", "TYPE": "주택" }, "geometry": { "type": "Polygon", "coordinates": [ [ [ 127.058649451474807, 37.607306870158247 ], [ 127.05868580060887, 37.607271498017923 ], [ 127.058715880293789, 37.607212658319092 ], [ 127.058738653406678, 37.607166183630014 ], [ 127.058745442422463, 37.607158314764035 ], [ 127.058638418200488, 37.60709607269898 ], [ 127.058599770086275, 37.60714619501595 ], [ 127.058550125394689, 37.607211314977356 ], [ 127.058605726830422, 37.60723479472221 ], [ 127.058582136872531, 37.607279521874638 ], [ 127.058649451474807, 37.607306870158247 ] ] ] } },
{ "type": "Feature", "properties": { "F_YR": 2024, "F_SHIM": 0.01, "F_AREA": 180.61718789, "F_AVR_HGT": 21.0587957, "ADM_CD": 1174010100.0, "F_ZONE_NM": "강동구 명일동 352-12", "TYPE": "주택" }, "geometry": { "type": "Polygon", "coordinates": [ [ [ 127.143721074357259, 37.545531811563279 ], [ 127.143862016087965, 37.54549833211933 ], [ 127.143822755702928, 37.545393909519674 ], [ 127.143658932696582, 37.545432786367535 ], [ 127.143691199030016, 37.545518954352552 ], [ 127.143721074357259, 37.545531811563279 ] ] ] } },
{ "type": "Feature", "properties": { "F_YR": 2024, "F_SHIM": 0.2, "F_AREA": 5294.6489766200002, "F_AVR_HGT": 19.05437965, "ADM_CD": 1174010700.0, "F_ZONE_NM": "서울특별시 강동구 암사동 250", "TYPE": null }, "geometry": { "type": "Polygon", "coordinates": [ [ [ 127.136209233208632, 37.557975994803165 ], [ 127.136101172201549, 37.557956899918373 ], [ 127.136051513282098, 37.557939558406147 ], [ 127.135967293649301, 37.557879927755614 ], [ 127.135916438160123, 37.557832755794394 ], [ 127.135877305380006, 37.557809473717548 ], [ 127.135856167947395, 37.557792694317847 ], [ 127.135853610322712, 37.557767559627031 ], [ 127.135827159293413, 37.557741316869816 ], [ 127.135834556941091, 37.557713837291971 ], [ 127.13586591962931, 37.557708467755475 ], [ 127.135935964892539, 37.55771519951692 ], [ 127.135970995129995, 37.557697599352849 ], [ 127.135973977516699, 37.557669367962617 ], [ 127.135950443820931, 37.557610181742064 ], [ 127.135950439450895, 37.557607749075949 ], [ 127.135987454066026, 37.557529311849848 ], [ 127.135981163969646, 37.557511785760987 ], [ 127.135959165213379, 37.557506909428483 ], [ 127.135869145975704, 37.557538726711648 ], [ 127.13578400711053, 37.557553059184237 ], [ 127.135584147500083, 37.557551430236245 ], [ 127.135584056830709, 37.557551358260049 ], [ 127.135571623713204, 37.557541443473802 ], [ 127.135684643649938, 37.557492535547418 ], [ 127.135713660136005, 37.557472653779186 ], [ 127.135760792793718, 37.557432064694133 ], [ 127.135804320452209, 37.557356611402781 ], [ 127.135410806747103, 37.55725351658031 ], [ 127.135419204121163, 37.557354598062609 ], [ 127.135440043105049, 37.557419751997699 ], [ 127.13544417479693, 37.557458138466679 ], [ 127.135443757694887, 37.557585538828583 ], [ 127.135440236834143, 37.557610220918889 ], [ 127.135436183047972, 37.557640669944867 ], [ 127.135378795775239, 37.557725220782231 ], [ 127.135321126025644, 37.557765794624224 ], [ 127.135251773250019, 37.557823572545765 ], [ 127.135221831647712, 37.55787057502387 ], [ 127.13524523672632, 37.557883396625996 ], [ 127.135278283371662, 37.557882971769537 ], [ 127.135215473564131, 37.557954275115065 ], [ 127.135137956023044, 37.558098268862459 ], [ 127.135115192244228, 37.558108701045995 ], [ 127.135155238669512, 37.558123963536133 ], [ 127.135174828296144, 37.558116949687125 ], [ 127.135208751195833, 37.558138156609417 ], [ 127.135234281992908, 37.55816881539269 ], [ 127.135293886160596, 37.55819084914463 ], [ 127.135357386904516, 37.558265334041103 ], [ 127.135400069209012, 37.558248256957654 ], [ 127.135639777158445, 37.558172436976811 ], [ 127.135781549390103, 37.558126082138692 ], [ 127.135917159654682, 37.558102150755843 ], [ 127.1360292328649, 37.558086580182668 ], [ 127.136094401707211, 37.55809393007705 ], [ 127.136255759953272, 37.558120577521116 ], [ 127.136348311681346, 37.558137239283738 ], [ 127.136347680055067, 37.558100749941907 ], [ 127.136314362517012, 37.558057648617783 ], [ 127.136285304142632, 37.558035454382825 ], [ 127.136239098577946, 37.557981267558567 ], [ 127.136209233208632, 37.557975994803165 ] ] ] } },
{ "type": "Feature", "properties": { "F_YR": 2024, "F_SHIM": 0.1, "F_AREA": 176.30798511, "F_AVR_HGT": 25.11547623, "ADM_CD": 1129013600.0, "F_ZONE_NM": "성북구 하월곡동 47-44", "TYPE": "주택" }, "geometry": { "type": "Polygon", "coordinates": [ [ [ 127.039272626478294, 37.602923729382418 ], [ 127.039372145447274, 37.602968179033603 ], [ 127.039459162331596, 37.602856492284893 ], [ 127.039388643693059, 37.602786562618334 ], [ 127.039369955594182, 37.602780991528554 ], [ 127.039272626478294, 37.602923729382418 ] ] ] } },
{ "type": "Feature", "properties": { "F_YR": 2024, "F_SHIM": 0.01, "F_AREA": 124.93523528, "F_AVR_HGT": 16.46311356, "ADM_CD": 1174010800.0, "F_ZONE_NM": "강동구 성내동 87-8", "TYPE": "주택" }, "geometry": { "type": "Polygon", "coordinates": [ [ [ 127.122793871536672, 37.535602358035206 ], [ 127.122854496876727, 37.535590645927897 ], [ 127.122941374267867, 37.535573834212435 ], [ 127.122921951091982, 37.535513091225837 ], [ 127.122903108605726, 37.535517417339307 ], [ 127.12289643003362, 37.535494511956308 ], [ 127.122765087260348, 37.535517964564285 ], [ 127.122793871536672, 37.535602358035206 ] ] ] } },
{ "type": "Feature", "properties": { "F_YR": 2024, "F_SHIM": 0.01, "F_AREA": 345.71965759, "F_AVR_HGT": 20.30203606, "ADM_CD": 1174010700.0, "F_ZONE_NM": "강동구 암사동 449-20", "TYPE": "주택" }, "geometry": { "type": "Polygon", "coordinates": [ [ [ 127.137034410863322, 37.556856616565121 ], [ 127.137172070932692, 37.556891110547809 ], [ 127.137171548551905, 37.55671531009488 ], [ 127.137171245718037, 37.556616922397261 ], [ 127.137033967044829, 37.556617773789569 ], [ 127.137034410863322, 37.556856616565121 ] ] ] } },
{ "type": "Feature", "properties": { "F_YR": 2024, "F_SHIM": 0.2, "F_AREA": 250.97200543, "F_AVR_HGT": 23.25608559, "ADM_CD": 1174010100.0, "F_ZONE_NM": "서울특별시 강동구 명일동 339-21 지하 1층 (더오캄 카페)", "TYPE": null }, "geometry": { "type": "Polygon", "coordinates": [ [ [ 127.146199795805856, 37.547913993839401 ], [ 127.146433594926648, 37.54788920021074 ], [ 127.14641905613675, 37.547796893535143 ], [ 127.14622439945434, 37.54778647350917 ], [ 127.146185534924953, 37.547818956792931 ], [ 127.146199795805856, 37.547913993839401 ] ] ] } },
{ "type": "Feature", "properties": { "F_YR": 2024, "F_SHIM": 0.2, "F_AREA": 21552.352687899998, "F_AVR_HGT": 30.24622078, "ADM_CD": 1174010600.0, "F_ZONE_NM": "서울특별시 강동구 둔촌동 603 프라자아파트 상가 프로베이스볼 아카데미", "TYPE": null }, "geometry": { "type": "Polygon", "coordinates": [ [ [ 127.148444196200444, 37.536277277315051 ], [ 127.148464448371939, 37.536277026869961 ], [ 127.148601147695899, 37.536178837733686 ], [ 127.148651323871547, 37.536137077302044 ], [ 127.148730787038431, 37.53602334510655 ], [ 127.148748659496377, 37.535998221176428 ], [ 127.148795901878543, 37.535949085211087 ], [ 127.14885177728577, 37.535854086948149 ], [ 127.148911097904445, 37.535716052954569 ], [ 127.148964556098747, 37.535588784098437 ], [ 127.149063992345944, 37.535465872646952 ], [ 127.14925759150205, 37.535397875980507 ], [ 127.14927670084316, 37.535374759634273 ], [ 127.149244609598028, 37.53524071406229 ], [ 127.149173628066663, 37.535104825022515 ], [ 127.149189556978456, 37.535104102332234 ], [ 127.149171349234678, 37.535085231281961 ], [ 127.149159467748106, 37.535072929566645 ], [ 127.149075420328913, 37.534989548628424 ], [ 127.148954692035559, 37.534854109020991 ], [ 127.148884106350593, 37.534792443080313 ], [ 127.148793806588202, 37.534693698803245 ], [ 127.148744136449281, 37.534647017231407 ], [ 127.148653231734144, 37.534689369055634 ], [ 127.148555838908621, 37.534775264853984 ], [ 127.148526214073598, 37.534790267221759 ], [ 127.148463380609002, 37.534683307486013 ], [ 127.148440976913008, 37.534688164679871 ], [ 127.148370377789362, 37.534573186708023 ], [ 127.148261182795764, 37.5346121732398 ], [ 127.147723335090419, 37.534804094015392 ], [ 127.147695450944695, 37.534824121559069 ], [ 127.147695502475656, 37.534844727197914 ], [ 127.147720953261242, 37.534899620207604 ], [ 127.147703255190052, 37.534932978844047 ], [ 127.147564900182616, 37.534947421740931 ], [ 127.147154740099168, 37.535587434780268 ], [ 127.147168936013273, 37.535608932976253 ], [ 127.147250811501138, 37.535629293514354 ], [ 127.147290820398354, 37.535694133621995 ], [ 127.147336872790945, 37.53571331296132 ], [ 127.147376796318696, 37.535763304787132 ], [ 127.147411752173525, 37.535841945288347 ], [ 127.147781770459503, 37.535996503376033 ], [ 127.147783921947479, 37.535997410713883 ], [ 127.148044569336776, 37.536107279000547 ], [ 127.148100655768474, 37.53613111273178 ], [ 127.148444196200444, 37.536277277315051 ] ] ] } },
{ "type": "Feature", "properties": { "F_YR": 2024, "F_SHIM": 0.01, "F_AREA": 155.58474626, "F_AVR_HGT": 20.64363075, "ADM_CD": 1174010500.0, "F_ZONE_NM": "강동구 길동 320-13", "TYPE": "주택" }, "geometry": { "type": "Polygon", "coordinates": [ [ [ 127.143244898230378, 37.544516336277056 ], [ 127.143217841761867, 37.544444109247891 ], [ 127.143016175638905, 37.544492004483971 ], [ 127.143043243263094, 37.544564240555495 ], [ 127.143244898230378, 37.544516336277056 ] ] ] } },
{ "type": "Feature", "properties": { "F_YR": 2024, "F_SHIM": 0.01, "F_AREA": 135.26191431000001, "F_AVR_HGT": 32.86276794, "ADM_CD": 1174010700.0, "F_ZONE_NM": "강동구 암사동 425-193", "TYPE": "주택" }, "geometry": { "type": "Polygon", "coordinates": [ [ [ 127.137721975225219, 37.550610451975139 ], [ 127.13782082731322, 37.550568279684484 ], [ 127.137865304496984, 37.55063224370199 ], [ 127.13797817841899, 37.5505780629071 ], [ 127.137930803538865, 37.550501344255395 ], [ 127.137813531245357, 37.550551322457437 ], [ 127.137713627497206, 37.550593910410619 ], [ 127.137721975225219, 37.550610451975139 ] ] ] } },
{ "type": "Feature", "properties": { "F_YR": 2024, "F_SHIM": 0.2, "F_AREA": 503.29510513000002, "F_AVR_HGT": 19.15767975, "ADM_CD": 1174010500.0, "F_ZONE_NM": "서울특별시 강동구 길동 367-6 지하 1층(영심노래방)", "TYPE": null }, "geometry": { "type": "Polygon", "coordinates": [ [ [ 127.140003816668681, 37.539026114426662 ], [ 127.140014573575229, 37.539054852470457 ], [ 127.140284221563931, 37.538990925895732 ], [ 127.140275715896195, 37.538968131779214 ], [ 127.140286573352228, 37.538965596243926 ], [ 127.140231878680069, 37.538819429476447 ], [ 127.13995139662083, 37.538885990520257 ], [ 127.140003816668681, 37.539026114426662 ] ] ] } },
{ "type": "Feature", "properties": { "F_YR": 2024, "F_SHIM": 0.01, "F_AREA": 129.77776489, "F_AVR_HGT": 16.67793823, "ADM_CD": 1174010800.0, "F_ZONE_NM": "강동구 성내동 288-22", "TYPE": "주택" }, "geometry": { "type": "Polygon", "coordinates": [ [ [ 127.125462343389955, 37.532893482306257 ], [ 127.125402831603495, 37.53280392295278 ], [ 127.125289765444833, 37.532854334939053 ], [ 127.125350003470047, 37.532945254087075 ], [ 127.125462343389955, 37.532893482306257 ] ] ] } },
{ "type": "Feature", "properties": { "F_YR": 2024, "F_SHIM": 0.01, "F_AREA": 178.19892465000001, "F_AVR_HGT": 17.3426931, "ADM_CD": 1174010800.0, "F_ZONE_NM": "강동구 성내동 386-33", "TYPE": "주택" }, "geometry": { "type": "Polygon", "coordinates": [ [ [ 127.134568488852992, 37.532235274203231 ], [ 127.134599496461576, 37.532246141285476 ], [ 127.134718666679717, 37.532209489688817 ], [ 127.134663718568845, 37.532096413928919 ], [ 127.134522261331654, 37.532139911090105 ], [ 127.134568488852992, 37.532235274203231 ] ] ] } },
{ "type": "Feature", "properties": { "F_YR": 2024, "F_SHIM": 0.01, "F_AREA": 126.7848764, "F_AVR_HGT": 19.79689766, "ADM_CD": 1174010900.0, "F_ZONE_NM": "강동구 천호동 386-10", "TYPE": "주택" }, "geometry": { "type": "Polygon", "coordinates": [ [ [ 127.129741118682546, 37.542811588661166 ], [ 127.129839873871063, 37.542788875514177 ], [ 127.129812121221548, 37.542692058076298 ], [ 127.129805764051753, 37.542673432475191 ], [ 127.129697366251108, 37.542694912692042 ], [ 127.129706891606943, 37.542720103089003 ], [ 127.129741118682546, 37.542811588661166 ] ] ] } },
{ "type": "Feature", "properties": { "F_YR": 2024, "F_SHIM": 0.01, "F_AREA": 160.90780096, "F_AVR_HGT": 20.67658401, "ADM_CD": 1174010800.0, "F_ZONE_NM": "강동구 성내동 150-20", "TYPE": "주택" }, "geometry": { "type": "Polygon", "coordinates": [ [ [ 127.129405010920294, 37.535154204031024 ], [ 127.129495861584189, 37.535119858881536 ], [ 127.129409091159062, 37.534979488095189 ], [ 127.129377938821179, 37.534970223579492 ], [ 127.129348055599323, 37.534995231449265 ], [ 127.129335497593175, 37.53505530522277 ], [ 127.129405010920294, 37.535154204031024 ] ] ] } },
{ "type": "Feature", "properties": { "F_YR": 2024, "F_SHIM": 0.01, "F_AREA": 110.95049291, "F_AVR_HGT": 18.35593964, "ADM_CD": 1174010900.0, "F_ZONE_NM": "강동구 천호동 382-9", "TYPE": "주택" }, "geometry": { "type": "Polygon", "coordinates": [ [ [ 127.128964799618402, 37.542693606238757 ], [ 127.128957894703902, 37.542652204113928 ], [ 127.128952427636094, 37.542617918270956 ], [ 127.128805722147092, 37.54263632156993 ], [ 127.128829857480525, 37.542716060344318 ], [ 127.128964799618402, 37.542693606238757 ] ] ] } },
{ "type": "Feature", "properties": { "F_YR": 2024, "F_SHIM": 0.2, "F_AREA": 127.99494238, "F_AVR_HGT": 30.62144012, "ADM_CD": 1174010900.0, "F_ZONE_NM": "서울특별시 강동구 천호동 217-45 지하1층 B02호", "TYPE": null }, "geometry": { "type": "Polygon", "coordinates": [ [ [ 127.134641292001646, 37.543831792175176 ], [ 127.134646111282123, 37.543710252007948 ], [ 127.134506199407198, 37.543763360917126 ], [ 127.134502494376733, 37.543830696179064 ], [ 127.134641292001646, 37.543831792175176 ] ] ] } },
{ "type": "Feature", "properties": { "F_YR": 2024, "F_SHIM": 0.01, "F_AREA": 189.00366525000001, "F_AVR_HGT": 17.38296677, "ADM_CD": 1174010900.0, "F_ZONE_NM": "강동구 천호동 361-34", "TYPE": "주택" }, "geometry": { "type": "Polygon", "coordinates": [ [ [ 127.128251936002982, 37.544532468179447 ], [ 127.128399628853842, 37.544500153203863 ], [ 127.128354882441499, 37.54437720693798 ], [ 127.128211918660398, 37.544408895100588 ], [ 127.128247238135785, 37.544517976269752 ], [ 127.128251936002982, 37.544532468179447 ] ] ] } },
{ "type": "Feature", "properties": { "F_YR": 2024, "F_SHIM": 0.01, "F_AREA": 158.19433286, "F_AVR_HGT": 17.9301889, "ADM_CD": 1174010900.0, "F_ZONE_NM": "강동구 천호동 362-44", "TYPE": "주택" }, "geometry": { "type": "Polygon", "coordinates": [ [ [ 127.128141875943498, 37.543037670172239 ], [ 127.128168597810102, 37.543048084009818 ], [ 127.128295444746072, 37.54298227462516 ], [ 127.128221408785748, 37.542902264937069 ], [ 127.128086770074475, 37.542970695469947 ], [ 127.128102984355721, 37.542990409807238 ], [ 127.128141875943498, 37.543037670172239 ] ] ] } },
{ "type": "Feature", "properties": { "F_YR": 2024, "F_SHIM": 0.01, "F_AREA": 103.47104045, "F_AVR_HGT": 16.73129059, "ADM_CD": 1174010900.0, "F_ZONE_NM": "강동구 천호동 321-47", "TYPE": "주택" }, "geometry": { "type": "Polygon", "coordinates": [ [ [ 127.125135400327665, 37.547577229521806 ], [ 127.125206664640189, 37.547561018151939 ], [ 127.125218289091407, 37.547535363773598 ], [ 127.125142559251159, 37.547451380622505 ], [ 127.125065305124252, 37.547506475980157 ], [ 127.125135400327665, 37.547577229521806 ] ] ] } },
{ "type": "Feature", "properties": { "F_YR": 2024, "F_SHIM": 0.2, "F_AREA": 4554.4384178399996, "F_AVR_HGT": 18.33703728, "ADM_CD": 1174010700.0, "F_ZONE_NM": "서울특별시 강동구 암사동 133-3", "TYPE": null }, "geometry": { "type": "Polygon", "coordinates": [ [ [ 127.132832638891969, 37.559469169310212 ], [ 127.132833282179533, 37.559481025610523 ], [ 127.132806064127138, 37.559514059105503 ], [ 127.132755109782806, 37.559526179993419 ], [ 127.132710147033976, 37.559547304092582 ], [ 127.13272378763908, 37.559587509085944 ], [ 127.132747514195771, 37.559609331702397 ], [ 127.13277702457593, 37.559702344035877 ], [ 127.132786671142796, 37.559762537396686 ], [ 127.132785766396424, 37.559833896730296 ], [ 127.132779426879452, 37.559910469821084 ], [ 127.132743939417807, 37.559952333174003 ], [ 127.132686497423421, 37.559989040220465 ], [ 127.132643019465249, 37.559998638994436 ], [ 127.132633401017856, 37.560070710771903 ], [ 127.132649385808179, 37.560202084237289 ], [ 127.132682210895609, 37.560274829663058 ], [ 127.132654861124436, 37.560394358200035 ], [ 127.13266357955564, 37.560467436735671 ], [ 127.132679176366068, 37.560480699987487 ], [ 127.132700852277026, 37.560520544665202 ], [ 127.13269402389507, 37.560615318260751 ], [ 127.132687788941141, 37.56069352201019 ], [ 127.132714529254088, 37.560749227471263 ], [ 127.132892116390835, 37.56074038953232 ], [ 127.132973882685249, 37.560710908271993 ], [ 127.133076483695092, 37.560725516156729 ], [ 127.133123681206328, 37.560745564621051 ], [ 127.133141743060406, 37.560699539997771 ], [ 127.133141502707318, 37.560633677980746 ], [ 127.13313641687661, 37.560483389697133 ], [ 127.133131808268459, 37.560385628530227 ], [ 127.133121592366791, 37.560330120981149 ], [ 127.133105659011207, 37.560241355291851 ], [ 127.133101731911125, 37.560144944843593 ], [ 127.133088273949042, 37.560067177465477 ], [ 127.13309082143536, 37.559951857050883 ], [ 127.133097734981462, 37.559873652514412 ], [ 127.133103048014178, 37.559799224904033 ], [ 127.133075391022942, 37.559769279818447 ], [ 127.133058196099142, 37.559741791781505 ], [ 127.132998908117543, 37.559693916190668 ], [ 127.132961066398238, 37.559638925913937 ], [ 127.132959898903124, 37.559637927115809 ], [ 127.132941426510911, 37.559585447047922 ], [ 127.132832638891969, 37.559469169310212 ] ] ] } },
{ "type": "Feature", "properties": { "F_YR": 2024, "F_SHIM": 0.2, "F_AREA": 6885.8022769, "F_AVR_HGT": 19.60311432, "ADM_CD": 1174010700.0, "F_ZONE_NM": "서울특별시 강동구 암사동 255-2", "TYPE": null }, "geometry": { "type": "Polygon", "coordinates": [ [ [ 127.132869755656998, 37.559091919943846 ], [ 127.132987452615026, 37.55916465194332 ], [ 127.133086058197932, 37.559225385904533 ], [ 127.133148256522006, 37.55925508526181 ], [ 127.133348094428982, 37.559351051907548 ], [ 127.133523500508815, 37.559435819206257 ], [ 127.13361713359518, 37.559487449280489 ], [ 127.133626719658452, 37.559468130360656 ], [ 127.133648123375011, 37.559424210225608 ], [ 127.133679703518368, 37.559368448710316 ], [ 127.133726772171769, 37.559283928293873 ], [ 127.133791308815915, 37.559182873160964 ], [ 127.133847516681513, 37.559088945139337 ], [ 127.133869169307047, 37.559051511804086 ], [ 127.133907219918854, 37.558962082018859 ], [ 127.133908484557395, 37.558960413771068 ], [ 127.133908687384135, 37.558959908989756 ], [ 127.133929554094777, 37.55893248651288 ], [ 127.134004866854951, 37.558832671547641 ], [ 127.134081829630887, 37.558725241322108 ], [ 127.134140604955277, 37.558643545704399 ], [ 127.134166797308637, 37.558549552123175 ], [ 127.13415801960052, 37.558520351914972 ], [ 127.13409939147283, 37.558518976176657 ], [ 127.134069283478098, 37.558523722152536 ], [ 127.134041210747171, 37.558527384649487 ], [ 127.133996928829276, 37.558542570958764 ], [ 127.133923695029111, 37.558550698935399 ], [ 127.133853286188568, 37.558556309940776 ], [ 127.133795549359704, 37.5585661683876 ], [ 127.133704312017301, 37.55858238925844 ], [ 127.133629568685109, 37.558607367239865 ], [ 127.133562302485956, 37.558636589481445 ], [ 127.133452098332924, 37.55868594271756 ], [ 127.133320201720096, 37.558718165233138 ], [ 127.133145316010797, 37.558735118716115 ], [ 127.133073081933503, 37.558751984645369 ], [ 127.132994155239558, 37.558779570743589 ], [ 127.132915767685759, 37.558824184883697 ], [ 127.132833524694817, 37.558877533843926 ], [ 127.132787622871078, 37.558917949196136 ], [ 127.132741516830464, 37.558945201306216 ], [ 127.132716201144419, 37.558998072449413 ], [ 127.132777144029575, 37.559034891212455 ], [ 127.132869755656998, 37.559091919943846 ] ] ] } },
{ "type": "Feature", "properties": { "F_YR": 2024, "F_SHIM": 0.2, "F_AREA": 1952.4656448600001, "F_AVR_HGT": 19.31964226, "ADM_CD": 1174010200.0, "F_ZONE_NM": "서울특별시 강동구 고덕동 80-16", "TYPE": null }, "geometry": { "type": "Polygon", "coordinates": [ [ [ 127.160600928229044, 37.572327481787617 ], [ 127.160756872680736, 37.572047127731786 ], [ 127.160824645647637, 37.571946927655915 ], [ 127.160931998449698, 37.571817815494875 ], [ 127.160609505221558, 37.571665965698422 ], [ 127.160574836197227, 37.571736658791316 ], [ 127.160526743335112, 37.571850608312729 ], [ 127.160491704176522, 37.571928311555297 ], [ 127.160448294933545, 37.571966499761722 ], [ 127.16038577488284, 37.572045888767548 ], [ 127.160384463843968, 37.572046854587597 ], [ 127.160339233527395, 37.572080432151182 ], [ 127.160261536740023, 37.572150696488933 ], [ 127.160253679893444, 37.572171591927031 ], [ 127.160600928229044, 37.572327481787617 ] ] ] } },
{ "type": "Feature", "properties": { "F_YR": 2024, "F_SHIM": 0.01, "F_AREA": 123.34656348, "F_AVR_HGT": 27.34058548, "ADM_CD": 1174010700.0, "F_ZONE_NM": "강동구 암사동 458-8", "TYPE": "주택" }, "geometry": { "type": "Polygon", "coordinates": [ [ [ 127.133182637943889, 37.554358601779377 ], [ 127.133189228779258, 37.554373911257109 ], [ 127.133305304499274, 37.554346211477117 ], [ 127.133296306868147, 37.554320182912882 ], [ 127.133266709137203, 37.554234558836768 ], [ 127.133162423913433, 37.554261101178049 ], [ 127.133199154495102, 37.554354979402483 ], [ 127.133182637943889, 37.554358601779377 ] ] ] } },
{ "type": "Feature", "properties": { "F_YR": 2024, "F_SHIM": 0.2, "F_AREA": 6899.658616, "F_AVR_HGT": 18.11088867, "ADM_CD": 1174010700.0, "F_ZONE_NM": "서울특별시 강동구 암사동 181", "TYPE": null }, "geometry": { "type": "Polygon", "coordinates": [ [ [ 127.126620556909344, 37.556876344121669 ], [ 127.126765186623643, 37.557027493963531 ], [ 127.126906774458845, 37.557166294288947 ], [ 127.12704596609646, 37.557313386090982 ], [ 127.127188200198134, 37.557472466655632 ], [ 127.127380398317982, 37.557595733528792 ], [ 127.127431865310285, 37.557545511569138 ], [ 127.127500742196503, 37.557504136748186 ], [ 127.127594759732318, 37.557451977232546 ], [ 127.127684640670338, 37.557503922376121 ], [ 127.127778941783433, 37.557418678080325 ], [ 127.127784308527211, 37.557413293434848 ], [ 127.127796239616316, 37.5574013065267 ], [ 127.12781281433702, 37.557384656535454 ], [ 127.127831287197878, 37.557366112433591 ], [ 127.127573149646111, 37.557166873193822 ], [ 127.127369702555939, 37.55699638874723 ], [ 127.127060370615894, 37.5566573873731 ], [ 127.12684679314907, 37.556396741744329 ], [ 127.126673945265111, 37.556506494417313 ], [ 127.126563330075271, 37.556385203267041 ], [ 127.12655215374825, 37.556388341535964 ], [ 127.126230921012564, 37.55644931784947 ], [ 127.126620556909344, 37.556876344121669 ] ] ] } },
{ "type": "Feature", "properties": { "F_YR": 2024, "F_SHIM": 0.01, "F_AREA": 106.2026112, "F_AVR_HGT": 27.63392426, "ADM_CD": 1174010900.0, "F_ZONE_NM": "강동구 천호동 187-7", "TYPE": "주택" }, "geometry": { "type": "Polygon", "coordinates": [ [ [ 127.133205056406482, 37.540939092910975 ], [ 127.133227135512158, 37.540902460988505 ], [ 127.133316152038105, 37.540915957644678 ], [ 127.133333061368759, 37.540918605708185 ], [ 127.133349772364696, 37.540815027046634 ], [ 127.13324129899155, 37.540823599390912 ], [ 127.133207365560679, 37.540926728727406 ], [ 127.133181874961579, 37.540927973488429 ], [ 127.133180932987941, 37.540939236937156 ], [ 127.133205056406482, 37.540939092910975 ] ] ] } },
{ "type": "Feature", "properties": { "F_YR": 2024, "F_SHIM": 0.01, "F_AREA": 116.19336721000001, "F_AVR_HGT": 24.73027397, "ADM_CD": 1174010900.0, "F_ZONE_NM": "강동구 천호동 207-13", "TYPE": "주택" }, "geometry": { "type": "Polygon", "coordinates": [ [ [ 127.134151779122391, 37.541746448340419 ], [ 127.134183220476928, 37.541757251954792 ], [ 127.13421136994198, 37.541704665480118 ], [ 127.13422225832565, 37.541687318163873 ], [ 127.134086065768713, 37.541634303602095 ], [ 127.134042895881876, 37.541703160795642 ], [ 127.134151779122391, 37.541746448340419 ] ] ] } },
{ "type": "Feature", "properties": { "F_YR": 2024, "F_SHIM": 0.2, "F_AREA": 92.57222973, "F_AVR_HGT": 15.64295883, "ADM_CD": 1168010600.0, "F_ZONE_NM": "강남구 대치2동 989-10번지 한 건물 전체", "TYPE": null }, "geometry": { "type": "Polygon", "coordinates": [ [ [ 127.062417975364085, 37.498954952651189 ], [ 127.06255156616713, 37.498997861352954 ], [ 127.062582276417515, 37.498937118163987 ], [ 127.06244868570522, 37.498894209496413 ], [ 127.062417975364085, 37.498954952651189 ] ] ] } },
{ "type": "Feature", "properties": { "F_YR": 2024, "F_SHIM": 0.2, "F_AREA": 185.78612478, "F_AVR_HGT": 44.97045059, "ADM_CD": 1168010300.0, "F_ZONE_NM": "강남구 논현로4길 57지하동", "TYPE": null }, "geometry": { "type": "Polygon", "coordinates": [ [ [ 127.0540553126432, 37.4745973500535 ], [ 127.053940191903621, 37.474708494799188 ], [ 127.054044698904363, 37.474777465185014 ], [ 127.054134513404776, 37.474690748779679 ], [ 127.054129055591446, 37.474645971382202 ], [ 127.0540553126432, 37.4745973500535 ] ] ] } }
]
}
