{
  "type": "FeatureCollection",
  "features": [
    {
      "type": "Feature",
      "properties": {
        "candidate_rank": 1,
        "od_id": "od_2243",
        "route_type": "baseline",
        "station": "불광",
        "station_line": "3호선",
        "facility_name": "불광작은예수의집",
        "facility_address": "서울특별시 은평구 연서로37길 21-5",
        "route_length_m": 1727.634,
        "baseline_flood_overlap_m": 23.346,
        "alternative_flood_overlap_m": 0.0,
        "flood_overlap_reduction_m": 23.346,
        "distance_delta_m": 25.031,
        "facility_class": "clear_user_destination"
      },
      "geometry": {
        "type": "LineString",
        "coordinates": [
          [
            126.9295021,
            37.6109278
          ],
          [
            126.929533,
            37.6109438
          ],
          [
            126.929558,
            37.6109568
          ],
          [
            126.92961,
            37.6109837
          ],
          [
            126.9293906,
            37.6112304
          ],
          [
            126.9291965,
            37.6115185
          ],
          [
            126.9290646,
            37.6116772
          ],
          [
            126.9287629,
            37.6120358
          ],
          [
            126.9286239,
            37.6121841
          ],
          [
            126.9283537,
            37.6124989
          ],
          [
            126.9280549,
            37.6128296
          ],
          [
            126.9275282,
            37.6134126
          ],
          [
            126.9273561,
            37.6136183
          ],
          [
            126.9271822,
            37.6138262
          ],
          [
            126.9266707,
            37.6144376
          ],
          [
            126.926582,
            37.6145187
          ],
          [
            126.9262114,
            37.6148801
          ],
          [
            126.9259271,
            37.6150999
          ],
          [
            126.9258071,
            37.615188
          ],
          [
            126.9257199,
            37.6152557
          ],
          [
            126.9247486,
            37.6158931
          ],
          [
            126.9248024,
            37.6159534
          ],
          [
            126.9248384,
            37.6161828
          ],
          [
            126.9248695,
            37.6162672
          ],
          [
            126.9249501,
            37.6164855
          ],
          [
            126.9249871,
            37.6165326
          ],
          [
            126.9250721,
            37.6167508
          ],
          [
            126.925143,
            37.6169325
          ],
          [
            126.9252465,
            37.6172286
          ],
          [
            126.9252563,
            37.6172568
          ],
          [
            126.925272,
            37.6173598
          ],
          [
            126.925294,
            37.6174112
          ],
          [
            126.9253157,
            37.617462
          ],
          [
            126.925318,
            37.6176646
          ],
          [
            126.9253754,
            37.61777
          ],
          [
            126.9254346,
            37.6178787
          ],
          [
            126.9251778,
            37.6181799
          ],
          [
            126.9251419,
            37.6182856
          ],
          [
            126.925124,
            37.6183382
          ],
          [
            126.9250241,
            37.618633
          ],
          [
            126.9249344,
            37.6187485
          ],
          [
            126.9248368,
            37.6188027
          ],
          [
            126.9246857,
            37.6188604
          ],
          [
            126.9246224,
            37.6188864
          ],
          [
            126.924615,
            37.6188834
          ],
          [
            126.9243484,
            37.6190115
          ],
          [
            126.9243617,
            37.6190893
          ],
          [
            126.9244091,
            37.6192733
          ],
          [
            126.9244716,
            37.6195163
          ],
          [
            126.9245568,
            37.6197539
          ],
          [
            126.9246007,
            37.6197781
          ],
          [
            126.9247915,
            37.6202736
          ],
          [
            126.9248675,
            37.6204709
          ],
          [
            126.9248254,
            37.6205291
          ],
          [
            126.9247811,
            37.6206298
          ],
          [
            126.924906,
            37.6206986
          ],
          [
            126.9252203,
            37.6208717
          ],
          [
            126.9254593,
            37.6210034
          ],
          [
            126.9256488,
            37.6211078
          ],
          [
            126.9260098,
            37.6212419
          ],
          [
            126.92622,
            37.62132
          ],
          [
            126.926285,
            37.6213875
          ],
          [
            126.9262531,
            37.6215973
          ],
          [
            126.9262063,
            37.6217302
          ],
          [
            126.9261413,
            37.6219277
          ],
          [
            126.9261685,
            37.6220295
          ],
          [
            126.9261928,
            37.6220942
          ],
          [
            126.9262183,
            37.6221623
          ],
          [
            126.9263045,
            37.6222772
          ],
          [
            126.9263393,
            37.622361
          ],
          [
            126.9263634,
            37.6224915
          ],
          [
            126.9263287,
            37.6226232
          ],
          [
            126.9262712,
            37.6227848
          ],
          [
            126.9262576,
            37.6228853
          ],
          [
            126.9262604,
            37.6229388
          ],
          [
            126.9262659,
            37.6229837
          ],
          [
            126.9263853,
            37.6231262
          ],
          [
            126.9264237,
            37.6231979
          ],
          [
            126.9265021,
            37.6233445
          ],
          [
            126.9260628,
            37.6235129
          ]
        ]
      }
    },
    {
      "type": "Feature",
      "properties": {
        "candidate_rank": 1,
        "od_id": "od_2243",
        "route_type": "alternative",
        "station": "불광",
        "station_line": "3호선",
        "facility_name": "불광작은예수의집",
        "facility_address": "서울특별시 은평구 연서로37길 21-5",
        "route_length_m": 1752.665,
        "baseline_flood_overlap_m": 23.346,
        "alternative_flood_overlap_m": 0.0,
        "flood_overlap_reduction_m": 23.346,
        "distance_delta_m": 25.031,
        "facility_class": "clear_user_destination"
      },
      "geometry": {
        "type": "LineString",
        "coordinates": [
          [
            126.9295021,
            37.6109278
          ],
          [
            126.929533,
            37.6109438
          ],
          [
            126.929558,
            37.6109568
          ],
          [
            126.92961,
            37.6109837
          ],
          [
            126.9293906,
            37.6112304
          ],
          [
            126.9291965,
            37.6115185
          ],
          [
            126.9290646,
            37.6116772
          ],
          [
            126.9287629,
            37.6120358
          ],
          [
            126.9286239,
            37.6121841
          ],
          [
            126.9283537,
            37.6124989
          ],
          [
            126.9280549,
            37.6128296
          ],
          [
            126.9275282,
            37.6134126
          ],
          [
            126.9273561,
            37.6136183
          ],
          [
            126.9271822,
            37.6138262
          ],
          [
            126.9266707,
            37.6144376
          ],
          [
            126.926582,
            37.6145187
          ],
          [
            126.9262114,
            37.6148801
          ],
          [
            126.9259271,
            37.6150999
          ],
          [
            126.9258071,
            37.615188
          ],
          [
            126.9257199,
            37.6152557
          ],
          [
            126.9247486,
            37.6158931
          ],
          [
            126.9248024,
            37.6159534
          ],
          [
            126.9248384,
            37.6161828
          ],
          [
            126.9248695,
            37.6162672
          ],
          [
            126.9249501,
            37.6164855
          ],
          [
            126.9249871,
            37.6165326
          ],
          [
            126.9250721,
            37.6167508
          ],
          [
            126.925143,
            37.6169325
          ],
          [
            126.9252465,
            37.6172286
          ],
          [
            126.9252563,
            37.6172568
          ],
          [
            126.925272,
            37.6173598
          ],
          [
            126.925294,
            37.6174112
          ],
          [
            126.9253157,
            37.617462
          ],
          [
            126.925318,
            37.6176646
          ],
          [
            126.9253754,
            37.61777
          ],
          [
            126.9254346,
            37.6178787
          ],
          [
            126.9251778,
            37.6181799
          ],
          [
            126.9251419,
            37.6182856
          ],
          [
            126.925124,
            37.6183382
          ],
          [
            126.9250241,
            37.618633
          ],
          [
            126.9249344,
            37.6187485
          ],
          [
            126.9248368,
            37.6188027
          ],
          [
            126.9246857,
            37.6188604
          ],
          [
            126.9246224,
            37.6188864
          ],
          [
            126.924615,
            37.6188834
          ],
          [
            126.9243484,
            37.6190115
          ],
          [
            126.9243617,
            37.6190893
          ],
          [
            126.9244091,
            37.6192733
          ],
          [
            126.9244716,
            37.6195163
          ],
          [
            126.9245568,
            37.6197539
          ],
          [
            126.9246007,
            37.6197781
          ],
          [
            126.9247915,
            37.6202736
          ],
          [
            126.9248675,
            37.6204709
          ],
          [
            126.9248254,
            37.6205291
          ],
          [
            126.9247811,
            37.6206298
          ],
          [
            126.9247121,
            37.6207796
          ],
          [
            126.9246565,
            37.6208693
          ],
          [
            126.9246916,
            37.6210424
          ],
          [
            126.9245244,
            37.6212658
          ],
          [
            126.9250801,
            37.6216225
          ],
          [
            126.9250426,
            37.6216692
          ],
          [
            126.9249474,
            37.6217649
          ],
          [
            126.924836,
            37.6218592
          ],
          [
            126.9249413,
            37.6219086
          ],
          [
            126.9250622,
            37.6219696
          ],
          [
            126.9251015,
            37.6220211
          ],
          [
            126.9250771,
            37.6220732
          ],
          [
            126.9250668,
            37.6220953
          ],
          [
            126.9250562,
            37.6222784
          ],
          [
            126.925094,
            37.622391
          ],
          [
            126.9251378,
            37.6225095
          ],
          [
            126.9251995,
            37.6225976
          ],
          [
            126.9253121,
            37.6226498
          ],
          [
            126.9254474,
            37.6227221
          ],
          [
            126.9256544,
            37.6228203
          ],
          [
            126.9259437,
            37.6229297
          ],
          [
            126.925964,
            37.6230009
          ],
          [
            126.9259469,
            37.6233293
          ],
          [
            126.9257442,
            37.6235001
          ],
          [
            126.9258161,
            37.6236075
          ],
          [
            126.9260628,
            37.6235129
          ]
        ]
      }
    },
    {
      "type": "Feature",
      "properties": {
        "candidate_rank": 2,
        "od_id": "od_853",
        "route_type": "baseline",
        "station": "불광",
        "station_line": "6호선",
        "facility_name": "불광작은예수의집",
        "facility_address": "서울특별시 은평구 연서로37길 21-5",
        "route_length_m": 1727.634,
        "baseline_flood_overlap_m": 23.346,
        "alternative_flood_overlap_m": 0.0,
        "flood_overlap_reduction_m": 23.346,
        "distance_delta_m": 25.031,
        "facility_class": "clear_user_destination"
      },
      "geometry": {
        "type": "LineString",
        "coordinates": [
          [
            126.9295021,
            37.6109278
          ],
          [
            126.929533,
            37.6109438
          ],
          [
            126.929558,
            37.6109568
          ],
          [
            126.92961,
            37.6109837
          ],
          [
            126.9293906,
            37.6112304
          ],
          [
            126.9291965,
            37.6115185
          ],
          [
            126.9290646,
            37.6116772
          ],
          [
            126.9287629,
            37.6120358
          ],
          [
            126.9286239,
            37.6121841
          ],
          [
            126.9283537,
            37.6124989
          ],
          [
            126.9280549,
            37.6128296
          ],
          [
            126.9275282,
            37.6134126
          ],
          [
            126.9273561,
            37.6136183
          ],
          [
            126.9271822,
            37.6138262
          ],
          [
            126.9266707,
            37.6144376
          ],
          [
            126.926582,
            37.6145187
          ],
          [
            126.9262114,
            37.6148801
          ],
          [
            126.9259271,
            37.6150999
          ],
          [
            126.9258071,
            37.615188
          ],
          [
            126.9257199,
            37.6152557
          ],
          [
            126.9247486,
            37.6158931
          ],
          [
            126.9248024,
            37.6159534
          ],
          [
            126.9248384,
            37.6161828
          ],
          [
            126.9248695,
            37.6162672
          ],
          [
            126.9249501,
            37.6164855
          ],
          [
            126.9249871,
            37.6165326
          ],
          [
            126.9250721,
            37.6167508
          ],
          [
            126.925143,
            37.6169325
          ],
          [
            126.9252465,
            37.6172286
          ],
          [
            126.9252563,
            37.6172568
          ],
          [
            126.925272,
            37.6173598
          ],
          [
            126.925294,
            37.6174112
          ],
          [
            126.9253157,
            37.617462
          ],
          [
            126.925318,
            37.6176646
          ],
          [
            126.9253754,
            37.61777
          ],
          [
            126.9254346,
            37.6178787
          ],
          [
            126.9251778,
            37.6181799
          ],
          [
            126.9251419,
            37.6182856
          ],
          [
            126.925124,
            37.6183382
          ],
          [
            126.9250241,
            37.618633
          ],
          [
            126.9249344,
            37.6187485
          ],
          [
            126.9248368,
            37.6188027
          ],
          [
            126.9246857,
            37.6188604
          ],
          [
            126.9246224,
            37.6188864
          ],
          [
            126.924615,
            37.6188834
          ],
          [
            126.9243484,
            37.6190115
          ],
          [
            126.9243617,
            37.6190893
          ],
          [
            126.9244091,
            37.6192733
          ],
          [
            126.9244716,
            37.6195163
          ],
          [
            126.9245568,
            37.6197539
          ],
          [
            126.9246007,
            37.6197781
          ],
          [
            126.9247915,
            37.6202736
          ],
          [
            126.9248675,
            37.6204709
          ],
          [
            126.9248254,
            37.6205291
          ],
          [
            126.9247811,
            37.6206298
          ],
          [
            126.924906,
            37.6206986
          ],
          [
            126.9252203,
            37.6208717
          ],
          [
            126.9254593,
            37.6210034
          ],
          [
            126.9256488,
            37.6211078
          ],
          [
            126.9260098,
            37.6212419
          ],
          [
            126.92622,
            37.62132
          ],
          [
            126.926285,
            37.6213875
          ],
          [
            126.9262531,
            37.6215973
          ],
          [
            126.9262063,
            37.6217302
          ],
          [
            126.9261413,
            37.6219277
          ],
          [
            126.9261685,
            37.6220295
          ],
          [
            126.9261928,
            37.6220942
          ],
          [
            126.9262183,
            37.6221623
          ],
          [
            126.9263045,
            37.6222772
          ],
          [
            126.9263393,
            37.622361
          ],
          [
            126.9263634,
            37.6224915
          ],
          [
            126.9263287,
            37.6226232
          ],
          [
            126.9262712,
            37.6227848
          ],
          [
            126.9262576,
            37.6228853
          ],
          [
            126.9262604,
            37.6229388
          ],
          [
            126.9262659,
            37.6229837
          ],
          [
            126.9263853,
            37.6231262
          ],
          [
            126.9264237,
            37.6231979
          ],
          [
            126.9265021,
            37.6233445
          ],
          [
            126.9260628,
            37.6235129
          ]
        ]
      }
    },
    {
      "type": "Feature",
      "properties": {
        "candidate_rank": 2,
        "od_id": "od_853",
        "route_type": "alternative",
        "station": "불광",
        "station_line": "6호선",
        "facility_name": "불광작은예수의집",
        "facility_address": "서울특별시 은평구 연서로37길 21-5",
        "route_length_m": 1752.665,
        "baseline_flood_overlap_m": 23.346,
        "alternative_flood_overlap_m": 0.0,
        "flood_overlap_reduction_m": 23.346,
        "distance_delta_m": 25.031,
        "facility_class": "clear_user_destination"
      },
      "geometry": {
        "type": "LineString",
        "coordinates": [
          [
            126.9295021,
            37.6109278
          ],
          [
            126.929533,
            37.6109438
          ],
          [
            126.929558,
            37.6109568
          ],
          [
            126.92961,
            37.6109837
          ],
          [
            126.9293906,
            37.6112304
          ],
          [
            126.9291965,
            37.6115185
          ],
          [
            126.9290646,
            37.6116772
          ],
          [
            126.9287629,
            37.6120358
          ],
          [
            126.9286239,
            37.6121841
          ],
          [
            126.9283537,
            37.6124989
          ],
          [
            126.9280549,
            37.6128296
          ],
          [
            126.9275282,
            37.6134126
          ],
          [
            126.9273561,
            37.6136183
          ],
          [
            126.9271822,
            37.6138262
          ],
          [
            126.9266707,
            37.6144376
          ],
          [
            126.926582,
            37.6145187
          ],
          [
            126.9262114,
            37.6148801
          ],
          [
            126.9259271,
            37.6150999
          ],
          [
            126.9258071,
            37.615188
          ],
          [
            126.9257199,
            37.6152557
          ],
          [
            126.9247486,
            37.6158931
          ],
          [
            126.9248024,
            37.6159534
          ],
          [
            126.9248384,
            37.6161828
          ],
          [
            126.9248695,
            37.6162672
          ],
          [
            126.9249501,
            37.6164855
          ],
          [
            126.9249871,
            37.6165326
          ],
          [
            126.9250721,
            37.6167508
          ],
          [
            126.925143,
            37.6169325
          ],
          [
            126.9252465,
            37.6172286
          ],
          [
            126.9252563,
            37.6172568
          ],
          [
            126.925272,
            37.6173598
          ],
          [
            126.925294,
            37.6174112
          ],
          [
            126.9253157,
            37.617462
          ],
          [
            126.925318,
            37.6176646
          ],
          [
            126.9253754,
            37.61777
          ],
          [
            126.9254346,
            37.6178787
          ],
          [
            126.9251778,
            37.6181799
          ],
          [
            126.9251419,
            37.6182856
          ],
          [
            126.925124,
            37.6183382
          ],
          [
            126.9250241,
            37.618633
          ],
          [
            126.9249344,
            37.6187485
          ],
          [
            126.9248368,
            37.6188027
          ],
          [
            126.9246857,
            37.6188604
          ],
          [
            126.9246224,
            37.6188864
          ],
          [
            126.924615,
            37.6188834
          ],
          [
            126.9243484,
            37.6190115
          ],
          [
            126.9243617,
            37.6190893
          ],
          [
            126.9244091,
            37.6192733
          ],
          [
            126.9244716,
            37.6195163
          ],
          [
            126.9245568,
            37.6197539
          ],
          [
            126.9246007,
            37.6197781
          ],
          [
            126.9247915,
            37.6202736
          ],
          [
            126.9248675,
            37.6204709
          ],
          [
            126.9248254,
            37.6205291
          ],
          [
            126.9247811,
            37.6206298
          ],
          [
            126.9247121,
            37.6207796
          ],
          [
            126.9246565,
            37.6208693
          ],
          [
            126.9246916,
            37.6210424
          ],
          [
            126.9245244,
            37.6212658
          ],
          [
            126.9250801,
            37.6216225
          ],
          [
            126.9250426,
            37.6216692
          ],
          [
            126.9249474,
            37.6217649
          ],
          [
            126.924836,
            37.6218592
          ],
          [
            126.9249413,
            37.6219086
          ],
          [
            126.9250622,
            37.6219696
          ],
          [
            126.9251015,
            37.6220211
          ],
          [
            126.9250771,
            37.6220732
          ],
          [
            126.9250668,
            37.6220953
          ],
          [
            126.9250562,
            37.6222784
          ],
          [
            126.925094,
            37.622391
          ],
          [
            126.9251378,
            37.6225095
          ],
          [
            126.9251995,
            37.6225976
          ],
          [
            126.9253121,
            37.6226498
          ],
          [
            126.9254474,
            37.6227221
          ],
          [
            126.9256544,
            37.6228203
          ],
          [
            126.9259437,
            37.6229297
          ],
          [
            126.925964,
            37.6230009
          ],
          [
            126.9259469,
            37.6233293
          ],
          [
            126.9257442,
            37.6235001
          ],
          [
            126.9258161,
            37.6236075
          ],
          [
            126.9260628,
            37.6235129
          ]
        ]
      }
    },
    {
      "type": "Feature",
      "properties": {
        "candidate_rank": 3,
        "od_id": "od_2303",
        "route_type": "baseline",
        "station": "불광",
        "station_line": "3호선",
        "facility_name": "사랑의집",
        "facility_address": "서울특별시 은평구 역말로10길 30-1",
        "route_length_m": 627.642,
        "baseline_flood_overlap_m": 22.641,
        "alternative_flood_overlap_m": 0.0,
        "flood_overlap_reduction_m": 22.641,
        "distance_delta_m": 16.15,
        "facility_class": "clear_user_destination"
      },
      "geometry": {
        "type": "LineString",
        "coordinates": [
          [
            126.9295021,
            37.6109278
          ],
          [
            126.9291655,
            37.6113263
          ],
          [
            126.9285913,
            37.6110512
          ],
          [
            126.9284786,
            37.6109874
          ],
          [
            126.9283248,
            37.6109004
          ],
          [
            126.9282806,
            37.6108557
          ],
          [
            126.928228,
            37.6108024
          ],
          [
            126.927998,
            37.6106642
          ],
          [
            126.9279775,
            37.6106447
          ],
          [
            126.927879,
            37.6107949
          ],
          [
            126.9278473,
            37.6107546
          ],
          [
            126.9276982,
            37.610688
          ],
          [
            126.9275939,
            37.6106498
          ],
          [
            126.9270161,
            37.610438
          ],
          [
            126.926938,
            37.6104211
          ],
          [
            126.9268479,
            37.6104015
          ],
          [
            126.9262769,
            37.6101691
          ],
          [
            126.9260294,
            37.6100032
          ],
          [
            126.9259121,
            37.6099116
          ],
          [
            126.9257375,
            37.6097983
          ],
          [
            126.9256213,
            37.6097125
          ],
          [
            126.9254996,
            37.6096224
          ],
          [
            126.925333,
            37.6094678
          ],
          [
            126.9251718,
            37.6095535
          ],
          [
            126.9250354,
            37.6096226
          ],
          [
            126.9250131,
            37.609689
          ],
          [
            126.9249675,
            37.6096508
          ],
          [
            126.9247965,
            37.6094531
          ],
          [
            126.9245392,
            37.6093794
          ],
          [
            126.9245023,
            37.6093689
          ],
          [
            126.9243,
            37.6092752
          ],
          [
            126.9241152,
            37.6091521
          ],
          [
            126.924033,
            37.6090682
          ]
        ]
      }
    },
    {
      "type": "Feature",
      "properties": {
        "candidate_rank": 3,
        "od_id": "od_2303",
        "route_type": "alternative",
        "station": "불광",
        "station_line": "3호선",
        "facility_name": "사랑의집",
        "facility_address": "서울특별시 은평구 역말로10길 30-1",
        "route_length_m": 643.792,
        "baseline_flood_overlap_m": 22.641,
        "alternative_flood_overlap_m": 0.0,
        "flood_overlap_reduction_m": 22.641,
        "distance_delta_m": 16.15,
        "facility_class": "clear_user_destination"
      },
      "geometry": {
        "type": "LineString",
        "coordinates": [
          [
            126.9295021,
            37.6109278
          ],
          [
            126.928959,
            37.6106114
          ],
          [
            126.9287662,
            37.6104018
          ],
          [
            126.9283073,
            37.6099029
          ],
          [
            126.9281915,
            37.6098108
          ],
          [
            126.9279529,
            37.6096845
          ],
          [
            126.9273664,
            37.6093972
          ],
          [
            126.9272636,
            37.6093199
          ],
          [
            126.9269512,
            37.6091942
          ],
          [
            126.9267747,
            37.6090895
          ],
          [
            126.9267057,
            37.6090485
          ],
          [
            126.926679,
            37.6090266
          ],
          [
            126.9266011,
            37.6089106
          ],
          [
            126.926352,
            37.6087742
          ],
          [
            126.9261315,
            37.6089666
          ],
          [
            126.9259524,
            37.6090772
          ],
          [
            126.9256937,
            37.6092368
          ],
          [
            126.9254666,
            37.6093823
          ],
          [
            126.925333,
            37.6094678
          ],
          [
            126.9251718,
            37.6095535
          ],
          [
            126.9250354,
            37.6096226
          ],
          [
            126.9250131,
            37.609689
          ],
          [
            126.9249675,
            37.6096508
          ],
          [
            126.9247965,
            37.6094531
          ],
          [
            126.9245392,
            37.6093794
          ],
          [
            126.9245023,
            37.6093689
          ],
          [
            126.9243,
            37.6092752
          ],
          [
            126.9241152,
            37.6091521
          ],
          [
            126.924033,
            37.6090682
          ]
        ]
      }
    },
    {
      "type": "Feature",
      "properties": {
        "candidate_rank": 4,
        "od_id": "od_915",
        "route_type": "baseline",
        "station": "불광",
        "station_line": "6호선",
        "facility_name": "사랑의집",
        "facility_address": "서울특별시 은평구 역말로10길 30-1",
        "route_length_m": 627.642,
        "baseline_flood_overlap_m": 22.641,
        "alternative_flood_overlap_m": 0.0,
        "flood_overlap_reduction_m": 22.641,
        "distance_delta_m": 16.15,
        "facility_class": "clear_user_destination"
      },
      "geometry": {
        "type": "LineString",
        "coordinates": [
          [
            126.9295021,
            37.6109278
          ],
          [
            126.9291655,
            37.6113263
          ],
          [
            126.9285913,
            37.6110512
          ],
          [
            126.9284786,
            37.6109874
          ],
          [
            126.9283248,
            37.6109004
          ],
          [
            126.9282806,
            37.6108557
          ],
          [
            126.928228,
            37.6108024
          ],
          [
            126.927998,
            37.6106642
          ],
          [
            126.9279775,
            37.6106447
          ],
          [
            126.927879,
            37.6107949
          ],
          [
            126.9278473,
            37.6107546
          ],
          [
            126.9276982,
            37.610688
          ],
          [
            126.9275939,
            37.6106498
          ],
          [
            126.9270161,
            37.610438
          ],
          [
            126.926938,
            37.6104211
          ],
          [
            126.9268479,
            37.6104015
          ],
          [
            126.9262769,
            37.6101691
          ],
          [
            126.9260294,
            37.6100032
          ],
          [
            126.9259121,
            37.6099116
          ],
          [
            126.9257375,
            37.6097983
          ],
          [
            126.9256213,
            37.6097125
          ],
          [
            126.9254996,
            37.6096224
          ],
          [
            126.925333,
            37.6094678
          ],
          [
            126.9251718,
            37.6095535
          ],
          [
            126.9250354,
            37.6096226
          ],
          [
            126.9250131,
            37.609689
          ],
          [
            126.9249675,
            37.6096508
          ],
          [
            126.9247965,
            37.6094531
          ],
          [
            126.9245392,
            37.6093794
          ],
          [
            126.9245023,
            37.6093689
          ],
          [
            126.9243,
            37.6092752
          ],
          [
            126.9241152,
            37.6091521
          ],
          [
            126.924033,
            37.6090682
          ]
        ]
      }
    },
    {
      "type": "Feature",
      "properties": {
        "candidate_rank": 4,
        "od_id": "od_915",
        "route_type": "alternative",
        "station": "불광",
        "station_line": "6호선",
        "facility_name": "사랑의집",
        "facility_address": "서울특별시 은평구 역말로10길 30-1",
        "route_length_m": 643.792,
        "baseline_flood_overlap_m": 22.641,
        "alternative_flood_overlap_m": 0.0,
        "flood_overlap_reduction_m": 22.641,
        "distance_delta_m": 16.15,
        "facility_class": "clear_user_destination"
      },
      "geometry": {
        "type": "LineString",
        "coordinates": [
          [
            126.9295021,
            37.6109278
          ],
          [
            126.928959,
            37.6106114
          ],
          [
            126.9287662,
            37.6104018
          ],
          [
            126.9283073,
            37.6099029
          ],
          [
            126.9281915,
            37.6098108
          ],
          [
            126.9279529,
            37.6096845
          ],
          [
            126.9273664,
            37.6093972
          ],
          [
            126.9272636,
            37.6093199
          ],
          [
            126.9269512,
            37.6091942
          ],
          [
            126.9267747,
            37.6090895
          ],
          [
            126.9267057,
            37.6090485
          ],
          [
            126.926679,
            37.6090266
          ],
          [
            126.9266011,
            37.6089106
          ],
          [
            126.926352,
            37.6087742
          ],
          [
            126.9261315,
            37.6089666
          ],
          [
            126.9259524,
            37.6090772
          ],
          [
            126.9256937,
            37.6092368
          ],
          [
            126.9254666,
            37.6093823
          ],
          [
            126.925333,
            37.6094678
          ],
          [
            126.9251718,
            37.6095535
          ],
          [
            126.9250354,
            37.6096226
          ],
          [
            126.9250131,
            37.609689
          ],
          [
            126.9249675,
            37.6096508
          ],
          [
            126.9247965,
            37.6094531
          ],
          [
            126.9245392,
            37.6093794
          ],
          [
            126.9245023,
            37.6093689
          ],
          [
            126.9243,
            37.6092752
          ],
          [
            126.9241152,
            37.6091521
          ],
          [
            126.924033,
            37.6090682
          ]
        ]
      }
    },
    {
      "type": "Feature",
      "properties": {
        "candidate_rank": 5,
        "od_id": "od_546",
        "route_type": "baseline",
        "station": "독바위",
        "station_line": "6호선",
        "facility_name": "사랑의집",
        "facility_address": "서울특별시 은평구 역말로10길 30-1",
        "route_length_m": 1615.347,
        "baseline_flood_overlap_m": 22.641,
        "alternative_flood_overlap_m": 0.0,
        "flood_overlap_reduction_m": 22.641,
        "distance_delta_m": 16.15,
        "facility_class": "clear_user_destination"
      },
      "geometry": {
        "type": "LineString",
        "coordinates": [
          [
            126.9329984,
            37.6184614
          ],
          [
            126.9330163,
            37.6184266
          ],
          [
            126.9330995,
            37.6181887
          ],
          [
            126.9331531,
            37.617853
          ],
          [
            126.9331597,
            37.6177787
          ],
          [
            126.9331022,
            37.6173856
          ],
          [
            126.9328742,
            37.6170712
          ],
          [
            126.9327749,
            37.6169479
          ],
          [
            126.9327165,
            37.6168523
          ],
          [
            126.9326918,
            37.6168119
          ],
          [
            126.9326703,
            37.6166717
          ],
          [
            126.9327025,
            37.6165251
          ],
          [
            126.9327395,
            37.6164462
          ],
          [
            126.9329115,
            37.6160793
          ],
          [
            126.9329652,
            37.6159647
          ],
          [
            126.9329756,
            37.6157736
          ],
          [
            126.9328683,
            37.6154733
          ],
          [
            126.9327974,
            37.6152748
          ],
          [
            126.9326516,
            37.6149491
          ],
          [
            126.9325168,
            37.6146745
          ],
          [
            126.9322917,
            37.6142157
          ],
          [
            126.9322274,
            37.6141099
          ],
          [
            126.9320555,
            37.613796
          ],
          [
            126.9320414,
            37.6136138
          ],
          [
            126.932025,
            37.6134017
          ],
          [
            126.9320139,
            37.6132585
          ],
          [
            126.9320023,
            37.6131082
          ],
          [
            126.9319727,
            37.6127261
          ],
          [
            126.9319501,
            37.612434
          ],
          [
            126.9319397,
            37.6123802
          ],
          [
            126.9318766,
            37.6120965
          ],
          [
            126.9313121,
            37.6119371
          ],
          [
            126.9310255,
            37.6118004
          ],
          [
            126.9307984,
            37.6116425
          ],
          [
            126.9305636,
            37.6114735
          ],
          [
            126.9302963,
            37.6113245
          ],
          [
            126.9300404,
            37.6111982
          ],
          [
            126.92961,
            37.6109837
          ],
          [
            126.929558,
            37.6109568
          ],
          [
            126.929533,
            37.6109438
          ],
          [
            126.9295021,
            37.6109278
          ],
          [
            126.9291655,
            37.6113263
          ],
          [
            126.9285913,
            37.6110512
          ],
          [
            126.9284786,
            37.6109874
          ],
          [
            126.9283248,
            37.6109004
          ],
          [
            126.9282806,
            37.6108557
          ],
          [
            126.928228,
            37.6108024
          ],
          [
            126.927998,
            37.6106642
          ],
          [
            126.9279775,
            37.6106447
          ],
          [
            126.927879,
            37.6107949
          ],
          [
            126.9278473,
            37.6107546
          ],
          [
            126.9276982,
            37.610688
          ],
          [
            126.9275939,
            37.6106498
          ],
          [
            126.9270161,
            37.610438
          ],
          [
            126.926938,
            37.6104211
          ],
          [
            126.9268479,
            37.6104015
          ],
          [
            126.9262769,
            37.6101691
          ],
          [
            126.9260294,
            37.6100032
          ],
          [
            126.9259121,
            37.6099116
          ],
          [
            126.9257375,
            37.6097983
          ],
          [
            126.9256213,
            37.6097125
          ],
          [
            126.9254996,
            37.6096224
          ],
          [
            126.925333,
            37.6094678
          ],
          [
            126.9251718,
            37.6095535
          ],
          [
            126.9250354,
            37.6096226
          ],
          [
            126.9250131,
            37.609689
          ],
          [
            126.9249675,
            37.6096508
          ],
          [
            126.9247965,
            37.6094531
          ],
          [
            126.9245392,
            37.6093794
          ],
          [
            126.9245023,
            37.6093689
          ],
          [
            126.9243,
            37.6092752
          ],
          [
            126.9241152,
            37.6091521
          ],
          [
            126.924033,
            37.6090682
          ]
        ]
      }
    },
    {
      "type": "Feature",
      "properties": {
        "candidate_rank": 5,
        "od_id": "od_546",
        "route_type": "alternative",
        "station": "독바위",
        "station_line": "6호선",
        "facility_name": "사랑의집",
        "facility_address": "서울특별시 은평구 역말로10길 30-1",
        "route_length_m": 1631.497,
        "baseline_flood_overlap_m": 22.641,
        "alternative_flood_overlap_m": 0.0,
        "flood_overlap_reduction_m": 22.641,
        "distance_delta_m": 16.15,
        "facility_class": "clear_user_destination"
      },
      "geometry": {
        "type": "LineString",
        "coordinates": [
          [
            126.9329984,
            37.6184614
          ],
          [
            126.9330163,
            37.6184266
          ],
          [
            126.9330995,
            37.6181887
          ],
          [
            126.9331531,
            37.617853
          ],
          [
            126.9331597,
            37.6177787
          ],
          [
            126.9331022,
            37.6173856
          ],
          [
            126.9328742,
            37.6170712
          ],
          [
            126.9327749,
            37.6169479
          ],
          [
            126.9327165,
            37.6168523
          ],
          [
            126.9326918,
            37.6168119
          ],
          [
            126.9326703,
            37.6166717
          ],
          [
            126.9327025,
            37.6165251
          ],
          [
            126.9327395,
            37.6164462
          ],
          [
            126.9329115,
            37.6160793
          ],
          [
            126.9329652,
            37.6159647
          ],
          [
            126.9329756,
            37.6157736
          ],
          [
            126.9328683,
            37.6154733
          ],
          [
            126.9327974,
            37.6152748
          ],
          [
            126.9326516,
            37.6149491
          ],
          [
            126.9325168,
            37.6146745
          ],
          [
            126.9322917,
            37.6142157
          ],
          [
            126.9322274,
            37.6141099
          ],
          [
            126.9320555,
            37.613796
          ],
          [
            126.9320414,
            37.6136138
          ],
          [
            126.932025,
            37.6134017
          ],
          [
            126.9320139,
            37.6132585
          ],
          [
            126.9320023,
            37.6131082
          ],
          [
            126.9319727,
            37.6127261
          ],
          [
            126.9319501,
            37.612434
          ],
          [
            126.9319397,
            37.6123802
          ],
          [
            126.9318766,
            37.6120965
          ],
          [
            126.9313121,
            37.6119371
          ],
          [
            126.9310255,
            37.6118004
          ],
          [
            126.9307984,
            37.6116425
          ],
          [
            126.9305636,
            37.6114735
          ],
          [
            126.9302963,
            37.6113245
          ],
          [
            126.9300404,
            37.6111982
          ],
          [
            126.92961,
            37.6109837
          ],
          [
            126.929558,
            37.6109568
          ],
          [
            126.929533,
            37.6109438
          ],
          [
            126.9295021,
            37.6109278
          ],
          [
            126.928959,
            37.6106114
          ],
          [
            126.9287662,
            37.6104018
          ],
          [
            126.9283073,
            37.6099029
          ],
          [
            126.9281915,
            37.6098108
          ],
          [
            126.9279529,
            37.6096845
          ],
          [
            126.9273664,
            37.6093972
          ],
          [
            126.9272636,
            37.6093199
          ],
          [
            126.9269512,
            37.6091942
          ],
          [
            126.9267747,
            37.6090895
          ],
          [
            126.9267057,
            37.6090485
          ],
          [
            126.926679,
            37.6090266
          ],
          [
            126.9266011,
            37.6089106
          ],
          [
            126.926352,
            37.6087742
          ],
          [
            126.9261315,
            37.6089666
          ],
          [
            126.9259524,
            37.6090772
          ],
          [
            126.9256937,
            37.6092368
          ],
          [
            126.9254666,
            37.6093823
          ],
          [
            126.925333,
            37.6094678
          ],
          [
            126.9251718,
            37.6095535
          ],
          [
            126.9250354,
            37.6096226
          ],
          [
            126.9250131,
            37.609689
          ],
          [
            126.9249675,
            37.6096508
          ],
          [
            126.9247965,
            37.6094531
          ],
          [
            126.9245392,
            37.6093794
          ],
          [
            126.9245023,
            37.6093689
          ],
          [
            126.9243,
            37.6092752
          ],
          [
            126.9241152,
            37.6091521
          ],
          [
            126.924033,
            37.6090682
          ]
        ]
      }
    }
  ]
}