{
"type": "FeatureCollection",
"name": "top_targeted_mvp_candidates",
"crs": { "type": "name", "properties": { "name": "urn:ogc:def:crs:OGC:1.3:CRS84" } },
"features": [
{ "type": "Feature", "properties": { "od_id": "od_2838", "route_type": "baseline", "station": "연신내", "facility": "빗물받이", "route_length_m": 1145.926, "flood_overlap_length_m": 23.346, "flood_overlap_ratio": 0.020373, "flood_feature_count": 3, "distance_delta_m": 0.0, "flood_overlap_reduction_m": 0.0, "candidate_rank": 1 }, "geometry": { "type": "LineString", "coordinates": [ [ 126.9210454, 37.6189398 ], [ 126.9210171, 37.6189183 ], [ 126.9209838, 37.6189037 ], [ 126.9209395, 37.6189027 ], [ 126.9209148, 37.6189008 ], [ 126.9208902, 37.6188959 ], [ 126.9208624, 37.6188841 ], [ 126.9208776, 37.6188633 ], [ 126.9209534, 37.6187326 ], [ 126.9212092, 37.6187935 ], [ 126.9213057, 37.618836 ], [ 126.9213639, 37.6188531 ], [ 126.9214368, 37.6188745 ], [ 126.9214772, 37.6188864 ], [ 126.9223074, 37.6191858 ], [ 126.9225616, 37.6194109 ], [ 126.9226302, 37.6194716 ], [ 126.9227188, 37.6195661 ], [ 126.92291, 37.61977 ], [ 126.9229519, 37.6197979 ], [ 126.92306, 37.61987 ], [ 126.92324, 37.61996 ], [ 126.9236313, 37.6201082 ], [ 126.9242803, 37.6203539 ], [ 126.9246693, 37.6205682 ], [ 126.9247811, 37.6206298 ], [ 126.924906, 37.6206986 ], [ 126.9252203, 37.6208717 ], [ 126.9254593, 37.6210034 ], [ 126.9256488, 37.6211078 ], [ 126.9260098, 37.6212419 ], [ 126.92622, 37.62132 ], [ 126.926285, 37.6213875 ], [ 126.9262531, 37.6215973 ], [ 126.9262063, 37.6217302 ], [ 126.9261413, 37.6219277 ], [ 126.9261685, 37.6220295 ], [ 126.9261928, 37.6220942 ], [ 126.9262183, 37.6221623 ], [ 126.9263045, 37.6222772 ], [ 126.9263393, 37.622361 ], [ 126.9263634, 37.6224915 ], [ 126.9263287, 37.6226232 ], [ 126.9262712, 37.6227848 ], [ 126.9262576, 37.6228853 ], [ 126.9262604, 37.6229388 ], [ 126.9262659, 37.6229837 ], [ 126.9263853, 37.6231262 ], [ 126.9264237, 37.6231979 ], [ 126.9265021, 37.6233445 ], [ 126.9265198, 37.6233775 ], [ 126.9266513, 37.6236217 ], [ 126.9267025, 37.6237921 ], [ 126.9267905, 37.6239164 ], [ 126.9268115, 37.6239461 ], [ 126.9269625, 37.6241154 ], [ 126.9271185, 37.6242903 ], [ 126.9272301, 37.6244153 ], [ 126.927307, 37.6244749 ], [ 126.9273752, 37.6245278 ], [ 126.927563, 37.6247343 ], [ 126.9275374, 37.6248037 ], [ 126.9276977, 37.6250948 ], [ 126.9279055, 37.6256308 ], [ 126.9279568, 37.6257629 ], [ 126.9279648, 37.6257838 ], [ 126.9280315, 37.6258679 ] ] } },
{ "type": "Feature", "properties": { "od_id": "od_2838", "route_type": "k_shortest_alternative_1", "station": "연신내", "facility": "빗물받이", "route_length_m": 1153.657, "flood_overlap_length_m": 0.0, "flood_overlap_ratio": 0.0, "flood_feature_count": 0, "distance_delta_m": 7.731, "flood_overlap_reduction_m": 23.346, "candidate_rank": 1 }, "geometry": { "type": "LineString", "coordinates": [ [ 126.9210454, 37.6189398 ], [ 126.9210171, 37.6189183 ], [ 126.9209838, 37.6189037 ], [ 126.9209395, 37.6189027 ], [ 126.9209148, 37.6189008 ], [ 126.9208902, 37.6188959 ], [ 126.9208624, 37.6188841 ], [ 126.9208776, 37.6188633 ], [ 126.9209534, 37.6187326 ], [ 126.9212092, 37.6187935 ], [ 126.9213057, 37.618836 ], [ 126.9213639, 37.6188531 ], [ 126.9214368, 37.6188745 ], [ 126.9214772, 37.6188864 ], [ 126.9223074, 37.6191858 ], [ 126.9225616, 37.6194109 ], [ 126.9226302, 37.6194716 ], [ 126.9227188, 37.6195661 ], [ 126.92291, 37.61977 ], [ 126.9229519, 37.6197979 ], [ 126.9228432, 37.619959 ], [ 126.9229266, 37.6200784 ], [ 126.9230324, 37.620202 ], [ 126.9230934, 37.6202402 ], [ 126.923135, 37.6202663 ], [ 126.9233194, 37.6203075 ], [ 126.9234163, 37.6203609 ], [ 126.9234694, 37.6204254 ], [ 126.9235154, 37.6205905 ], [ 126.9235432, 37.6207293 ], [ 126.9235378, 37.6208266 ], [ 126.9235219, 37.6208822 ], [ 126.9236721, 37.6210567 ], [ 126.9239632, 37.6211984 ], [ 126.9240689, 37.6212498 ], [ 126.924398, 37.6214211 ], [ 126.9243233, 37.6215275 ], [ 126.9242736, 37.6215948 ], [ 126.9244305, 37.6216452 ], [ 126.9247147, 37.6217877 ], [ 126.9248008, 37.6218427 ], [ 126.924836, 37.6218592 ], [ 126.9249413, 37.6219086 ], [ 126.9250622, 37.6219696 ], [ 126.9251015, 37.6220211 ], [ 126.9250771, 37.6220732 ], [ 126.9250668, 37.6220953 ], [ 126.9250562, 37.6222784 ], [ 126.925094, 37.622391 ], [ 126.9251378, 37.6225095 ], [ 126.9251995, 37.6225976 ], [ 126.9253121, 37.6226498 ], [ 126.9254474, 37.6227221 ], [ 126.9256544, 37.6228203 ], [ 126.9259437, 37.6229297 ], [ 126.9260519, 37.6229412 ], [ 126.9261743, 37.6229507 ], [ 126.9262604, 37.6229388 ], [ 126.9262659, 37.6229837 ], [ 126.9263853, 37.6231262 ], [ 126.9264237, 37.6231979 ], [ 126.9265021, 37.6233445 ], [ 126.9265198, 37.6233775 ], [ 126.9266513, 37.6236217 ], [ 126.9267025, 37.6237921 ], [ 126.9267905, 37.6239164 ], [ 126.9268115, 37.6239461 ], [ 126.9269625, 37.6241154 ], [ 126.9271185, 37.6242903 ], [ 126.9272301, 37.6244153 ], [ 126.927307, 37.6244749 ], [ 126.9273752, 37.6245278 ], [ 126.927563, 37.6247343 ], [ 126.9275374, 37.6248037 ], [ 126.9276977, 37.6250948 ], [ 126.9279055, 37.6256308 ], [ 126.9279568, 37.6257629 ], [ 126.9279648, 37.6257838 ], [ 126.9280315, 37.6258679 ] ] } },
{ "type": "Feature", "properties": { "od_id": "od_194", "route_type": "baseline", "station": "연신내", "facility": "빗물받이", "route_length_m": 1160.202, "flood_overlap_length_m": 23.346, "flood_overlap_ratio": 0.020122, "flood_feature_count": 3, "distance_delta_m": 0.0, "flood_overlap_reduction_m": 0.0, "candidate_rank": 2 }, "geometry": { "type": "LineString", "coordinates": [ [ 126.9204226, 37.6185539 ], [ 126.9206213, 37.6186315 ], [ 126.9209242, 37.618724 ], [ 126.9209534, 37.6187326 ], [ 126.9212092, 37.6187935 ], [ 126.9213057, 37.618836 ], [ 126.9213639, 37.6188531 ], [ 126.9214368, 37.6188745 ], [ 126.9214772, 37.6188864 ], [ 126.9223074, 37.6191858 ], [ 126.9225616, 37.6194109 ], [ 126.9226302, 37.6194716 ], [ 126.9227188, 37.6195661 ], [ 126.92291, 37.61977 ], [ 126.9229519, 37.6197979 ], [ 126.92306, 37.61987 ], [ 126.92324, 37.61996 ], [ 126.9236313, 37.6201082 ], [ 126.9242803, 37.6203539 ], [ 126.9246693, 37.6205682 ], [ 126.9247811, 37.6206298 ], [ 126.924906, 37.6206986 ], [ 126.9252203, 37.6208717 ], [ 126.9254593, 37.6210034 ], [ 126.9256488, 37.6211078 ], [ 126.9260098, 37.6212419 ], [ 126.92622, 37.62132 ], [ 126.926285, 37.6213875 ], [ 126.9262531, 37.6215973 ], [ 126.9262063, 37.6217302 ], [ 126.9261413, 37.6219277 ], [ 126.9261685, 37.6220295 ], [ 126.9261928, 37.6220942 ], [ 126.9262183, 37.6221623 ], [ 126.9263045, 37.6222772 ], [ 126.9263393, 37.622361 ], [ 126.9263634, 37.6224915 ], [ 126.9263287, 37.6226232 ], [ 126.9262712, 37.6227848 ], [ 126.9262576, 37.6228853 ], [ 126.9262604, 37.6229388 ], [ 126.9262659, 37.6229837 ], [ 126.9263853, 37.6231262 ], [ 126.9264237, 37.6231979 ], [ 126.9265021, 37.6233445 ], [ 126.9265198, 37.6233775 ], [ 126.9266513, 37.6236217 ], [ 126.9267025, 37.6237921 ], [ 126.9267905, 37.6239164 ], [ 126.9268115, 37.6239461 ], [ 126.9269625, 37.6241154 ], [ 126.9271185, 37.6242903 ], [ 126.9272301, 37.6244153 ], [ 126.927307, 37.6244749 ], [ 126.9273752, 37.6245278 ], [ 126.927563, 37.6247343 ], [ 126.9275374, 37.6248037 ], [ 126.9276977, 37.6250948 ], [ 126.9279055, 37.6256308 ], [ 126.9279568, 37.6257629 ], [ 126.9279648, 37.6257838 ], [ 126.9280315, 37.6258679 ] ] } },
{ "type": "Feature", "properties": { "od_id": "od_194", "route_type": "k_shortest_alternative_1", "station": "연신내", "facility": "빗물받이", "route_length_m": 1167.933, "flood_overlap_length_m": 0.0, "flood_overlap_ratio": 0.0, "flood_feature_count": 0, "distance_delta_m": 7.731, "flood_overlap_reduction_m": 23.346, "candidate_rank": 2 }, "geometry": { "type": "LineString", "coordinates": [ [ 126.9204226, 37.6185539 ], [ 126.9206213, 37.6186315 ], [ 126.9209242, 37.618724 ], [ 126.9209534, 37.6187326 ], [ 126.9212092, 37.6187935 ], [ 126.9213057, 37.618836 ], [ 126.9213639, 37.6188531 ], [ 126.9214368, 37.6188745 ], [ 126.9214772, 37.6188864 ], [ 126.9223074, 37.6191858 ], [ 126.9225616, 37.6194109 ], [ 126.9226302, 37.6194716 ], [ 126.9227188, 37.6195661 ], [ 126.92291, 37.61977 ], [ 126.9229519, 37.6197979 ], [ 126.9228432, 37.619959 ], [ 126.9229266, 37.6200784 ], [ 126.9230324, 37.620202 ], [ 126.9230934, 37.6202402 ], [ 126.923135, 37.6202663 ], [ 126.9233194, 37.6203075 ], [ 126.9234163, 37.6203609 ], [ 126.9234694, 37.6204254 ], [ 126.9235154, 37.6205905 ], [ 126.9235432, 37.6207293 ], [ 126.9235378, 37.6208266 ], [ 126.9235219, 37.6208822 ], [ 126.9236721, 37.6210567 ], [ 126.9239632, 37.6211984 ], [ 126.9240689, 37.6212498 ], [ 126.924398, 37.6214211 ], [ 126.9243233, 37.6215275 ], [ 126.9242736, 37.6215948 ], [ 126.9244305, 37.6216452 ], [ 126.9247147, 37.6217877 ], [ 126.9248008, 37.6218427 ], [ 126.924836, 37.6218592 ], [ 126.9249413, 37.6219086 ], [ 126.9250622, 37.6219696 ], [ 126.9251015, 37.6220211 ], [ 126.9250771, 37.6220732 ], [ 126.9250668, 37.6220953 ], [ 126.9250562, 37.6222784 ], [ 126.925094, 37.622391 ], [ 126.9251378, 37.6225095 ], [ 126.9251995, 37.6225976 ], [ 126.9253121, 37.6226498 ], [ 126.9254474, 37.6227221 ], [ 126.9256544, 37.6228203 ], [ 126.9259437, 37.6229297 ], [ 126.9260519, 37.6229412 ], [ 126.9261743, 37.6229507 ], [ 126.9262604, 37.6229388 ], [ 126.9262659, 37.6229837 ], [ 126.9263853, 37.6231262 ], [ 126.9264237, 37.6231979 ], [ 126.9265021, 37.6233445 ], [ 126.9265198, 37.6233775 ], [ 126.9266513, 37.6236217 ], [ 126.9267025, 37.6237921 ], [ 126.9267905, 37.6239164 ], [ 126.9268115, 37.6239461 ], [ 126.9269625, 37.6241154 ], [ 126.9271185, 37.6242903 ], [ 126.9272301, 37.6244153 ], [ 126.927307, 37.6244749 ], [ 126.9273752, 37.6245278 ], [ 126.927563, 37.6247343 ], [ 126.9275374, 37.6248037 ], [ 126.9276977, 37.6250948 ], [ 126.9279055, 37.6256308 ], [ 126.9279568, 37.6257629 ], [ 126.9279648, 37.6257838 ], [ 126.9280315, 37.6258679 ] ] } },
{ "type": "Feature", "properties": { "od_id": "od_2849", "route_type": "baseline", "station": "연신내", "facility": "빗물받이", "route_length_m": 1186.425, "flood_overlap_length_m": 23.346, "flood_overlap_ratio": 0.019677, "flood_feature_count": 3, "distance_delta_m": 0.0, "flood_overlap_reduction_m": 0.0, "candidate_rank": 3 }, "geometry": { "type": "LineString", "coordinates": [ [ 126.9210454, 37.6189398 ], [ 126.9210171, 37.6189183 ], [ 126.9209838, 37.6189037 ], [ 126.9209395, 37.6189027 ], [ 126.9209148, 37.6189008 ], [ 126.9208902, 37.6188959 ], [ 126.9208624, 37.6188841 ], [ 126.9208776, 37.6188633 ], [ 126.9209534, 37.6187326 ], [ 126.9212092, 37.6187935 ], [ 126.9213057, 37.618836 ], [ 126.9213639, 37.6188531 ], [ 126.9214368, 37.6188745 ], [ 126.9214772, 37.6188864 ], [ 126.9223074, 37.6191858 ], [ 126.9225616, 37.6194109 ], [ 126.9226302, 37.6194716 ], [ 126.9227188, 37.6195661 ], [ 126.92291, 37.61977 ], [ 126.9229519, 37.6197979 ], [ 126.92306, 37.61987 ], [ 126.92324, 37.61996 ], [ 126.9236313, 37.6201082 ], [ 126.9242803, 37.6203539 ], [ 126.9246693, 37.6205682 ], [ 126.9247811, 37.6206298 ], [ 126.924906, 37.6206986 ], [ 126.9252203, 37.6208717 ], [ 126.9254593, 37.6210034 ], [ 126.9256488, 37.6211078 ], [ 126.9260098, 37.6212419 ], [ 126.92622, 37.62132 ], [ 126.926285, 37.6213875 ], [ 126.9262531, 37.6215973 ], [ 126.9262063, 37.6217302 ], [ 126.9261413, 37.6219277 ], [ 126.9261685, 37.6220295 ], [ 126.9261928, 37.6220942 ], [ 126.9262183, 37.6221623 ], [ 126.9263045, 37.6222772 ], [ 126.9263393, 37.622361 ], [ 126.9263634, 37.6224915 ], [ 126.9263287, 37.6226232 ], [ 126.9262712, 37.6227848 ], [ 126.9262576, 37.6228853 ], [ 126.9262604, 37.6229388 ], [ 126.9262659, 37.6229837 ], [ 126.9263853, 37.6231262 ], [ 126.9264237, 37.6231979 ], [ 126.9265021, 37.6233445 ], [ 126.9265198, 37.6233775 ], [ 126.9266513, 37.6236217 ], [ 126.9267025, 37.6237921 ], [ 126.9267905, 37.6239164 ], [ 126.9268115, 37.6239461 ], [ 126.9269625, 37.6241154 ], [ 126.9271185, 37.6242903 ], [ 126.9272301, 37.6244153 ], [ 126.927307, 37.6244749 ], [ 126.9273752, 37.6245278 ], [ 126.927563, 37.6247343 ], [ 126.9275374, 37.6248037 ], [ 126.9276977, 37.6250948 ], [ 126.9279055, 37.6256308 ], [ 126.9279568, 37.6257629 ], [ 126.9279648, 37.6257838 ], [ 126.9280315, 37.6258679 ], [ 126.9279625, 37.625915 ], [ 126.9276319, 37.6260444 ] ] } },
{ "type": "Feature", "properties": { "od_id": "od_2849", "route_type": "k_shortest_alternative_2", "station": "연신내", "facility": "빗물받이", "route_length_m": 1194.156, "flood_overlap_length_m": 0.0, "flood_overlap_ratio": 0.0, "flood_feature_count": 0, "distance_delta_m": 7.731, "flood_overlap_reduction_m": 23.346, "candidate_rank": 3 }, "geometry": { "type": "LineString", "coordinates": [ [ 126.9210454, 37.6189398 ], [ 126.9210171, 37.6189183 ], [ 126.9209838, 37.6189037 ], [ 126.9209395, 37.6189027 ], [ 126.9209148, 37.6189008 ], [ 126.9208902, 37.6188959 ], [ 126.9208624, 37.6188841 ], [ 126.9208776, 37.6188633 ], [ 126.9209534, 37.6187326 ], [ 126.9212092, 37.6187935 ], [ 126.9213057, 37.618836 ], [ 126.9213639, 37.6188531 ], [ 126.9214368, 37.6188745 ], [ 126.9214772, 37.6188864 ], [ 126.9223074, 37.6191858 ], [ 126.9225616, 37.6194109 ], [ 126.9226302, 37.6194716 ], [ 126.9227188, 37.6195661 ], [ 126.92291, 37.61977 ], [ 126.9229519, 37.6197979 ], [ 126.9228432, 37.619959 ], [ 126.9229266, 37.6200784 ], [ 126.9230324, 37.620202 ], [ 126.9230934, 37.6202402 ], [ 126.923135, 37.6202663 ], [ 126.9233194, 37.6203075 ], [ 126.9234163, 37.6203609 ], [ 126.9234694, 37.6204254 ], [ 126.9235154, 37.6205905 ], [ 126.9235432, 37.6207293 ], [ 126.9235378, 37.6208266 ], [ 126.9235219, 37.6208822 ], [ 126.9236721, 37.6210567 ], [ 126.9239632, 37.6211984 ], [ 126.9240689, 37.6212498 ], [ 126.924398, 37.6214211 ], [ 126.9243233, 37.6215275 ], [ 126.9242736, 37.6215948 ], [ 126.9244305, 37.6216452 ], [ 126.9247147, 37.6217877 ], [ 126.9248008, 37.6218427 ], [ 126.924836, 37.6218592 ], [ 126.9249413, 37.6219086 ], [ 126.9250622, 37.6219696 ], [ 126.9251015, 37.6220211 ], [ 126.9250771, 37.6220732 ], [ 126.9250668, 37.6220953 ], [ 126.9250562, 37.6222784 ], [ 126.925094, 37.622391 ], [ 126.9251378, 37.6225095 ], [ 126.9251995, 37.6225976 ], [ 126.9253121, 37.6226498 ], [ 126.9254474, 37.6227221 ], [ 126.9256544, 37.6228203 ], [ 126.9259437, 37.6229297 ], [ 126.9260519, 37.6229412 ], [ 126.9261743, 37.6229507 ], [ 126.9262604, 37.6229388 ], [ 126.9262659, 37.6229837 ], [ 126.9263853, 37.6231262 ], [ 126.9264237, 37.6231979 ], [ 126.9265021, 37.6233445 ], [ 126.9265198, 37.6233775 ], [ 126.9266513, 37.6236217 ], [ 126.9267025, 37.6237921 ], [ 126.9267905, 37.6239164 ], [ 126.9268115, 37.6239461 ], [ 126.9269625, 37.6241154 ], [ 126.9271185, 37.6242903 ], [ 126.9272301, 37.6244153 ], [ 126.927307, 37.6244749 ], [ 126.9273752, 37.6245278 ], [ 126.927563, 37.6247343 ], [ 126.9275374, 37.6248037 ], [ 126.9276977, 37.6250948 ], [ 126.9279055, 37.6256308 ], [ 126.9279568, 37.6257629 ], [ 126.9279648, 37.6257838 ], [ 126.9280315, 37.6258679 ], [ 126.9279625, 37.625915 ], [ 126.9276319, 37.6260444 ] ] } },
{ "type": "Feature", "properties": { "od_id": "od_205", "route_type": "baseline", "station": "연신내", "facility": "빗물받이", "route_length_m": 1200.701, "flood_overlap_length_m": 23.346, "flood_overlap_ratio": 0.019443, "flood_feature_count": 3, "distance_delta_m": 0.0, "flood_overlap_reduction_m": 0.0, "candidate_rank": 4 }, "geometry": { "type": "LineString", "coordinates": [ [ 126.9204226, 37.6185539 ], [ 126.9206213, 37.6186315 ], [ 126.9209242, 37.618724 ], [ 126.9209534, 37.6187326 ], [ 126.9212092, 37.6187935 ], [ 126.9213057, 37.618836 ], [ 126.9213639, 37.6188531 ], [ 126.9214368, 37.6188745 ], [ 126.9214772, 37.6188864 ], [ 126.9223074, 37.6191858 ], [ 126.9225616, 37.6194109 ], [ 126.9226302, 37.6194716 ], [ 126.9227188, 37.6195661 ], [ 126.92291, 37.61977 ], [ 126.9229519, 37.6197979 ], [ 126.92306, 37.61987 ], [ 126.92324, 37.61996 ], [ 126.9236313, 37.6201082 ], [ 126.9242803, 37.6203539 ], [ 126.9246693, 37.6205682 ], [ 126.9247811, 37.6206298 ], [ 126.924906, 37.6206986 ], [ 126.9252203, 37.6208717 ], [ 126.9254593, 37.6210034 ], [ 126.9256488, 37.6211078 ], [ 126.9260098, 37.6212419 ], [ 126.92622, 37.62132 ], [ 126.926285, 37.6213875 ], [ 126.9262531, 37.6215973 ], [ 126.9262063, 37.6217302 ], [ 126.9261413, 37.6219277 ], [ 126.9261685, 37.6220295 ], [ 126.9261928, 37.6220942 ], [ 126.9262183, 37.6221623 ], [ 126.9263045, 37.6222772 ], [ 126.9263393, 37.622361 ], [ 126.9263634, 37.6224915 ], [ 126.9263287, 37.6226232 ], [ 126.9262712, 37.6227848 ], [ 126.9262576, 37.6228853 ], [ 126.9262604, 37.6229388 ], [ 126.9262659, 37.6229837 ], [ 126.9263853, 37.6231262 ], [ 126.9264237, 37.6231979 ], [ 126.9265021, 37.6233445 ], [ 126.9265198, 37.6233775 ], [ 126.9266513, 37.6236217 ], [ 126.9267025, 37.6237921 ], [ 126.9267905, 37.6239164 ], [ 126.9268115, 37.6239461 ], [ 126.9269625, 37.6241154 ], [ 126.9271185, 37.6242903 ], [ 126.9272301, 37.6244153 ], [ 126.927307, 37.6244749 ], [ 126.9273752, 37.6245278 ], [ 126.927563, 37.6247343 ], [ 126.9275374, 37.6248037 ], [ 126.9276977, 37.6250948 ], [ 126.9279055, 37.6256308 ], [ 126.9279568, 37.6257629 ], [ 126.9279648, 37.6257838 ], [ 126.9280315, 37.6258679 ], [ 126.9279625, 37.625915 ], [ 126.9276319, 37.6260444 ] ] } },
{ "type": "Feature", "properties": { "od_id": "od_205", "route_type": "k_shortest_alternative_2", "station": "연신내", "facility": "빗물받이", "route_length_m": 1208.432, "flood_overlap_length_m": 0.0, "flood_overlap_ratio": 0.0, "flood_feature_count": 0, "distance_delta_m": 7.731, "flood_overlap_reduction_m": 23.346, "candidate_rank": 4 }, "geometry": { "type": "LineString", "coordinates": [ [ 126.9204226, 37.6185539 ], [ 126.9206213, 37.6186315 ], [ 126.9209242, 37.618724 ], [ 126.9209534, 37.6187326 ], [ 126.9212092, 37.6187935 ], [ 126.9213057, 37.618836 ], [ 126.9213639, 37.6188531 ], [ 126.9214368, 37.6188745 ], [ 126.9214772, 37.6188864 ], [ 126.9223074, 37.6191858 ], [ 126.9225616, 37.6194109 ], [ 126.9226302, 37.6194716 ], [ 126.9227188, 37.6195661 ], [ 126.92291, 37.61977 ], [ 126.9229519, 37.6197979 ], [ 126.9228432, 37.619959 ], [ 126.9229266, 37.6200784 ], [ 126.9230324, 37.620202 ], [ 126.9230934, 37.6202402 ], [ 126.923135, 37.6202663 ], [ 126.9233194, 37.6203075 ], [ 126.9234163, 37.6203609 ], [ 126.9234694, 37.6204254 ], [ 126.9235154, 37.6205905 ], [ 126.9235432, 37.6207293 ], [ 126.9235378, 37.6208266 ], [ 126.9235219, 37.6208822 ], [ 126.9236721, 37.6210567 ], [ 126.9239632, 37.6211984 ], [ 126.9240689, 37.6212498 ], [ 126.924398, 37.6214211 ], [ 126.9243233, 37.6215275 ], [ 126.9242736, 37.6215948 ], [ 126.9244305, 37.6216452 ], [ 126.9247147, 37.6217877 ], [ 126.9248008, 37.6218427 ], [ 126.924836, 37.6218592 ], [ 126.9249413, 37.6219086 ], [ 126.9250622, 37.6219696 ], [ 126.9251015, 37.6220211 ], [ 126.9250771, 37.6220732 ], [ 126.9250668, 37.6220953 ], [ 126.9250562, 37.6222784 ], [ 126.925094, 37.622391 ], [ 126.9251378, 37.6225095 ], [ 126.9251995, 37.6225976 ], [ 126.9253121, 37.6226498 ], [ 126.9254474, 37.6227221 ], [ 126.9256544, 37.6228203 ], [ 126.9259437, 37.6229297 ], [ 126.9260519, 37.6229412 ], [ 126.9261743, 37.6229507 ], [ 126.9262604, 37.6229388 ], [ 126.9262659, 37.6229837 ], [ 126.9263853, 37.6231262 ], [ 126.9264237, 37.6231979 ], [ 126.9265021, 37.6233445 ], [ 126.9265198, 37.6233775 ], [ 126.9266513, 37.6236217 ], [ 126.9267025, 37.6237921 ], [ 126.9267905, 37.6239164 ], [ 126.9268115, 37.6239461 ], [ 126.9269625, 37.6241154 ], [ 126.9271185, 37.6242903 ], [ 126.9272301, 37.6244153 ], [ 126.927307, 37.6244749 ], [ 126.9273752, 37.6245278 ], [ 126.927563, 37.6247343 ], [ 126.9275374, 37.6248037 ], [ 126.9276977, 37.6250948 ], [ 126.9279055, 37.6256308 ], [ 126.9279568, 37.6257629 ], [ 126.9279648, 37.6257838 ], [ 126.9280315, 37.6258679 ], [ 126.9279625, 37.625915 ], [ 126.9276319, 37.6260444 ] ] } },
{ "type": "Feature", "properties": { "od_id": "od_2882", "route_type": "baseline", "station": "연신내", "facility": "장애인화장실", "route_length_m": 1250.437, "flood_overlap_length_m": 23.346, "flood_overlap_ratio": 0.01867, "flood_feature_count": 3, "distance_delta_m": 0.0, "flood_overlap_reduction_m": 0.0, "candidate_rank": 5 }, "geometry": { "type": "LineString", "coordinates": [ [ 126.9210454, 37.6189398 ], [ 126.9210171, 37.6189183 ], [ 126.9209838, 37.6189037 ], [ 126.9209395, 37.6189027 ], [ 126.9209148, 37.6189008 ], [ 126.9208902, 37.6188959 ], [ 126.9208624, 37.6188841 ], [ 126.9208776, 37.6188633 ], [ 126.9209534, 37.6187326 ], [ 126.9212092, 37.6187935 ], [ 126.9213057, 37.618836 ], [ 126.9213639, 37.6188531 ], [ 126.9214368, 37.6188745 ], [ 126.9214772, 37.6188864 ], [ 126.9223074, 37.6191858 ], [ 126.9225616, 37.6194109 ], [ 126.9226302, 37.6194716 ], [ 126.9227188, 37.6195661 ], [ 126.92291, 37.61977 ], [ 126.9229519, 37.6197979 ], [ 126.92306, 37.61987 ], [ 126.92324, 37.61996 ], [ 126.9236313, 37.6201082 ], [ 126.9242803, 37.6203539 ], [ 126.9246693, 37.6205682 ], [ 126.9247811, 37.6206298 ], [ 126.924906, 37.6206986 ], [ 126.9252203, 37.6208717 ], [ 126.9254593, 37.6210034 ], [ 126.9256488, 37.6211078 ], [ 126.9260098, 37.6212419 ], [ 126.92622, 37.62132 ], [ 126.926285, 37.6213875 ], [ 126.9262531, 37.6215973 ], [ 126.9262063, 37.6217302 ], [ 126.9261413, 37.6219277 ], [ 126.9261685, 37.6220295 ], [ 126.9261928, 37.6220942 ], [ 126.9262183, 37.6221623 ], [ 126.9263045, 37.6222772 ], [ 126.9263393, 37.622361 ], [ 126.9263634, 37.6224915 ], [ 126.9263287, 37.6226232 ], [ 126.9262712, 37.6227848 ], [ 126.9262576, 37.6228853 ], [ 126.9262604, 37.6229388 ], [ 126.9262659, 37.6229837 ], [ 126.9263853, 37.6231262 ], [ 126.9264237, 37.6231979 ], [ 126.9265021, 37.6233445 ], [ 126.9265198, 37.6233775 ], [ 126.9266513, 37.6236217 ], [ 126.9267025, 37.6237921 ], [ 126.9267905, 37.6239164 ], [ 126.9268115, 37.6239461 ], [ 126.9269625, 37.6241154 ], [ 126.9271185, 37.6242903 ], [ 126.9272301, 37.6244153 ], [ 126.927307, 37.6244749 ], [ 126.9273752, 37.6245278 ], [ 126.927563, 37.6247343 ], [ 126.9275374, 37.6248037 ], [ 126.9276977, 37.6250948 ], [ 126.9279055, 37.6256308 ], [ 126.9279568, 37.6257629 ], [ 126.9279648, 37.6257838 ], [ 126.9280315, 37.6258679 ], [ 126.9279625, 37.625915 ], [ 126.9276319, 37.6260444 ], [ 126.9279312, 37.626569 ] ] } },
{ "type": "Feature", "properties": { "od_id": "od_2882", "route_type": "k_shortest_alternative_2", "station": "연신내", "facility": "장애인화장실", "route_length_m": 1258.168, "flood_overlap_length_m": 0.0, "flood_overlap_ratio": 0.0, "flood_feature_count": 0, "distance_delta_m": 7.731, "flood_overlap_reduction_m": 23.346, "candidate_rank": 5 }, "geometry": { "type": "LineString", "coordinates": [ [ 126.9210454, 37.6189398 ], [ 126.9210171, 37.6189183 ], [ 126.9209838, 37.6189037 ], [ 126.9209395, 37.6189027 ], [ 126.9209148, 37.6189008 ], [ 126.9208902, 37.6188959 ], [ 126.9208624, 37.6188841 ], [ 126.9208776, 37.6188633 ], [ 126.9209534, 37.6187326 ], [ 126.9212092, 37.6187935 ], [ 126.9213057, 37.618836 ], [ 126.9213639, 37.6188531 ], [ 126.9214368, 37.6188745 ], [ 126.9214772, 37.6188864 ], [ 126.9223074, 37.6191858 ], [ 126.9225616, 37.6194109 ], [ 126.9226302, 37.6194716 ], [ 126.9227188, 37.6195661 ], [ 126.92291, 37.61977 ], [ 126.9229519, 37.6197979 ], [ 126.9228432, 37.619959 ], [ 126.9229266, 37.6200784 ], [ 126.9230324, 37.620202 ], [ 126.9230934, 37.6202402 ], [ 126.923135, 37.6202663 ], [ 126.9233194, 37.6203075 ], [ 126.9234163, 37.6203609 ], [ 126.9234694, 37.6204254 ], [ 126.9235154, 37.6205905 ], [ 126.9235432, 37.6207293 ], [ 126.9235378, 37.6208266 ], [ 126.9235219, 37.6208822 ], [ 126.9236721, 37.6210567 ], [ 126.9239632, 37.6211984 ], [ 126.9240689, 37.6212498 ], [ 126.924398, 37.6214211 ], [ 126.9243233, 37.6215275 ], [ 126.9242736, 37.6215948 ], [ 126.9244305, 37.6216452 ], [ 126.9247147, 37.6217877 ], [ 126.9248008, 37.6218427 ], [ 126.924836, 37.6218592 ], [ 126.9249413, 37.6219086 ], [ 126.9250622, 37.6219696 ], [ 126.9251015, 37.6220211 ], [ 126.9250771, 37.6220732 ], [ 126.9250668, 37.6220953 ], [ 126.9250562, 37.6222784 ], [ 126.925094, 37.622391 ], [ 126.9251378, 37.6225095 ], [ 126.9251995, 37.6225976 ], [ 126.9253121, 37.6226498 ], [ 126.9254474, 37.6227221 ], [ 126.9256544, 37.6228203 ], [ 126.9259437, 37.6229297 ], [ 126.9260519, 37.6229412 ], [ 126.9261743, 37.6229507 ], [ 126.9262604, 37.6229388 ], [ 126.9262659, 37.6229837 ], [ 126.9263853, 37.6231262 ], [ 126.9264237, 37.6231979 ], [ 126.9265021, 37.6233445 ], [ 126.9265198, 37.6233775 ], [ 126.9266513, 37.6236217 ], [ 126.9267025, 37.6237921 ], [ 126.9267905, 37.6239164 ], [ 126.9268115, 37.6239461 ], [ 126.9269625, 37.6241154 ], [ 126.9271185, 37.6242903 ], [ 126.9272301, 37.6244153 ], [ 126.927307, 37.6244749 ], [ 126.9273752, 37.6245278 ], [ 126.927563, 37.6247343 ], [ 126.9275374, 37.6248037 ], [ 126.9276977, 37.6250948 ], [ 126.9279055, 37.6256308 ], [ 126.9279568, 37.6257629 ], [ 126.9279648, 37.6257838 ], [ 126.9280315, 37.6258679 ], [ 126.9279625, 37.625915 ], [ 126.9276319, 37.6260444 ], [ 126.9279312, 37.626569 ] ] } },
{ "type": "Feature", "properties": { "od_id": "od_240", "route_type": "baseline", "station": "연신내", "facility": "장애인화장실", "route_length_m": 1264.712, "flood_overlap_length_m": 23.346, "flood_overlap_ratio": 0.018459, "flood_feature_count": 3, "distance_delta_m": 0.0, "flood_overlap_reduction_m": 0.0, "candidate_rank": 6 }, "geometry": { "type": "LineString", "coordinates": [ [ 126.9204226, 37.6185539 ], [ 126.9206213, 37.6186315 ], [ 126.9209242, 37.618724 ], [ 126.9209534, 37.6187326 ], [ 126.9212092, 37.6187935 ], [ 126.9213057, 37.618836 ], [ 126.9213639, 37.6188531 ], [ 126.9214368, 37.6188745 ], [ 126.9214772, 37.6188864 ], [ 126.9223074, 37.6191858 ], [ 126.9225616, 37.6194109 ], [ 126.9226302, 37.6194716 ], [ 126.9227188, 37.6195661 ], [ 126.92291, 37.61977 ], [ 126.9229519, 37.6197979 ], [ 126.92306, 37.61987 ], [ 126.92324, 37.61996 ], [ 126.9236313, 37.6201082 ], [ 126.9242803, 37.6203539 ], [ 126.9246693, 37.6205682 ], [ 126.9247811, 37.6206298 ], [ 126.924906, 37.6206986 ], [ 126.9252203, 37.6208717 ], [ 126.9254593, 37.6210034 ], [ 126.9256488, 37.6211078 ], [ 126.9260098, 37.6212419 ], [ 126.92622, 37.62132 ], [ 126.926285, 37.6213875 ], [ 126.9262531, 37.6215973 ], [ 126.9262063, 37.6217302 ], [ 126.9261413, 37.6219277 ], [ 126.9261685, 37.6220295 ], [ 126.9261928, 37.6220942 ], [ 126.9262183, 37.6221623 ], [ 126.9263045, 37.6222772 ], [ 126.9263393, 37.622361 ], [ 126.9263634, 37.6224915 ], [ 126.9263287, 37.6226232 ], [ 126.9262712, 37.6227848 ], [ 126.9262576, 37.6228853 ], [ 126.9262604, 37.6229388 ], [ 126.9262659, 37.6229837 ], [ 126.9263853, 37.6231262 ], [ 126.9264237, 37.6231979 ], [ 126.9265021, 37.6233445 ], [ 126.9265198, 37.6233775 ], [ 126.9266513, 37.6236217 ], [ 126.9267025, 37.6237921 ], [ 126.9267905, 37.6239164 ], [ 126.9268115, 37.6239461 ], [ 126.9269625, 37.6241154 ], [ 126.9271185, 37.6242903 ], [ 126.9272301, 37.6244153 ], [ 126.927307, 37.6244749 ], [ 126.9273752, 37.6245278 ], [ 126.927563, 37.6247343 ], [ 126.9275374, 37.6248037 ], [ 126.9276977, 37.6250948 ], [ 126.9279055, 37.6256308 ], [ 126.9279568, 37.6257629 ], [ 126.9279648, 37.6257838 ], [ 126.9280315, 37.6258679 ], [ 126.9279625, 37.625915 ], [ 126.9276319, 37.6260444 ], [ 126.9279312, 37.626569 ] ] } },
{ "type": "Feature", "properties": { "od_id": "od_240", "route_type": "k_shortest_alternative_2", "station": "연신내", "facility": "장애인화장실", "route_length_m": 1272.444, "flood_overlap_length_m": 0.0, "flood_overlap_ratio": 0.0, "flood_feature_count": 0, "distance_delta_m": 7.732, "flood_overlap_reduction_m": 23.346, "candidate_rank": 6 }, "geometry": { "type": "LineString", "coordinates": [ [ 126.9204226, 37.6185539 ], [ 126.9206213, 37.6186315 ], [ 126.9209242, 37.618724 ], [ 126.9209534, 37.6187326 ], [ 126.9212092, 37.6187935 ], [ 126.9213057, 37.618836 ], [ 126.9213639, 37.6188531 ], [ 126.9214368, 37.6188745 ], [ 126.9214772, 37.6188864 ], [ 126.9223074, 37.6191858 ], [ 126.9225616, 37.6194109 ], [ 126.9226302, 37.6194716 ], [ 126.9227188, 37.6195661 ], [ 126.92291, 37.61977 ], [ 126.9229519, 37.6197979 ], [ 126.9228432, 37.619959 ], [ 126.9229266, 37.6200784 ], [ 126.9230324, 37.620202 ], [ 126.9230934, 37.6202402 ], [ 126.923135, 37.6202663 ], [ 126.9233194, 37.6203075 ], [ 126.9234163, 37.6203609 ], [ 126.9234694, 37.6204254 ], [ 126.9235154, 37.6205905 ], [ 126.9235432, 37.6207293 ], [ 126.9235378, 37.6208266 ], [ 126.9235219, 37.6208822 ], [ 126.9236721, 37.6210567 ], [ 126.9239632, 37.6211984 ], [ 126.9240689, 37.6212498 ], [ 126.924398, 37.6214211 ], [ 126.9243233, 37.6215275 ], [ 126.9242736, 37.6215948 ], [ 126.9244305, 37.6216452 ], [ 126.9247147, 37.6217877 ], [ 126.9248008, 37.6218427 ], [ 126.924836, 37.6218592 ], [ 126.9249413, 37.6219086 ], [ 126.9250622, 37.6219696 ], [ 126.9251015, 37.6220211 ], [ 126.9250771, 37.6220732 ], [ 126.9250668, 37.6220953 ], [ 126.9250562, 37.6222784 ], [ 126.925094, 37.622391 ], [ 126.9251378, 37.6225095 ], [ 126.9251995, 37.6225976 ], [ 126.9253121, 37.6226498 ], [ 126.9254474, 37.6227221 ], [ 126.9256544, 37.6228203 ], [ 126.9259437, 37.6229297 ], [ 126.9260519, 37.6229412 ], [ 126.9261743, 37.6229507 ], [ 126.9262604, 37.6229388 ], [ 126.9262659, 37.6229837 ], [ 126.9263853, 37.6231262 ], [ 126.9264237, 37.6231979 ], [ 126.9265021, 37.6233445 ], [ 126.9265198, 37.6233775 ], [ 126.9266513, 37.6236217 ], [ 126.9267025, 37.6237921 ], [ 126.9267905, 37.6239164 ], [ 126.9268115, 37.6239461 ], [ 126.9269625, 37.6241154 ], [ 126.9271185, 37.6242903 ], [ 126.9272301, 37.6244153 ], [ 126.927307, 37.6244749 ], [ 126.9273752, 37.6245278 ], [ 126.927563, 37.6247343 ], [ 126.9275374, 37.6248037 ], [ 126.9276977, 37.6250948 ], [ 126.9279055, 37.6256308 ], [ 126.9279568, 37.6257629 ], [ 126.9279648, 37.6257838 ], [ 126.9280315, 37.6258679 ], [ 126.9279625, 37.625915 ], [ 126.9276319, 37.6260444 ], [ 126.9279312, 37.626569 ] ] } },
{ "type": "Feature", "properties": { "od_id": "od_2243", "route_type": "baseline", "station": "불광", "facility": "불광작은예수의집", "route_length_m": 1727.634, "flood_overlap_length_m": 23.346, "flood_overlap_ratio": 0.013513, "flood_feature_count": 3, "distance_delta_m": 0.0, "flood_overlap_reduction_m": 0.0, "candidate_rank": 7 }, "geometry": { "type": "LineString", "coordinates": [ [ 126.9295021, 37.6109278 ], [ 126.929533, 37.6109438 ], [ 126.929558, 37.6109568 ], [ 126.92961, 37.6109837 ], [ 126.9293906, 37.6112304 ], [ 126.9291965, 37.6115185 ], [ 126.9290646, 37.6116772 ], [ 126.9287629, 37.6120358 ], [ 126.9286239, 37.6121841 ], [ 126.9283537, 37.6124989 ], [ 126.9280549, 37.6128296 ], [ 126.9275282, 37.6134126 ], [ 126.9273561, 37.6136183 ], [ 126.9271822, 37.6138262 ], [ 126.9266707, 37.6144376 ], [ 126.926582, 37.6145187 ], [ 126.9262114, 37.6148801 ], [ 126.9259271, 37.6150999 ], [ 126.9258071, 37.615188 ], [ 126.9257199, 37.6152557 ], [ 126.9247486, 37.6158931 ], [ 126.9248024, 37.6159534 ], [ 126.9248384, 37.6161828 ], [ 126.9248695, 37.6162672 ], [ 126.9249501, 37.6164855 ], [ 126.9249871, 37.6165326 ], [ 126.9250721, 37.6167508 ], [ 126.925143, 37.6169325 ], [ 126.9252465, 37.6172286 ], [ 126.9252563, 37.6172568 ], [ 126.925272, 37.6173598 ], [ 126.925294, 37.6174112 ], [ 126.9253157, 37.617462 ], [ 126.925318, 37.6176646 ], [ 126.9253754, 37.61777 ], [ 126.9254346, 37.6178787 ], [ 126.9251778, 37.6181799 ], [ 126.9251419, 37.6182856 ], [ 126.925124, 37.6183382 ], [ 126.9250241, 37.618633 ], [ 126.9249344, 37.6187485 ], [ 126.9248368, 37.6188027 ], [ 126.9246857, 37.6188604 ], [ 126.9246224, 37.6188864 ], [ 126.924615, 37.6188834 ], [ 126.9243484, 37.6190115 ], [ 126.9243617, 37.6190893 ], [ 126.9244091, 37.6192733 ], [ 126.9244716, 37.6195163 ], [ 126.9245568, 37.6197539 ], [ 126.9246007, 37.6197781 ], [ 126.9247915, 37.6202736 ], [ 126.9248675, 37.6204709 ], [ 126.9248254, 37.6205291 ], [ 126.9247811, 37.6206298 ], [ 126.924906, 37.6206986 ], [ 126.9252203, 37.6208717 ], [ 126.9254593, 37.6210034 ], [ 126.9256488, 37.6211078 ], [ 126.9260098, 37.6212419 ], [ 126.92622, 37.62132 ], [ 126.926285, 37.6213875 ], [ 126.9262531, 37.6215973 ], [ 126.9262063, 37.6217302 ], [ 126.9261413, 37.6219277 ], [ 126.9261685, 37.6220295 ], [ 126.9261928, 37.6220942 ], [ 126.9262183, 37.6221623 ], [ 126.9263045, 37.6222772 ], [ 126.9263393, 37.622361 ], [ 126.9263634, 37.6224915 ], [ 126.9263287, 37.6226232 ], [ 126.9262712, 37.6227848 ], [ 126.9262576, 37.6228853 ], [ 126.9262604, 37.6229388 ], [ 126.9262659, 37.6229837 ], [ 126.9263853, 37.6231262 ], [ 126.9264237, 37.6231979 ], [ 126.9265021, 37.6233445 ], [ 126.9260628, 37.6235129 ] ] } },
{ "type": "Feature", "properties": { "od_id": "od_2243", "route_type": "historical_flood_trace_avoidance_route", "station": "불광", "facility": "불광작은예수의집", "route_length_m": 1752.665, "flood_overlap_length_m": 0.0, "flood_overlap_ratio": 0.0, "flood_feature_count": 0, "distance_delta_m": 25.031, "flood_overlap_reduction_m": 23.346, "candidate_rank": 7 }, "geometry": { "type": "LineString", "coordinates": [ [ 126.9295021, 37.6109278 ], [ 126.929533, 37.6109438 ], [ 126.929558, 37.6109568 ], [ 126.92961, 37.6109837 ], [ 126.9293906, 37.6112304 ], [ 126.9291965, 37.6115185 ], [ 126.9290646, 37.6116772 ], [ 126.9287629, 37.6120358 ], [ 126.9286239, 37.6121841 ], [ 126.9283537, 37.6124989 ], [ 126.9280549, 37.6128296 ], [ 126.9275282, 37.6134126 ], [ 126.9273561, 37.6136183 ], [ 126.9271822, 37.6138262 ], [ 126.9266707, 37.6144376 ], [ 126.926582, 37.6145187 ], [ 126.9262114, 37.6148801 ], [ 126.9259271, 37.6150999 ], [ 126.9258071, 37.615188 ], [ 126.9257199, 37.6152557 ], [ 126.9247486, 37.6158931 ], [ 126.9248024, 37.6159534 ], [ 126.9248384, 37.6161828 ], [ 126.9248695, 37.6162672 ], [ 126.9249501, 37.6164855 ], [ 126.9249871, 37.6165326 ], [ 126.9250721, 37.6167508 ], [ 126.925143, 37.6169325 ], [ 126.9252465, 37.6172286 ], [ 126.9252563, 37.6172568 ], [ 126.925272, 37.6173598 ], [ 126.925294, 37.6174112 ], [ 126.9253157, 37.617462 ], [ 126.925318, 37.6176646 ], [ 126.9253754, 37.61777 ], [ 126.9254346, 37.6178787 ], [ 126.9251778, 37.6181799 ], [ 126.9251419, 37.6182856 ], [ 126.925124, 37.6183382 ], [ 126.9250241, 37.618633 ], [ 126.9249344, 37.6187485 ], [ 126.9248368, 37.6188027 ], [ 126.9246857, 37.6188604 ], [ 126.9246224, 37.6188864 ], [ 126.924615, 37.6188834 ], [ 126.9243484, 37.6190115 ], [ 126.9243617, 37.6190893 ], [ 126.9244091, 37.6192733 ], [ 126.9244716, 37.6195163 ], [ 126.9245568, 37.6197539 ], [ 126.9246007, 37.6197781 ], [ 126.9247915, 37.6202736 ], [ 126.9248675, 37.6204709 ], [ 126.9248254, 37.6205291 ], [ 126.9247811, 37.6206298 ], [ 126.9247121, 37.6207796 ], [ 126.9246565, 37.6208693 ], [ 126.9246916, 37.6210424 ], [ 126.9245244, 37.6212658 ], [ 126.9250801, 37.6216225 ], [ 126.9250426, 37.6216692 ], [ 126.9249474, 37.6217649 ], [ 126.924836, 37.6218592 ], [ 126.9249413, 37.6219086 ], [ 126.9250622, 37.6219696 ], [ 126.9251015, 37.6220211 ], [ 126.9250771, 37.6220732 ], [ 126.9250668, 37.6220953 ], [ 126.9250562, 37.6222784 ], [ 126.925094, 37.622391 ], [ 126.9251378, 37.6225095 ], [ 126.9251995, 37.6225976 ], [ 126.9253121, 37.6226498 ], [ 126.9254474, 37.6227221 ], [ 126.9256544, 37.6228203 ], [ 126.9259437, 37.6229297 ], [ 126.925964, 37.6230009 ], [ 126.9259469, 37.6233293 ], [ 126.9257442, 37.6235001 ], [ 126.9258161, 37.6236075 ], [ 126.9260628, 37.6235129 ] ] } },
{ "type": "Feature", "properties": { "od_id": "od_853", "route_type": "baseline", "station": "불광", "facility": "불광작은예수의집", "route_length_m": 1727.634, "flood_overlap_length_m": 23.346, "flood_overlap_ratio": 0.013513, "flood_feature_count": 3, "distance_delta_m": 0.0, "flood_overlap_reduction_m": 0.0, "candidate_rank": 8 }, "geometry": { "type": "LineString", "coordinates": [ [ 126.9295021, 37.6109278 ], [ 126.929533, 37.6109438 ], [ 126.929558, 37.6109568 ], [ 126.92961, 37.6109837 ], [ 126.9293906, 37.6112304 ], [ 126.9291965, 37.6115185 ], [ 126.9290646, 37.6116772 ], [ 126.9287629, 37.6120358 ], [ 126.9286239, 37.6121841 ], [ 126.9283537, 37.6124989 ], [ 126.9280549, 37.6128296 ], [ 126.9275282, 37.6134126 ], [ 126.9273561, 37.6136183 ], [ 126.9271822, 37.6138262 ], [ 126.9266707, 37.6144376 ], [ 126.926582, 37.6145187 ], [ 126.9262114, 37.6148801 ], [ 126.9259271, 37.6150999 ], [ 126.9258071, 37.615188 ], [ 126.9257199, 37.6152557 ], [ 126.9247486, 37.6158931 ], [ 126.9248024, 37.6159534 ], [ 126.9248384, 37.6161828 ], [ 126.9248695, 37.6162672 ], [ 126.9249501, 37.6164855 ], [ 126.9249871, 37.6165326 ], [ 126.9250721, 37.6167508 ], [ 126.925143, 37.6169325 ], [ 126.9252465, 37.6172286 ], [ 126.9252563, 37.6172568 ], [ 126.925272, 37.6173598 ], [ 126.925294, 37.6174112 ], [ 126.9253157, 37.617462 ], [ 126.925318, 37.6176646 ], [ 126.9253754, 37.61777 ], [ 126.9254346, 37.6178787 ], [ 126.9251778, 37.6181799 ], [ 126.9251419, 37.6182856 ], [ 126.925124, 37.6183382 ], [ 126.9250241, 37.618633 ], [ 126.9249344, 37.6187485 ], [ 126.9248368, 37.6188027 ], [ 126.9246857, 37.6188604 ], [ 126.9246224, 37.6188864 ], [ 126.924615, 37.6188834 ], [ 126.9243484, 37.6190115 ], [ 126.9243617, 37.6190893 ], [ 126.9244091, 37.6192733 ], [ 126.9244716, 37.6195163 ], [ 126.9245568, 37.6197539 ], [ 126.9246007, 37.6197781 ], [ 126.9247915, 37.6202736 ], [ 126.9248675, 37.6204709 ], [ 126.9248254, 37.6205291 ], [ 126.9247811, 37.6206298 ], [ 126.924906, 37.6206986 ], [ 126.9252203, 37.6208717 ], [ 126.9254593, 37.6210034 ], [ 126.9256488, 37.6211078 ], [ 126.9260098, 37.6212419 ], [ 126.92622, 37.62132 ], [ 126.926285, 37.6213875 ], [ 126.9262531, 37.6215973 ], [ 126.9262063, 37.6217302 ], [ 126.9261413, 37.6219277 ], [ 126.9261685, 37.6220295 ], [ 126.9261928, 37.6220942 ], [ 126.9262183, 37.6221623 ], [ 126.9263045, 37.6222772 ], [ 126.9263393, 37.622361 ], [ 126.9263634, 37.6224915 ], [ 126.9263287, 37.6226232 ], [ 126.9262712, 37.6227848 ], [ 126.9262576, 37.6228853 ], [ 126.9262604, 37.6229388 ], [ 126.9262659, 37.6229837 ], [ 126.9263853, 37.6231262 ], [ 126.9264237, 37.6231979 ], [ 126.9265021, 37.6233445 ], [ 126.9260628, 37.6235129 ] ] } },
{ "type": "Feature", "properties": { "od_id": "od_853", "route_type": "historical_flood_trace_avoidance_route", "station": "불광", "facility": "불광작은예수의집", "route_length_m": 1752.665, "flood_overlap_length_m": 0.0, "flood_overlap_ratio": 0.0, "flood_feature_count": 0, "distance_delta_m": 25.031, "flood_overlap_reduction_m": 23.346, "candidate_rank": 8 }, "geometry": { "type": "LineString", "coordinates": [ [ 126.9295021, 37.6109278 ], [ 126.929533, 37.6109438 ], [ 126.929558, 37.6109568 ], [ 126.92961, 37.6109837 ], [ 126.9293906, 37.6112304 ], [ 126.9291965, 37.6115185 ], [ 126.9290646, 37.6116772 ], [ 126.9287629, 37.6120358 ], [ 126.9286239, 37.6121841 ], [ 126.9283537, 37.6124989 ], [ 126.9280549, 37.6128296 ], [ 126.9275282, 37.6134126 ], [ 126.9273561, 37.6136183 ], [ 126.9271822, 37.6138262 ], [ 126.9266707, 37.6144376 ], [ 126.926582, 37.6145187 ], [ 126.9262114, 37.6148801 ], [ 126.9259271, 37.6150999 ], [ 126.9258071, 37.615188 ], [ 126.9257199, 37.6152557 ], [ 126.9247486, 37.6158931 ], [ 126.9248024, 37.6159534 ], [ 126.9248384, 37.6161828 ], [ 126.9248695, 37.6162672 ], [ 126.9249501, 37.6164855 ], [ 126.9249871, 37.6165326 ], [ 126.9250721, 37.6167508 ], [ 126.925143, 37.6169325 ], [ 126.9252465, 37.6172286 ], [ 126.9252563, 37.6172568 ], [ 126.925272, 37.6173598 ], [ 126.925294, 37.6174112 ], [ 126.9253157, 37.617462 ], [ 126.925318, 37.6176646 ], [ 126.9253754, 37.61777 ], [ 126.9254346, 37.6178787 ], [ 126.9251778, 37.6181799 ], [ 126.9251419, 37.6182856 ], [ 126.925124, 37.6183382 ], [ 126.9250241, 37.618633 ], [ 126.9249344, 37.6187485 ], [ 126.9248368, 37.6188027 ], [ 126.9246857, 37.6188604 ], [ 126.9246224, 37.6188864 ], [ 126.924615, 37.6188834 ], [ 126.9243484, 37.6190115 ], [ 126.9243617, 37.6190893 ], [ 126.9244091, 37.6192733 ], [ 126.9244716, 37.6195163 ], [ 126.9245568, 37.6197539 ], [ 126.9246007, 37.6197781 ], [ 126.9247915, 37.6202736 ], [ 126.9248675, 37.6204709 ], [ 126.9248254, 37.6205291 ], [ 126.9247811, 37.6206298 ], [ 126.9247121, 37.6207796 ], [ 126.9246565, 37.6208693 ], [ 126.9246916, 37.6210424 ], [ 126.9245244, 37.6212658 ], [ 126.9250801, 37.6216225 ], [ 126.9250426, 37.6216692 ], [ 126.9249474, 37.6217649 ], [ 126.924836, 37.6218592 ], [ 126.9249413, 37.6219086 ], [ 126.9250622, 37.6219696 ], [ 126.9251015, 37.6220211 ], [ 126.9250771, 37.6220732 ], [ 126.9250668, 37.6220953 ], [ 126.9250562, 37.6222784 ], [ 126.925094, 37.622391 ], [ 126.9251378, 37.6225095 ], [ 126.9251995, 37.6225976 ], [ 126.9253121, 37.6226498 ], [ 126.9254474, 37.6227221 ], [ 126.9256544, 37.6228203 ], [ 126.9259437, 37.6229297 ], [ 126.925964, 37.6230009 ], [ 126.9259469, 37.6233293 ], [ 126.9257442, 37.6235001 ], [ 126.9258161, 37.6236075 ], [ 126.9260628, 37.6235129 ] ] } },
{ "type": "Feature", "properties": { "od_id": "od_2838", "route_type": "baseline", "station": "연신내", "facility": "빗물받이", "route_length_m": 1145.926, "flood_overlap_length_m": 23.346, "flood_overlap_ratio": 0.020373, "flood_feature_count": 3, "distance_delta_m": 0.0, "flood_overlap_reduction_m": 0.0, "candidate_rank": 9 }, "geometry": { "type": "LineString", "coordinates": [ [ 126.9210454, 37.6189398 ], [ 126.9210171, 37.6189183 ], [ 126.9209838, 37.6189037 ], [ 126.9209395, 37.6189027 ], [ 126.9209148, 37.6189008 ], [ 126.9208902, 37.6188959 ], [ 126.9208624, 37.6188841 ], [ 126.9208776, 37.6188633 ], [ 126.9209534, 37.6187326 ], [ 126.9212092, 37.6187935 ], [ 126.9213057, 37.618836 ], [ 126.9213639, 37.6188531 ], [ 126.9214368, 37.6188745 ], [ 126.9214772, 37.6188864 ], [ 126.9223074, 37.6191858 ], [ 126.9225616, 37.6194109 ], [ 126.9226302, 37.6194716 ], [ 126.9227188, 37.6195661 ], [ 126.92291, 37.61977 ], [ 126.9229519, 37.6197979 ], [ 126.92306, 37.61987 ], [ 126.92324, 37.61996 ], [ 126.9236313, 37.6201082 ], [ 126.9242803, 37.6203539 ], [ 126.9246693, 37.6205682 ], [ 126.9247811, 37.6206298 ], [ 126.924906, 37.6206986 ], [ 126.9252203, 37.6208717 ], [ 126.9254593, 37.6210034 ], [ 126.9256488, 37.6211078 ], [ 126.9260098, 37.6212419 ], [ 126.92622, 37.62132 ], [ 126.926285, 37.6213875 ], [ 126.9262531, 37.6215973 ], [ 126.9262063, 37.6217302 ], [ 126.9261413, 37.6219277 ], [ 126.9261685, 37.6220295 ], [ 126.9261928, 37.6220942 ], [ 126.9262183, 37.6221623 ], [ 126.9263045, 37.6222772 ], [ 126.9263393, 37.622361 ], [ 126.9263634, 37.6224915 ], [ 126.9263287, 37.6226232 ], [ 126.9262712, 37.6227848 ], [ 126.9262576, 37.6228853 ], [ 126.9262604, 37.6229388 ], [ 126.9262659, 37.6229837 ], [ 126.9263853, 37.6231262 ], [ 126.9264237, 37.6231979 ], [ 126.9265021, 37.6233445 ], [ 126.9265198, 37.6233775 ], [ 126.9266513, 37.6236217 ], [ 126.9267025, 37.6237921 ], [ 126.9267905, 37.6239164 ], [ 126.9268115, 37.6239461 ], [ 126.9269625, 37.6241154 ], [ 126.9271185, 37.6242903 ], [ 126.9272301, 37.6244153 ], [ 126.927307, 37.6244749 ], [ 126.9273752, 37.6245278 ], [ 126.927563, 37.6247343 ], [ 126.9275374, 37.6248037 ], [ 126.9276977, 37.6250948 ], [ 126.9279055, 37.6256308 ], [ 126.9279568, 37.6257629 ], [ 126.9279648, 37.6257838 ], [ 126.9280315, 37.6258679 ] ] } },
{ "type": "Feature", "properties": { "od_id": "od_2838", "route_type": "k_shortest_alternative_4", "station": "연신내", "facility": "빗물받이", "route_length_m": 1172.478, "flood_overlap_length_m": 0.0, "flood_overlap_ratio": 0.0, "flood_feature_count": 0, "distance_delta_m": 26.552, "flood_overlap_reduction_m": 23.346, "candidate_rank": 9 }, "geometry": { "type": "LineString", "coordinates": [ [ 126.9210454, 37.6189398 ], [ 126.9210171, 37.6189183 ], [ 126.9209838, 37.6189037 ], [ 126.9209395, 37.6189027 ], [ 126.9209148, 37.6189008 ], [ 126.9208902, 37.6188959 ], [ 126.9208624, 37.6188841 ], [ 126.9208776, 37.6188633 ], [ 126.9209534, 37.6187326 ], [ 126.9212092, 37.6187935 ], [ 126.9213057, 37.618836 ], [ 126.9213639, 37.6188531 ], [ 126.9214368, 37.6188745 ], [ 126.9214772, 37.6188864 ], [ 126.9223074, 37.6191858 ], [ 126.9225616, 37.6194109 ], [ 126.9226302, 37.6194716 ], [ 126.9227188, 37.6195661 ], [ 126.92291, 37.61977 ], [ 126.9229519, 37.6197979 ], [ 126.9228432, 37.619959 ], [ 126.9229266, 37.6200784 ], [ 126.9230324, 37.620202 ], [ 126.9230934, 37.6202402 ], [ 126.923135, 37.6202663 ], [ 126.9233194, 37.6203075 ], [ 126.9234163, 37.6203609 ], [ 126.9234694, 37.6204254 ], [ 126.9235154, 37.6205905 ], [ 126.9235432, 37.6207293 ], [ 126.9235378, 37.6208266 ], [ 126.9235219, 37.6208822 ], [ 126.9236721, 37.6210567 ], [ 126.9236456, 37.6211032 ], [ 126.9236917, 37.6212582 ], [ 126.9235693, 37.621491 ], [ 126.9234746, 37.6216191 ], [ 126.9234378, 37.6216688 ], [ 126.9235387, 37.6217765 ], [ 126.9235462, 37.6218387 ], [ 126.9235319, 37.6218551 ], [ 126.9237004, 37.621907 ], [ 126.9240613, 37.6219218 ], [ 126.9241628, 37.621968 ], [ 126.9246243, 37.6222175 ], [ 126.9247008, 37.6222589 ], [ 126.9250968, 37.6225138 ], [ 126.9251995, 37.6225976 ], [ 126.9253121, 37.6226498 ], [ 126.9254474, 37.6227221 ], [ 126.9256544, 37.6228203 ], [ 126.9259437, 37.6229297 ], [ 126.9260519, 37.6229412 ], [ 126.9261743, 37.6229507 ], [ 126.9262604, 37.6229388 ], [ 126.9262659, 37.6229837 ], [ 126.9263853, 37.6231262 ], [ 126.9264237, 37.6231979 ], [ 126.9265021, 37.6233445 ], [ 126.9265198, 37.6233775 ], [ 126.9266513, 37.6236217 ], [ 126.9267025, 37.6237921 ], [ 126.9267905, 37.6239164 ], [ 126.9268115, 37.6239461 ], [ 126.9269625, 37.6241154 ], [ 126.9271185, 37.6242903 ], [ 126.9272301, 37.6244153 ], [ 126.927307, 37.6244749 ], [ 126.9273752, 37.6245278 ], [ 126.927563, 37.6247343 ], [ 126.9275374, 37.6248037 ], [ 126.9276977, 37.6250948 ], [ 126.9279055, 37.6256308 ], [ 126.9279568, 37.6257629 ], [ 126.9279648, 37.6257838 ], [ 126.9280315, 37.6258679 ] ] } },
{ "type": "Feature", "properties": { "od_id": "od_194", "route_type": "baseline", "station": "연신내", "facility": "빗물받이", "route_length_m": 1160.202, "flood_overlap_length_m": 23.346, "flood_overlap_ratio": 0.020122, "flood_feature_count": 3, "distance_delta_m": 0.0, "flood_overlap_reduction_m": 0.0, "candidate_rank": 10 }, "geometry": { "type": "LineString", "coordinates": [ [ 126.9204226, 37.6185539 ], [ 126.9206213, 37.6186315 ], [ 126.9209242, 37.618724 ], [ 126.9209534, 37.6187326 ], [ 126.9212092, 37.6187935 ], [ 126.9213057, 37.618836 ], [ 126.9213639, 37.6188531 ], [ 126.9214368, 37.6188745 ], [ 126.9214772, 37.6188864 ], [ 126.9223074, 37.6191858 ], [ 126.9225616, 37.6194109 ], [ 126.9226302, 37.6194716 ], [ 126.9227188, 37.6195661 ], [ 126.92291, 37.61977 ], [ 126.9229519, 37.6197979 ], [ 126.92306, 37.61987 ], [ 126.92324, 37.61996 ], [ 126.9236313, 37.6201082 ], [ 126.9242803, 37.6203539 ], [ 126.9246693, 37.6205682 ], [ 126.9247811, 37.6206298 ], [ 126.924906, 37.6206986 ], [ 126.9252203, 37.6208717 ], [ 126.9254593, 37.6210034 ], [ 126.9256488, 37.6211078 ], [ 126.9260098, 37.6212419 ], [ 126.92622, 37.62132 ], [ 126.926285, 37.6213875 ], [ 126.9262531, 37.6215973 ], [ 126.9262063, 37.6217302 ], [ 126.9261413, 37.6219277 ], [ 126.9261685, 37.6220295 ], [ 126.9261928, 37.6220942 ], [ 126.9262183, 37.6221623 ], [ 126.9263045, 37.6222772 ], [ 126.9263393, 37.622361 ], [ 126.9263634, 37.6224915 ], [ 126.9263287, 37.6226232 ], [ 126.9262712, 37.6227848 ], [ 126.9262576, 37.6228853 ], [ 126.9262604, 37.6229388 ], [ 126.9262659, 37.6229837 ], [ 126.9263853, 37.6231262 ], [ 126.9264237, 37.6231979 ], [ 126.9265021, 37.6233445 ], [ 126.9265198, 37.6233775 ], [ 126.9266513, 37.6236217 ], [ 126.9267025, 37.6237921 ], [ 126.9267905, 37.6239164 ], [ 126.9268115, 37.6239461 ], [ 126.9269625, 37.6241154 ], [ 126.9271185, 37.6242903 ], [ 126.9272301, 37.6244153 ], [ 126.927307, 37.6244749 ], [ 126.9273752, 37.6245278 ], [ 126.927563, 37.6247343 ], [ 126.9275374, 37.6248037 ], [ 126.9276977, 37.6250948 ], [ 126.9279055, 37.6256308 ], [ 126.9279568, 37.6257629 ], [ 126.9279648, 37.6257838 ], [ 126.9280315, 37.6258679 ] ] } },
{ "type": "Feature", "properties": { "od_id": "od_194", "route_type": "k_shortest_alternative_4", "station": "연신내", "facility": "빗물받이", "route_length_m": 1186.754, "flood_overlap_length_m": 0.0, "flood_overlap_ratio": 0.0, "flood_feature_count": 0, "distance_delta_m": 26.552, "flood_overlap_reduction_m": 23.346, "candidate_rank": 10 }, "geometry": { "type": "LineString", "coordinates": [ [ 126.9204226, 37.6185539 ], [ 126.9206213, 37.6186315 ], [ 126.9209242, 37.618724 ], [ 126.9209534, 37.6187326 ], [ 126.9212092, 37.6187935 ], [ 126.9213057, 37.618836 ], [ 126.9213639, 37.6188531 ], [ 126.9214368, 37.6188745 ], [ 126.9214772, 37.6188864 ], [ 126.9223074, 37.6191858 ], [ 126.9225616, 37.6194109 ], [ 126.9226302, 37.6194716 ], [ 126.9227188, 37.6195661 ], [ 126.92291, 37.61977 ], [ 126.9229519, 37.6197979 ], [ 126.9228432, 37.619959 ], [ 126.9229266, 37.6200784 ], [ 126.9230324, 37.620202 ], [ 126.9230934, 37.6202402 ], [ 126.923135, 37.6202663 ], [ 126.9233194, 37.6203075 ], [ 126.9234163, 37.6203609 ], [ 126.9234694, 37.6204254 ], [ 126.9235154, 37.6205905 ], [ 126.9235432, 37.6207293 ], [ 126.9235378, 37.6208266 ], [ 126.9235219, 37.6208822 ], [ 126.9236721, 37.6210567 ], [ 126.9236456, 37.6211032 ], [ 126.9236917, 37.6212582 ], [ 126.9235693, 37.621491 ], [ 126.9234746, 37.6216191 ], [ 126.9234378, 37.6216688 ], [ 126.9235387, 37.6217765 ], [ 126.9235462, 37.6218387 ], [ 126.9235319, 37.6218551 ], [ 126.9237004, 37.621907 ], [ 126.9240613, 37.6219218 ], [ 126.9241628, 37.621968 ], [ 126.9246243, 37.6222175 ], [ 126.9247008, 37.6222589 ], [ 126.9250968, 37.6225138 ], [ 126.9251995, 37.6225976 ], [ 126.9253121, 37.6226498 ], [ 126.9254474, 37.6227221 ], [ 126.9256544, 37.6228203 ], [ 126.9259437, 37.6229297 ], [ 126.9260519, 37.6229412 ], [ 126.9261743, 37.6229507 ], [ 126.9262604, 37.6229388 ], [ 126.9262659, 37.6229837 ], [ 126.9263853, 37.6231262 ], [ 126.9264237, 37.6231979 ], [ 126.9265021, 37.6233445 ], [ 126.9265198, 37.6233775 ], [ 126.9266513, 37.6236217 ], [ 126.9267025, 37.6237921 ], [ 126.9267905, 37.6239164 ], [ 126.9268115, 37.6239461 ], [ 126.9269625, 37.6241154 ], [ 126.9271185, 37.6242903 ], [ 126.9272301, 37.6244153 ], [ 126.927307, 37.6244749 ], [ 126.9273752, 37.6245278 ], [ 126.927563, 37.6247343 ], [ 126.9275374, 37.6248037 ], [ 126.9276977, 37.6250948 ], [ 126.9279055, 37.6256308 ], [ 126.9279568, 37.6257629 ], [ 126.9279648, 37.6257838 ], [ 126.9280315, 37.6258679 ] ] } }
]
}
