{
"type": "FeatureCollection",
"name": "station_to_eunpyeong_daycare_routes",
"crs": { "type": "name", "properties": { "name": "urn:ogc:def:crs:OGC:1.3:CRS84" } },
"features": [
{ "type": "Feature", "properties": { "od_id": "녹번_3호선_to_eunpyeong_daycare", "station": "녹번", "station_line": "3호선", "station_lon": 126.935756, "station_lat": 37.600927, "facility_source": "mobility_facility", "facility_id": "mobility_facility-525", "facility_name": "은평장애인주간보호센터", "facility_address": "서울특별시 은평구 진흥로 87", "facility_lon": 126.9217, "facility_lat": 37.6047, "straight_line_distance_m": 1309.941, "station_node": 436867704.0, "facility_node": 3819767887.0, "station_snap_distance_m": 5.4771783625512347, "facility_snap_distance_m": 32.805859010302477, "snap_status": "PASS", "route_id": "녹번_3호선_to_eunpyeong_daycare_baseline", "route_type": "baseline", "method": "shortest_path_by_length", "node_sequence": [ 436867704, 3811678409, 2309932435, 3811155089, 3811155100, 3811155105, 3811155108, 3811155109, 3811155110, 2309932436, 3811155120, 3811155123, 3811678510, 3811136152, 3811678517, 3811155131, 3811136153, 2309932438, 3811139659, 3811139668, 3811139673, 3811139674, 3811139677, 4580533283, 3811092369, 2309932422, 3811092371, 3811092372, 2309932419, 2309932457, 3811092376, 3811092381, 3811078752, 3811078755, 10678122636, 3811078754, 8460984671, 10789220058, 8460984675, 3819767908, 10789220057, 3819767936, 3819767895, 3819767887 ], "edge_sequence": [ [ 436867704, 3811678409 ], [ 3811678409, 2309932435 ], [ 2309932435, 3811155089 ], [ 3811155089, 3811155100 ], [ 3811155100, 3811155105 ], [ 3811155105, 3811155108 ], [ 3811155108, 3811155109 ], [ 3811155109, 3811155110 ], [ 3811155110, 2309932436 ], [ 2309932436, 3811155120 ], [ 3811155120, 3811155123 ], [ 3811155123, 3811678510 ], [ 3811678510, 3811136152 ], [ 3811136152, 3811678517 ], [ 3811678517, 3811155131 ], [ 3811155131, 3811136153 ], [ 3811136153, 2309932438 ], [ 2309932438, 3811139659 ], [ 3811139659, 3811139668 ], [ 3811139668, 3811139673 ], [ 3811139673, 3811139674 ], [ 3811139674, 3811139677 ], [ 3811139677, 4580533283 ], [ 4580533283, 3811092369 ], [ 3811092369, 2309932422 ], [ 2309932422, 3811092371 ], [ 3811092371, 3811092372 ], [ 3811092372, 2309932419 ], [ 2309932419, 2309932457 ], [ 2309932457, 3811092376 ], [ 3811092376, 3811092381 ], [ 3811092381, 3811078752 ], [ 3811078752, 3811078755 ], [ 3811078755, 10678122636 ], [ 10678122636, 3811078754 ], [ 3811078754, 8460984671 ], [ 8460984671, 10789220058 ], [ 10789220058, 8460984675 ], [ 8460984675, 3819767908 ], [ 3819767908, 10789220057 ], [ 10789220057, 3819767936 ], [ 3819767936, 3819767895 ], [ 3819767895, 3819767887 ] ], "node_count": 44.0, "edge_count": 43.0, "route_length_m": 1554.775, "flood_feature_count_2022": 0.0, "flood_overlap_length_m_2022": 0.0, "flood_feature_count_2023": 0.0, "flood_overlap_length_m_2023": 0.0, "flood_feature_count_2024": 0.0, "flood_overlap_length_m_2024": 0.0, "flood_feature_count_2025": 0.0, "flood_overlap_length_m_2025": 0.0, "flood_feature_count_unique_total": 0.0, "flood_overlap_length_m_total": 0.0, "flood_overlap_ratio": 0.0, "mobility_facility_count_near_route": 6.0, "support_point_count_near_route": 26.0, "existing_safe_route_overlap_or_proximity_count": 51.0 }, "geometry": { "type": "LineString", "coordinates": [ [ 126.935759, 37.6008778 ], [ 126.9352857, 37.6009025 ], [ 126.93423, 37.60098 ], [ 126.934022, 37.6009952 ], [ 126.933805, 37.6010111 ], [ 126.933834, 37.6012918 ], [ 126.9338319, 37.6013566 ], [ 126.933569, 37.6015068 ], [ 126.9334616, 37.6015585 ], [ 126.9331564, 37.6017056 ], [ 126.9330146, 37.6017739 ], [ 126.9329796, 37.6017856 ], [ 126.9328246, 37.6018377 ], [ 126.9327227, 37.601872 ], [ 126.932352, 37.6019965 ], [ 126.931987, 37.6021161 ], [ 126.9319445, 37.6021324 ], [ 126.9316901, 37.6022296 ], [ 126.9316147, 37.6022585 ], [ 126.9314416, 37.6023152 ], [ 126.9311571, 37.6024085 ], [ 126.9309903, 37.6024693 ], [ 126.9308355, 37.6025258 ], [ 126.930775, 37.6025496 ], [ 126.9305751, 37.6026084 ], [ 126.9302607, 37.6027427 ], [ 126.9300373, 37.6028382 ], [ 126.9300078, 37.6028508 ], [ 126.9296992, 37.6029551 ], [ 126.9293623, 37.6030689 ], [ 126.9292949, 37.6030774 ], [ 126.9291511, 37.6030956 ], [ 126.9286865, 37.6031375 ], [ 126.9285784, 37.6031472 ], [ 126.9277091, 37.6032753 ], [ 126.927447, 37.6033366 ], [ 126.9271856, 37.6033977 ], [ 126.9271228, 37.6034124 ], [ 126.9270241, 37.6034355 ], [ 126.9265201, 37.6035963 ], [ 126.9260819, 37.6036324 ], [ 126.9260511, 37.603635 ], [ 126.9258273, 37.603654 ], [ 126.9255274, 37.6036795 ], [ 126.9253029, 37.6036095 ], [ 126.9252525, 37.6036676 ], [ 126.9247987, 37.604191 ], [ 126.9243562, 37.6047013 ], [ 126.9243204, 37.6047426 ], [ 126.923949, 37.605109 ], [ 126.9233319, 37.6047528 ], [ 126.9228097, 37.6047819 ], [ 126.9227039, 37.6047878 ], [ 126.9227118, 37.604863 ], [ 126.9227268, 37.6049706 ], [ 126.9227609, 37.6052152 ], [ 126.9226456, 37.605252 ], [ 126.9225416, 37.6052632 ], [ 126.9225275, 37.6052647 ], [ 126.9224524, 37.6052435 ], [ 126.9223532, 37.6052031 ], [ 126.9223895, 37.6052797 ], [ 126.9221965, 37.605337 ], [ 126.9221188, 37.60536 ], [ 126.9218117, 37.6054681 ], [ 126.9216141, 37.6050813 ], [ 126.9215588, 37.604973 ] ] } },
{ "type": "Feature", "properties": { "od_id": "독바위_6호선_to_eunpyeong_daycare", "station": "독바위", "station_line": "6호선", "station_lon": 126.933031, "station_lat": 37.618456, "facility_source": "mobility_facility", "facility_id": "mobility_facility-525", "facility_name": "은평장애인주간보호센터", "facility_address": "서울특별시 은평구 진흥로 87", "facility_lon": 126.9217, "facility_lat": 37.6047, "straight_line_distance_m": 1825.358, "station_node": 3824954278.0, "facility_node": 3819767887.0, "station_snap_distance_m": 2.9334175923607102, "facility_snap_distance_m": 32.805859010302477, "snap_status": "PASS", "route_id": "독바위_6호선_to_eunpyeong_daycare_baseline", "route_type": "baseline", "method": "shortest_path_by_length", "node_sequence": [ 3824954278, 436849320, 307924229, 3824954088, 3819769661, 3824954063, 445329900, 436849314, 5281044434, 5281044436, 5281044435, 3819769307, 3279011087, 4580205446, 3819769163, 353195249, 436849310, 3279011082, 5281045189, 5281045187, 5281045188, 5281045186, 457819071, 11228575654, 5930698997, 5281048352, 11229115806, 12364765013, 12364765021, 12364765017, 436873827, 436873826, 3811140039, 3819768175, 3819768163, 3811140014, 436873822, 3811139987, 3811139972, 3819768079, 3811139948, 436854170, 10789220053, 10789220052, 10678122631, 10789220057, 3819767936, 3819767895, 3819767887 ], "edge_sequence": [ [ 3824954278, 436849320 ], [ 436849320, 307924229 ], [ 307924229, 3824954088 ], [ 3824954088, 3819769661 ], [ 3819769661, 3824954063 ], [ 3824954063, 445329900 ], [ 445329900, 436849314 ], [ 436849314, 5281044434 ], [ 5281044434, 5281044436 ], [ 5281044436, 5281044435 ], [ 5281044435, 3819769307 ], [ 3819769307, 3279011087 ], [ 3279011087, 4580205446 ], [ 4580205446, 3819769163 ], [ 3819769163, 353195249 ], [ 353195249, 436849310 ], [ 436849310, 3279011082 ], [ 3279011082, 5281045189 ], [ 5281045189, 5281045187 ], [ 5281045187, 5281045188 ], [ 5281045188, 5281045186 ], [ 5281045186, 457819071 ], [ 457819071, 11228575654 ], [ 11228575654, 5930698997 ], [ 5930698997, 5281048352 ], [ 5281048352, 11229115806 ], [ 11229115806, 12364765013 ], [ 12364765013, 12364765021 ], [ 12364765021, 12364765017 ], [ 12364765017, 436873827 ], [ 436873827, 436873826 ], [ 436873826, 3811140039 ], [ 3811140039, 3819768175 ], [ 3819768175, 3819768163 ], [ 3819768163, 3811140014 ], [ 3811140014, 436873822 ], [ 436873822, 3811139987 ], [ 3811139987, 3811139972 ], [ 3811139972, 3819768079 ], [ 3819768079, 3811139948 ], [ 3811139948, 436854170 ], [ 436854170, 10789220053 ], [ 10789220053, 10789220052 ], [ 10789220052, 10678122631 ], [ 10678122631, 10789220057 ], [ 10789220057, 3819767936 ], [ 3819767936, 3819767895 ], [ 3819767895, 3819767887 ] ], "node_count": 49.0, "edge_count": 48.0, "route_length_m": 2007.046, "flood_feature_count_2022": 0.0, "flood_overlap_length_m_2022": 0.0, "flood_feature_count_2023": 0.0, "flood_overlap_length_m_2023": 0.0, "flood_feature_count_2024": 0.0, "flood_overlap_length_m_2024": 0.0, "flood_feature_count_2025": 0.0, "flood_overlap_length_m_2025": 0.0, "flood_feature_count_unique_total": 0.0, "flood_overlap_length_m_total": 0.0, "flood_overlap_ratio": 0.0, "mobility_facility_count_near_route": 23.0, "support_point_count_near_route": 21.0, "existing_safe_route_overlap_or_proximity_count": 16.0 }, "geometry": { "type": "LineString", "coordinates": [ [ 126.9329984, 37.6184614 ], [ 126.9330163, 37.6184266 ], [ 126.9330995, 37.6181887 ], [ 126.9331531, 37.617853 ], [ 126.9331597, 37.6177787 ], [ 126.9331022, 37.6173856 ], [ 126.9328742, 37.6170712 ], [ 126.9327749, 37.6169479 ], [ 126.9327165, 37.6168523 ], [ 126.9326918, 37.6168119 ], [ 126.9326703, 37.6166717 ], [ 126.9327025, 37.6165251 ], [ 126.9327395, 37.6164462 ], [ 126.9329115, 37.6160793 ], [ 126.9329652, 37.6159647 ], [ 126.9329756, 37.6157736 ], [ 126.9328683, 37.6154733 ], [ 126.9327974, 37.6152748 ], [ 126.9326516, 37.6149491 ], [ 126.9325168, 37.6146745 ], [ 126.9322917, 37.6142157 ], [ 126.9322274, 37.6141099 ], [ 126.9320555, 37.613796 ], [ 126.9320414, 37.6136138 ], [ 126.932025, 37.6134017 ], [ 126.9320139, 37.6132585 ], [ 126.9320023, 37.6131082 ], [ 126.9319727, 37.6127261 ], [ 126.9319501, 37.612434 ], [ 126.9319397, 37.6123802 ], [ 126.9318766, 37.6120965 ], [ 126.9313121, 37.6119371 ], [ 126.9310255, 37.6118004 ], [ 126.9307984, 37.6116425 ], [ 126.9305636, 37.6114735 ], [ 126.9302963, 37.6113245 ], [ 126.9300404, 37.6111982 ], [ 126.92961, 37.6109837 ], [ 126.929558, 37.6109568 ], [ 126.929533, 37.6109438 ], [ 126.9295021, 37.6109278 ], [ 126.928959, 37.6106114 ], [ 126.9287662, 37.6104018 ], [ 126.9283073, 37.6099029 ], [ 126.9281915, 37.6098108 ], [ 126.9279529, 37.6096845 ], [ 126.9273664, 37.6093972 ], [ 126.9272636, 37.6093199 ], [ 126.9269512, 37.6091942 ], [ 126.9267747, 37.6090895 ], [ 126.9267057, 37.6090485 ], [ 126.926679, 37.6090266 ], [ 126.9266011, 37.6089106 ], [ 126.926352, 37.6087742 ], [ 126.9259975, 37.6085136 ], [ 126.9257819, 37.608323 ], [ 126.9252973, 37.6080872 ], [ 126.9251641, 37.6080199 ], [ 126.9250911, 37.6079877 ], [ 126.924794, 37.6078565 ], [ 126.9246603, 37.6077974 ], [ 126.9245926, 37.6077696 ], [ 126.9243214, 37.607658 ], [ 126.924009, 37.607508 ], [ 126.9238799, 37.607438 ], [ 126.9237737, 37.6073705 ], [ 126.9235382, 37.6071943 ], [ 126.9235034, 37.6071683 ], [ 126.9234262, 37.6070863 ], [ 126.923312, 37.6069652 ], [ 126.9232835, 37.6069242 ], [ 126.9230626, 37.6066064 ], [ 126.9229316, 37.6063442 ], [ 126.9226406, 37.6062301 ], [ 126.9225333, 37.6060242 ], [ 126.9224246, 37.6058155 ], [ 126.9224189, 37.6058034 ], [ 126.9222376, 37.6054192 ], [ 126.9222203, 37.6053825 ], [ 126.9221965, 37.605337 ], [ 126.9221188, 37.60536 ], [ 126.9218117, 37.6054681 ], [ 126.9216141, 37.6050813 ], [ 126.9215588, 37.604973 ] ] } },
{ "type": "Feature", "properties": { "od_id": "불광_3호선_to_eunpyeong_daycare", "station": "불광", "station_line": "3호선", "station_lon": 126.92982, "station_lat": 37.610553, "facility_source": "mobility_facility", "facility_id": "mobility_facility-525", "facility_name": "은평장애인주간보호센터", "facility_address": "서울특별시 은평구 진흥로 87", "facility_lon": 126.9217, "facility_lat": 37.6047, "straight_line_distance_m": 967.507, "station_node": 5930698997.0, "facility_node": 3819767887.0, "station_snap_distance_m": 50.209801741355435, "facility_snap_distance_m": 32.805859010302477, "snap_status": "PASS", "route_id": "불광_3호선_to_eunpyeong_daycare_baseline", "route_type": "baseline", "method": "shortest_path_by_length", "node_sequence": [ 5930698997, 5281048352, 11229115806, 12364765013, 12364765021, 12364765017, 436873827, 436873826, 3811140039, 3819768175, 3819768163, 3811140014, 436873822, 3811139987, 3811139972, 3819768079, 3811139948, 436854170, 10789220053, 10789220052, 10678122631, 10789220057, 3819767936, 3819767895, 3819767887 ], "edge_sequence": [ [ 5930698997, 5281048352 ], [ 5281048352, 11229115806 ], [ 11229115806, 12364765013 ], [ 12364765013, 12364765021 ], [ 12364765021, 12364765017 ], [ 12364765017, 436873827 ], [ 436873827, 436873826 ], [ 436873826, 3811140039 ], [ 3811140039, 3819768175 ], [ 3819768175, 3819768163 ], [ 3819768163, 3811140014 ], [ 3811140014, 436873822 ], [ 436873822, 3811139987 ], [ 3811139987, 3811139972 ], [ 3811139972, 3819768079 ], [ 3819768079, 3811139948 ], [ 3811139948, 436854170 ], [ 436854170, 10789220053 ], [ 10789220053, 10789220052 ], [ 10789220052, 10678122631 ], [ 10678122631, 10789220057 ], [ 10789220057, 3819767936 ], [ 3819767936, 3819767895 ], [ 3819767895, 3819767887 ] ], "node_count": 25.0, "edge_count": 24.0, "route_length_m": 1019.341, "flood_feature_count_2022": 0.0, "flood_overlap_length_m_2022": 0.0, "flood_feature_count_2023": 0.0, "flood_overlap_length_m_2023": 0.0, "flood_feature_count_2024": 0.0, "flood_overlap_length_m_2024": 0.0, "flood_feature_count_2025": 0.0, "flood_overlap_length_m_2025": 0.0, "flood_feature_count_unique_total": 0.0, "flood_overlap_length_m_total": 0.0, "flood_overlap_ratio": 0.0, "mobility_facility_count_near_route": 4.0, "support_point_count_near_route": 8.0, "existing_safe_route_overlap_or_proximity_count": 10.0 }, "geometry": { "type": "LineString", "coordinates": [ [ 126.9295021, 37.6109278 ], [ 126.928959, 37.6106114 ], [ 126.9287662, 37.6104018 ], [ 126.9283073, 37.6099029 ], [ 126.9281915, 37.6098108 ], [ 126.9279529, 37.6096845 ], [ 126.9273664, 37.6093972 ], [ 126.9272636, 37.6093199 ], [ 126.9269512, 37.6091942 ], [ 126.9267747, 37.6090895 ], [ 126.9267057, 37.6090485 ], [ 126.926679, 37.6090266 ], [ 126.9266011, 37.6089106 ], [ 126.926352, 37.6087742 ], [ 126.9259975, 37.6085136 ], [ 126.9257819, 37.608323 ], [ 126.9252973, 37.6080872 ], [ 126.9251641, 37.6080199 ], [ 126.9250911, 37.6079877 ], [ 126.924794, 37.6078565 ], [ 126.9246603, 37.6077974 ], [ 126.9245926, 37.6077696 ], [ 126.9243214, 37.607658 ], [ 126.924009, 37.607508 ], [ 126.9238799, 37.607438 ], [ 126.9237737, 37.6073705 ], [ 126.9235382, 37.6071943 ], [ 126.9235034, 37.6071683 ], [ 126.9234262, 37.6070863 ], [ 126.923312, 37.6069652 ], [ 126.9232835, 37.6069242 ], [ 126.9230626, 37.6066064 ], [ 126.9229316, 37.6063442 ], [ 126.9226406, 37.6062301 ], [ 126.9225333, 37.6060242 ], [ 126.9224246, 37.6058155 ], [ 126.9224189, 37.6058034 ], [ 126.9222376, 37.6054192 ], [ 126.9222203, 37.6053825 ], [ 126.9221965, 37.605337 ], [ 126.9221188, 37.60536 ], [ 126.9218117, 37.6054681 ], [ 126.9216141, 37.6050813 ], [ 126.9215588, 37.604973 ] ] } },
{ "type": "Feature", "properties": { "od_id": "불광_6호선_to_eunpyeong_daycare", "station": "불광", "station_line": "6호선", "station_lon": 126.92939, "station_lat": 37.610873, "facility_source": "mobility_facility", "facility_id": "mobility_facility-525", "facility_name": "은평장애인주간보호센터", "facility_address": "서울특별시 은평구 진흥로 87", "facility_lon": 126.9217, "facility_lat": 37.6047, "straight_line_distance_m": 964.609, "station_node": 5930698997.0, "facility_node": 3819767887.0, "station_snap_distance_m": 11.603222454866666, "facility_snap_distance_m": 32.805859010302477, "snap_status": "PASS", "route_id": "불광_6호선_to_eunpyeong_daycare_baseline", "route_type": "baseline", "method": "shortest_path_by_length", "node_sequence": [ 5930698997, 5281048352, 11229115806, 12364765013, 12364765021, 12364765017, 436873827, 436873826, 3811140039, 3819768175, 3819768163, 3811140014, 436873822, 3811139987, 3811139972, 3819768079, 3811139948, 436854170, 10789220053, 10789220052, 10678122631, 10789220057, 3819767936, 3819767895, 3819767887 ], "edge_sequence": [ [ 5930698997, 5281048352 ], [ 5281048352, 11229115806 ], [ 11229115806, 12364765013 ], [ 12364765013, 12364765021 ], [ 12364765021, 12364765017 ], [ 12364765017, 436873827 ], [ 436873827, 436873826 ], [ 436873826, 3811140039 ], [ 3811140039, 3819768175 ], [ 3819768175, 3819768163 ], [ 3819768163, 3811140014 ], [ 3811140014, 436873822 ], [ 436873822, 3811139987 ], [ 3811139987, 3811139972 ], [ 3811139972, 3819768079 ], [ 3819768079, 3811139948 ], [ 3811139948, 436854170 ], [ 436854170, 10789220053 ], [ 10789220053, 10789220052 ], [ 10789220052, 10678122631 ], [ 10678122631, 10789220057 ], [ 10789220057, 3819767936 ], [ 3819767936, 3819767895 ], [ 3819767895, 3819767887 ] ], "node_count": 25.0, "edge_count": 24.0, "route_length_m": 1019.341, "flood_feature_count_2022": 0.0, "flood_overlap_length_m_2022": 0.0, "flood_feature_count_2023": 0.0, "flood_overlap_length_m_2023": 0.0, "flood_feature_count_2024": 0.0, "flood_overlap_length_m_2024": 0.0, "flood_feature_count_2025": 0.0, "flood_overlap_length_m_2025": 0.0, "flood_feature_count_unique_total": 0.0, "flood_overlap_length_m_total": 0.0, "flood_overlap_ratio": 0.0, "mobility_facility_count_near_route": 4.0, "support_point_count_near_route": 8.0, "existing_safe_route_overlap_or_proximity_count": 10.0 }, "geometry": { "type": "LineString", "coordinates": [ [ 126.9295021, 37.6109278 ], [ 126.928959, 37.6106114 ], [ 126.9287662, 37.6104018 ], [ 126.9283073, 37.6099029 ], [ 126.9281915, 37.6098108 ], [ 126.9279529, 37.6096845 ], [ 126.9273664, 37.6093972 ], [ 126.9272636, 37.6093199 ], [ 126.9269512, 37.6091942 ], [ 126.9267747, 37.6090895 ], [ 126.9267057, 37.6090485 ], [ 126.926679, 37.6090266 ], [ 126.9266011, 37.6089106 ], [ 126.926352, 37.6087742 ], [ 126.9259975, 37.6085136 ], [ 126.9257819, 37.608323 ], [ 126.9252973, 37.6080872 ], [ 126.9251641, 37.6080199 ], [ 126.9250911, 37.6079877 ], [ 126.924794, 37.6078565 ], [ 126.9246603, 37.6077974 ], [ 126.9245926, 37.6077696 ], [ 126.9243214, 37.607658 ], [ 126.924009, 37.607508 ], [ 126.9238799, 37.607438 ], [ 126.9237737, 37.6073705 ], [ 126.9235382, 37.6071943 ], [ 126.9235034, 37.6071683 ], [ 126.9234262, 37.6070863 ], [ 126.923312, 37.6069652 ], [ 126.9232835, 37.6069242 ], [ 126.9230626, 37.6066064 ], [ 126.9229316, 37.6063442 ], [ 126.9226406, 37.6062301 ], [ 126.9225333, 37.6060242 ], [ 126.9224246, 37.6058155 ], [ 126.9224189, 37.6058034 ], [ 126.9222376, 37.6054192 ], [ 126.9222203, 37.6053825 ], [ 126.9221965, 37.605337 ], [ 126.9221188, 37.60536 ], [ 126.9218117, 37.6054681 ], [ 126.9216141, 37.6050813 ], [ 126.9215588, 37.604973 ] ] } },
{ "type": "Feature", "properties": { "od_id": "연신내_3호선_to_eunpyeong_daycare", "station": "연신내", "station_line": "3호선", "station_lon": 126.921038, "station_lat": 37.619229, "facility_source": "mobility_facility", "facility_id": "mobility_facility-525", "facility_name": "은평장애인주간보호센터", "facility_address": "서울특별시 은평구 진흥로 87", "facility_lon": 126.9217, "facility_lat": 37.6047, "straight_line_distance_m": 1613.621, "station_node": 13357342120.0, "facility_node": 3819767887.0, "station_snap_distance_m": 32.164222428361249, "facility_snap_distance_m": 32.805859010302477, "snap_status": "PASS", "route_id": "연신내_3호선_to_eunpyeong_daycare_baseline", "route_type": "baseline", "method": "shortest_path_by_length", "node_sequence": [ 13357342120, 13357342121, 13357321496, 13357342123, 10678122493, 3819769869, 3819769835, 3819769821, 3819769759, 3819769745, 353193681, 3819769725, 3819769679, 3819769554, 3819769503, 3819769470, 3819769451, 3819769399, 353193679, 353193678, 3819769234, 3819769155, 4580258482, 3819769063, 353193675, 3819768934, 3819768906, 353193674, 3819768764, 3819768749, 3819768677, 436862050, 3819768596, 436862049, 3819768568, 10789220047, 4086709496, 10789220119, 10678122570, 3819768147, 10678122780, 10789220102, 10789220121, 10678122772, 10789220053, 10789220052, 10678122631, 10789220057, 3819767936, 3819767895, 3819767887 ], "edge_sequence": [ [ 13357342120, 13357342121 ], [ 13357342121, 13357321496 ], [ 13357321496, 13357342123 ], [ 13357342123, 10678122493 ], [ 10678122493, 3819769869 ], [ 3819769869, 3819769835 ], [ 3819769835, 3819769821 ], [ 3819769821, 3819769759 ], [ 3819769759, 3819769745 ], [ 3819769745, 353193681 ], [ 353193681, 3819769725 ], [ 3819769725, 3819769679 ], [ 3819769679, 3819769554 ], [ 3819769554, 3819769503 ], [ 3819769503, 3819769470 ], [ 3819769470, 3819769451 ], [ 3819769451, 3819769399 ], [ 3819769399, 353193679 ], [ 353193679, 353193678 ], [ 353193678, 3819769234 ], [ 3819769234, 3819769155 ], [ 3819769155, 4580258482 ], [ 4580258482, 3819769063 ], [ 3819769063, 353193675 ], [ 353193675, 3819768934 ], [ 3819768934, 3819768906 ], [ 3819768906, 353193674 ], [ 353193674, 3819768764 ], [ 3819768764, 3819768749 ], [ 3819768749, 3819768677 ], [ 3819768677, 436862050 ], [ 436862050, 3819768596 ], [ 3819768596, 436862049 ], [ 436862049, 3819768568 ], [ 3819768568, 10789220047 ], [ 10789220047, 4086709496 ], [ 4086709496, 10789220119 ], [ 10789220119, 10678122570 ], [ 10678122570, 3819768147 ], [ 3819768147, 10678122780 ], [ 10678122780, 10789220102 ], [ 10789220102, 10789220121 ], [ 10789220121, 10678122772 ], [ 10678122772, 10789220053 ], [ 10789220053, 10789220052 ], [ 10789220052, 10678122631 ], [ 10678122631, 10789220057 ], [ 10789220057, 3819767936 ], [ 3819767936, 3819767895 ], [ 3819767895, 3819767887 ] ], "node_count": 51.0, "edge_count": 50.0, "route_length_m": 1875.396, "flood_feature_count_2022": 0.0, "flood_overlap_length_m_2022": 0.0, "flood_feature_count_2023": 0.0, "flood_overlap_length_m_2023": 0.0, "flood_feature_count_2024": 0.0, "flood_overlap_length_m_2024": 0.0, "flood_feature_count_2025": 0.0, "flood_overlap_length_m_2025": 0.0, "flood_feature_count_unique_total": 0.0, "flood_overlap_length_m_total": 0.0, "flood_overlap_ratio": 0.0, "mobility_facility_count_near_route": 12.0, "support_point_count_near_route": 11.0, "existing_safe_route_overlap_or_proximity_count": 13.0 }, "geometry": { "type": "LineString", "coordinates": [ [ 126.9210454, 37.6189398 ], [ 126.9210171, 37.6189183 ], [ 126.9209838, 37.6189037 ], [ 126.9209395, 37.6189027 ], [ 126.9209148, 37.6189008 ], [ 126.9208902, 37.6188959 ], [ 126.9208624, 37.6188841 ], [ 126.9208776, 37.6188633 ], [ 126.9209534, 37.6187326 ], [ 126.9209792, 37.6186824 ], [ 126.9209942, 37.6186576 ], [ 126.9207373, 37.6185769 ], [ 126.9202909, 37.618404 ], [ 126.9206285, 37.6182622 ], [ 126.920776, 37.6181746 ], [ 126.9205531, 37.6178583 ], [ 126.9204343, 37.6176778 ], [ 126.9200938, 37.6171607 ], [ 126.9204049, 37.6170253 ], [ 126.9205336, 37.6169693 ], [ 126.9206978, 37.6168515 ], [ 126.9211196, 37.6165487 ], [ 126.9211841, 37.6165024 ], [ 126.9212446, 37.6164131 ], [ 126.9214614, 37.6160931 ], [ 126.9216198, 37.6158593 ], [ 126.921713, 37.6157218 ], [ 126.9219568, 37.6153619 ], [ 126.9222533, 37.6149244 ], [ 126.9223568, 37.6147688 ], [ 126.9224084, 37.6145333 ], [ 126.9224224, 37.614451 ], [ 126.9224051, 37.6143734 ], [ 126.9223023, 37.6139699 ], [ 126.9222098, 37.6136068 ], [ 126.9220993, 37.6131888 ], [ 126.9220394, 37.6129624 ], [ 126.9220214, 37.6129165 ], [ 126.9219237, 37.6125211 ], [ 126.9217782, 37.6119322 ], [ 126.9217715, 37.6116669 ], [ 126.9217677, 37.6115184 ], [ 126.9217541, 37.6109795 ], [ 126.92175, 37.61097 ], [ 126.9217272, 37.6108216 ], [ 126.9217096, 37.6107074 ], [ 126.92169, 37.61058 ], [ 126.9216204, 37.6102468 ], [ 126.9216, 37.61016 ], [ 126.9215952, 37.6101372 ], [ 126.92156, 37.60997 ], [ 126.92151, 37.6099 ], [ 126.9214126, 37.6097485 ], [ 126.92133, 37.60962 ], [ 126.921229, 37.6095127 ], [ 126.92117, 37.60945 ], [ 126.92094, 37.60918 ], [ 126.9207614, 37.6090113 ], [ 126.9206662, 37.6088154 ], [ 126.9207939, 37.6086723 ], [ 126.9207125, 37.6085565 ], [ 126.9212118, 37.607969 ], [ 126.921435, 37.6077259 ], [ 126.921654, 37.6074875 ], [ 126.9217243, 37.6074109 ], [ 126.9219379, 37.6071783 ], [ 126.9219705, 37.6071403 ], [ 126.9224402, 37.6065926 ], [ 126.9225582, 37.606455 ], [ 126.9226823, 37.6063103 ], [ 126.9226406, 37.6062301 ], [ 126.9225333, 37.6060242 ], [ 126.9224246, 37.6058155 ], [ 126.9224189, 37.6058034 ], [ 126.9222376, 37.6054192 ], [ 126.9222203, 37.6053825 ], [ 126.9221965, 37.605337 ], [ 126.9221188, 37.60536 ], [ 126.9218117, 37.6054681 ], [ 126.9216141, 37.6050813 ], [ 126.9215588, 37.604973 ] ] } },
{ "type": "Feature", "properties": { "od_id": "연신내_6호선_to_eunpyeong_daycare", "station": "연신내", "station_line": "6호선", "station_lon": 126.920625, "station_lat": 37.618636, "facility_source": "mobility_facility", "facility_id": "mobility_facility-525", "facility_name": "은평장애인주간보호센터", "facility_address": "서울특별시 은평구 진흥로 87", "facility_lon": 126.9217, "facility_lat": 37.6047, "straight_line_distance_m": 1549.655, "station_node": 11230505686.0, "facility_node": 3819767887.0, "station_snap_distance_m": 20.028299588559467, "facility_snap_distance_m": 32.805859010302477, "snap_status": "PASS", "route_id": "연신내_6호선_to_eunpyeong_daycare_baseline", "route_type": "baseline", "method": "shortest_path_by_length", "node_sequence": [ 11230505686, 5279878735, 13734502235, 5279878736, 13357342107, 3819769835, 3819769821, 3819769759, 3819769745, 353193681, 3819769725, 3819769679, 3819769554, 3819769503, 3819769470, 3819769451, 3819769399, 353193679, 353193678, 3819769234, 3819769155, 4580258482, 3819769063, 353193675, 3819768934, 3819768906, 353193674, 3819768764, 3819768749, 3819768677, 436862050, 3819768596, 436862049, 3819768568, 10789220047, 4086709496, 10789220119, 10678122570, 3819768147, 10678122780, 10789220102, 10789220121, 10678122772, 10789220053, 10789220052, 10678122631, 10789220057, 3819767936, 3819767895, 3819767887 ], "edge_sequence": [ [ 11230505686, 5279878735 ], [ 5279878735, 13734502235 ], [ 13734502235, 5279878736 ], [ 5279878736, 13357342107 ], [ 13357342107, 3819769835 ], [ 3819769835, 3819769821 ], [ 3819769821, 3819769759 ], [ 3819769759, 3819769745 ], [ 3819769745, 353193681 ], [ 353193681, 3819769725 ], [ 3819769725, 3819769679 ], [ 3819769679, 3819769554 ], [ 3819769554, 3819769503 ], [ 3819769503, 3819769470 ], [ 3819769470, 3819769451 ], [ 3819769451, 3819769399 ], [ 3819769399, 353193679 ], [ 353193679, 353193678 ], [ 353193678, 3819769234 ], [ 3819769234, 3819769155 ], [ 3819769155, 4580258482 ], [ 4580258482, 3819769063 ], [ 3819769063, 353193675 ], [ 353193675, 3819768934 ], [ 3819768934, 3819768906 ], [ 3819768906, 353193674 ], [ 353193674, 3819768764 ], [ 3819768764, 3819768749 ], [ 3819768749, 3819768677 ], [ 3819768677, 436862050 ], [ 436862050, 3819768596 ], [ 3819768596, 436862049 ], [ 436862049, 3819768568 ], [ 3819768568, 10789220047 ], [ 10789220047, 4086709496 ], [ 4086709496, 10789220119 ], [ 10789220119, 10678122570 ], [ 10678122570, 3819768147 ], [ 3819768147, 10678122780 ], [ 10678122780, 10789220102 ], [ 10789220102, 10789220121 ], [ 10789220121, 10678122772 ], [ 10678122772, 10789220053 ], [ 10789220053, 10789220052 ], [ 10789220052, 10678122631 ], [ 10678122631, 10789220057 ], [ 10789220057, 3819767936 ], [ 3819767936, 3819767895 ], [ 3819767895, 3819767887 ] ], "node_count": 50.0, "edge_count": 49.0, "route_length_m": 1799.556, "flood_feature_count_2022": 0.0, "flood_overlap_length_m_2022": 0.0, "flood_feature_count_2023": 0.0, "flood_overlap_length_m_2023": 0.0, "flood_feature_count_2024": 0.0, "flood_overlap_length_m_2024": 0.0, "flood_feature_count_2025": 0.0, "flood_overlap_length_m_2025": 0.0, "flood_feature_count_unique_total": 0.0, "flood_overlap_length_m_total": 0.0, "flood_overlap_ratio": 0.0, "mobility_facility_count_near_route": 6.0, "support_point_count_near_route": 7.0, "existing_safe_route_overlap_or_proximity_count": 8.0 }, "geometry": { "type": "LineString", "coordinates": [ [ 126.9204226, 37.6185539 ], [ 126.9201525, 37.6184624 ], [ 126.9201038, 37.6183859 ], [ 126.9201149, 37.6183111 ], [ 126.9199722, 37.6181025 ], [ 126.9200577, 37.6180613 ], [ 126.9201964, 37.6180037 ], [ 126.9205531, 37.6178583 ], [ 126.9204343, 37.6176778 ], [ 126.9200938, 37.6171607 ], [ 126.9204049, 37.6170253 ], [ 126.9205336, 37.6169693 ], [ 126.9206978, 37.6168515 ], [ 126.9211196, 37.6165487 ], [ 126.9211841, 37.6165024 ], [ 126.9212446, 37.6164131 ], [ 126.9214614, 37.6160931 ], [ 126.9216198, 37.6158593 ], [ 126.921713, 37.6157218 ], [ 126.9219568, 37.6153619 ], [ 126.9222533, 37.6149244 ], [ 126.9223568, 37.6147688 ], [ 126.9224084, 37.6145333 ], [ 126.9224224, 37.614451 ], [ 126.9224051, 37.6143734 ], [ 126.9223023, 37.6139699 ], [ 126.9222098, 37.6136068 ], [ 126.9220993, 37.6131888 ], [ 126.9220394, 37.6129624 ], [ 126.9220214, 37.6129165 ], [ 126.9219237, 37.6125211 ], [ 126.9217782, 37.6119322 ], [ 126.9217715, 37.6116669 ], [ 126.9217677, 37.6115184 ], [ 126.9217541, 37.6109795 ], [ 126.92175, 37.61097 ], [ 126.9217272, 37.6108216 ], [ 126.9217096, 37.6107074 ], [ 126.92169, 37.61058 ], [ 126.9216204, 37.6102468 ], [ 126.9216, 37.61016 ], [ 126.9215952, 37.6101372 ], [ 126.92156, 37.60997 ], [ 126.92151, 37.6099 ], [ 126.9214126, 37.6097485 ], [ 126.92133, 37.60962 ], [ 126.921229, 37.6095127 ], [ 126.92117, 37.60945 ], [ 126.92094, 37.60918 ], [ 126.9207614, 37.6090113 ], [ 126.9206662, 37.6088154 ], [ 126.9207939, 37.6086723 ], [ 126.9207125, 37.6085565 ], [ 126.9212118, 37.607969 ], [ 126.921435, 37.6077259 ], [ 126.921654, 37.6074875 ], [ 126.9217243, 37.6074109 ], [ 126.9219379, 37.6071783 ], [ 126.9219705, 37.6071403 ], [ 126.9224402, 37.6065926 ], [ 126.9225582, 37.606455 ], [ 126.9226823, 37.6063103 ], [ 126.9226406, 37.6062301 ], [ 126.9225333, 37.6060242 ], [ 126.9224246, 37.6058155 ], [ 126.9224189, 37.6058034 ], [ 126.9222376, 37.6054192 ], [ 126.9222203, 37.6053825 ], [ 126.9221965, 37.605337 ], [ 126.9221188, 37.60536 ], [ 126.9218117, 37.6054681 ], [ 126.9216141, 37.6050813 ], [ 126.9215588, 37.604973 ] ] } },
{ "type": "Feature", "properties": { "od_id": "응암_6호선_to_eunpyeong_daycare", "station": "응암", "station_line": "6호선", "station_lon": 126.915577, "station_lat": 37.598605, "facility_source": "mobility_facility", "facility_id": "mobility_facility-525", "facility_name": "은평장애인주간보호센터", "facility_address": "서울특별시 은평구 진흥로 87", "facility_lon": 126.9217, "facility_lat": 37.6047, "straight_line_distance_m": 866.01, "station_node": 8735757178.0, "facility_node": 3819767887.0, "station_snap_distance_m": 11.20363638320314, "facility_snap_distance_m": 32.805859010302477, "snap_status": "PASS", "route_id": "응암_6호선_to_eunpyeong_daycare_baseline", "route_type": "baseline", "method": "shortest_path_by_length", "node_sequence": [ 8735757178, 8735757205, 414683392, 13360989731, 3891198185, 13185264857, 2523199332, 3811554563, 3811554565, 3811554566, 3811554569, 2523199336, 13185264858, 3811554587, 3811078671, 10789220069, 3811554630, 10789220067, 10789220065, 10789220066, 10789220063, 10789220097, 10789220062, 10789220061, 10789220060, 3819767842, 3819767863, 3819767875, 3819767879, 3819767897, 3819767895, 3819767887 ], "edge_sequence": [ [ 8735757178, 8735757205 ], [ 8735757205, 414683392 ], [ 414683392, 13360989731 ], [ 13360989731, 3891198185 ], [ 3891198185, 13185264857 ], [ 13185264857, 2523199332 ], [ 2523199332, 3811554563 ], [ 3811554563, 3811554565 ], [ 3811554565, 3811554566 ], [ 3811554566, 3811554569 ], [ 3811554569, 2523199336 ], [ 2523199336, 13185264858 ], [ 13185264858, 3811554587 ], [ 3811554587, 3811078671 ], [ 3811078671, 10789220069 ], [ 10789220069, 3811554630 ], [ 3811554630, 10789220067 ], [ 10789220067, 10789220065 ], [ 10789220065, 10789220066 ], [ 10789220066, 10789220063 ], [ 10789220063, 10789220097 ], [ 10789220097, 10789220062 ], [ 10789220062, 10789220061 ], [ 10789220061, 10789220060 ], [ 10789220060, 3819767842 ], [ 3819767842, 3819767863 ], [ 3819767863, 3819767875 ], [ 3819767875, 3819767879 ], [ 3819767879, 3819767897 ], [ 3819767897, 3819767895 ], [ 3819767895, 3819767887 ] ], "node_count": 32.0, "edge_count": 31.0, "route_length_m": 1092.603, "flood_feature_count_2022": 0.0, "flood_overlap_length_m_2022": 0.0, "flood_feature_count_2023": 0.0, "flood_overlap_length_m_2023": 0.0, "flood_feature_count_2024": 0.0, "flood_overlap_length_m_2024": 0.0, "flood_feature_count_2025": 0.0, "flood_overlap_length_m_2025": 0.0, "flood_feature_count_unique_total": 0.0, "flood_overlap_length_m_total": 0.0, "flood_overlap_ratio": 0.0, "mobility_facility_count_near_route": 6.0, "support_point_count_near_route": 8.0, "existing_safe_route_overlap_or_proximity_count": 25.0 }, "geometry": { "type": "LineString", "coordinates": [ [ 126.9155527, 37.5985061 ], [ 126.9156274, 37.598824 ], [ 126.915641, 37.5988828 ], [ 126.915655, 37.5989375 ], [ 126.9156862, 37.5990591 ], [ 126.9159834, 37.5991366 ], [ 126.9160283, 37.5991513 ], [ 126.9160823, 37.5991717 ], [ 126.9161735, 37.5992136 ], [ 126.9162209, 37.5992402 ], [ 126.9165896, 37.5995003 ], [ 126.9167687, 37.5996204 ], [ 126.9168198, 37.5996547 ], [ 126.9171967, 37.5998102 ], [ 126.9174032, 37.5998786 ], [ 126.9175561, 37.5999293 ], [ 126.9176636, 37.5999567 ], [ 126.91799, 37.6000398 ], [ 126.9188949, 37.6002704 ], [ 126.9190111, 37.6003182 ], [ 126.9195134, 37.6005248 ], [ 126.9196834, 37.6006375 ], [ 126.919897, 37.6007791 ], [ 126.9200473, 37.6009288 ], [ 126.9199351, 37.6010425 ], [ 126.920016, 37.6011082 ], [ 126.9203492, 37.6016653 ], [ 126.9203946, 37.6017412 ], [ 126.9204532, 37.6018609 ], [ 126.9206426, 37.6022477 ], [ 126.9207222, 37.6024103 ], [ 126.9209318, 37.6028383 ], [ 126.920962, 37.6029 ], [ 126.9210881, 37.6031539 ], [ 126.9212332, 37.603446 ], [ 126.9212457, 37.6034712 ], [ 126.9213734, 37.6037285 ], [ 126.9213849, 37.6037516 ], [ 126.9215361, 37.6040707 ], [ 126.9215139, 37.6040792 ], [ 126.9210204, 37.6042659 ], [ 126.9208907, 37.6043042 ], [ 126.9210561, 37.6046286 ], [ 126.921175, 37.6048618 ], [ 126.9211961, 37.6049033 ], [ 126.9213229, 37.6051519 ], [ 126.9216141, 37.6050813 ], [ 126.9215588, 37.604973 ] ] } }
]
}
